state,lat,p,c,borough,city,country_code,country,postcode,col,display_name,lng,suburb,d,city_district
Severozápad,50.45221,0.0,Orlen,,,cz,Česko,431 44,black,"Benzina - Chomutov, Pražská, Pražská, Chomutov I, Chomutov, okres Chomutov, Ústecký kraj, Severozápad, 431 44, Česko",13.42579,Chomutov I,,
Střední Čechy,50.02243,0.0,Orlen,,,cz,Česko,280 02,black,"Orlen, Kolín Benešova, Benešova, Kolín VI, Kolín, okres Kolín, Střední Čechy, 280 02, Česko",15.18422,Kolín VI,,
Střední Morava,49.87633,0.0,Benzina,,,cz,Česko,789 15,black,"Československé armády, Rudolfov, Zábřeh na Moravě, Zábřeh, okres Šumperk, Olomoucký kraj, Střední Morava, 789 15, Česko",16.88537,Zábřeh na Moravě,,
Praha,50.10347,0.0,Benzina,,Hlavní město Praha,cz,Česko,190 93,black,"Stop Cafe, Českomoravská, Balabenka, Libeň, Praha, obvod Praha 9, Hlavní město Praha, Praha, 190 93, Česko",14.48504,Libeň,,obvod Praha 9
Severovýchod,50.64786,0.0,ORLEN,,,cz,Česko,468 23,black,"Benzina Železný Brod, Betlémská, Hammeršťata, Železný Brod, Chlístov, Železný Brod, okres Jablonec nad Nisou, Liberecký kraj, Severovýchod, 468 23, Česko",15.25504,Železný Brod,,
Severovýchod,50.36061,0.0,Orlen,,,cz,Česko,549 01,black,"Benzina - Nové Město Nad Metují, T. G. Masaryka, Nové Město nad Metují, Vrchoviny, Nové Město nad Metují, okres Náchod, Královéhradecký kraj, Severovýchod, 549 01, Česko",16.14811,Nové Město nad Metují,,
,49.64539,0.0,Orlen,,,cz,Česko,332 04,black,"344, Nezvěstice, okres Plzeň-město, Plzeňský kraj, 332 04, Česko",13.50936,,,
Střední Morava,49.33824,0.0,Benzina,,,cz,Česko,752 01,black,"1416, Padlých hrdinů, Kojetín, Popůvky, Kojetín, okres Přerov, Olomoucký kraj, Střední Morava, 752 01, Česko",17.3136,Kojetín,,
,49.05027,0.0,Benzina,,,cz,Česko,373 41,black,"BENZINA, 105, Hluboká nad Vltavou, okres České Budějovice, 373 41, Česko",14.42986,Hluboká nad Vltavou,,
,49.22759,0.0,Orlen,,,cz,Česko,391 81,black,"Stop Cafe, 3, Řípec, okres Tábor, 391 81, Česko",14.72105,Řípec,,
Severozápad,50.65457,39.5,Orlen,,,cz,Česko,417 03,#999900,"277, Ruská, Dubí-Pozorka, Dubí, okres Teplice, Ústecký kraj, Severozápad, 417 03, Česko",13.80691,,před 7 dny,
Severozápad,50.3196,39.2,Benzina,,,cz,Česko,358 01,#009900,"Stop Cafe, Čs. armády, Kraslice, okres Sokolov, Karlovarský kraj, Severozápad, 358 01, Česko",12.51915,Kraslice,před 5 dny,
Jihovýchod,49.28772,0.0,Benzina,,,cz,Česko,595 01,black,"257, Za Loukama, Janovice, Velká Bíteš, okres Žďár nad Sázavou, Kraj Vysočina, Jihovýchod, 595 01, Česko",16.22214,Janovice,,
Severovýchod,50.2959,37.5,Orlen,,,cz,Česko,518 01,#009900,"Benzina, 298, Dobruška, okres Rychnov nad Kněžnou, Královéhradecký kraj, Severovýchod, 518 01, Česko",16.16835,Dobruška,před 4 dny,
Severozápad,50.42612,0.0,Orlen,,,cz,Česko,413 01,black,"2499, Hornická, Roudnice nad Labem, Podlusky, Roudnice nad Labem, okres Litoměřice, Ústecký kraj, Severozápad, 413 01, Česko",14.24113,Roudnice nad Labem,,
Severovýchod,50.22122,40.9,Orlen,,Hradec Králové,cz,Česko,503 01,#999900,"Benzina Koutníkova, Koutníkova, Plotiště nad Labem, Hradec Králové, okres Hradec Králové, Královéhradecký kraj, Severovýchod, 503 01, Česko",15.8071,Plotiště nad Labem,před 8 dny,
Severovýchod,50.48339,0.0,Orlen,,,cz,Česko,509 01,black,"Orlen express, Pražská, Vlkov, Nová Paka, Studénka, Nová Paka, okres Jičín, Královéhradecký kraj, Severovýchod, 509 01, Česko",15.5058,Vlkov,,
Praha,50.02131,0.0,Orlen,,Hlavní město Praha,cz,Česko,147 00,black,"Orlen - Modřany, Modřanská, Hodkovičky, Praha, obvod Praha 4, Hlavní město Praha, Praha, 147 00, Česko",14.40443,Hodkovičky,,obvod Praha 4
Střední Čechy,49.75307,0.0,Orlen,,,cz,Česko,285 09,black,"D1, Střechov nad Sázavou, Trhový Štěpánov, okres Benešov, Střední Čechy, 285 09, Česko",15.01866,,,
,48.93523,0.0,Orlen ,,,cz,Česko,384 91,black,"Stop Cafe, 4, Žlíbky, Horní Vltavice, okres Prachatice, 384 91, Česko",13.7655,,,
Praha,50.05935,42.9,Benzina,,Hlavní město Praha,cz,Česko,106 00,#999900,"Jižní spojka, Záběhlice, Praha, obvod Praha 10, Hlavní město Praha, Praha, 106 00, Česko",14.48446,Záběhlice,před 8 dny,obvod Praha 10
Praha,50.12822,41.7,Orlen,,Hlavní město Praha,cz,Česko,199 06,#009900,"Orlen, Kbelská, U Střížkova, Letňany, Praha, obvod Praha 9, Hlavní město Praha, Praha, 199 06, Česko",14.50517,Letňany,před 4 dny,obvod Praha 9
Praha,50.0872,41.9,ORLEN,,Hlavní město Praha,cz,Česko,162 00,#009900,"Orlen, Ankarská, Břevnov, Praha, obvod Praha 6, Hlavní město Praha, Praha, 162 00, Česko",14.34984,Břevnov,Včera,obvod Praha 6
Střední Čechy,50.10209,0.0,Orlen,,,cz,Česko,269 01,black,"Benzina, Pražská, Rakovník I, Rakovník, okres Rakovník, Střední Čechy, 269 01, Česko",13.7396,Rakovník I,,
Moravskoslezsko,49.84285,39.5,ORLEN,,Ostrava,cz,Česko,708 00,#009900,"407, Opavská, Pustkovec, Ostrava, okres Ostrava-město, Moravskoslezský kraj, Moravskoslezsko, 708 00, Česko",18.1499,Pustkovec,Předevčírem,
,48.99256,0.0,MOL,,České Budějovice,cz,Česko,370 21,black,"Strakonická, České Budějovice 3, České Budějovice, okres České Budějovice, 370 21, Česko",14.46968,České Budějovice 3,,
Moravskoslezsko,49.78122,39.5,Benzina,,Ostrava,cz,Česko,720 00,#009900,"Stop Cafe, Krmelínská, Hrabová, Ostrava, okres Ostrava-město, Moravskoslezský kraj, Moravskoslezsko, 720 00, Česko",18.27047,Hrabová,před 4 dny,
Severovýchod,50.12148,0.0,Orlen ,,,cz,Česko,517 41,black,"Benzina - Kostelec Nad Orlicí LS, Rudé armády, Kostelec nad Orlicí, okres Rychnov nad Kněžnou, Královéhradecký kraj, Severovýchod, 517 41, Česko",16.22026,Kostelec nad Orlicí,,
,49.01208,0.0,Orlen,,,cz,Česko,379 01,black,"Stop Cafe, 24, Obecní Mlýn, Třeboň, Holičky, Třeboň, okres Jindřichův Hradec, 379 01, Česko",14.788,Třeboň,,
Střední Čechy,49.87068,39.5,Orlen,,,cz,Česko,252 10,#009900,"947, Pražská, Mníšek pod Brdy, okres Praha-západ, Střední Čechy, 252 10, Česko",14.27048,Mníšek pod Brdy,před 4 dny,
Střední Morava,49.55206,0.0,Benzina,,,cz,Česko,783 47,black,"stop. cafe, D46, Žerůvky, Bystročice, okres Olomouc, Olomoucký kraj, Střední Morava, 783 47, Česko",17.18382,,,
,49.7464,40.9,Orlen,,Plzeň,cz,Česko,312 00,#009900,"1354/160, Rokycanská, Doubravka, Plzeň 4, Plzeň, okres Plzeň-město, Plzeňský kraj, 312 00, Česko",13.44157,Doubravka,Předevčírem,Plzeň 4
,49.8119,0.0,Orlen ,,,cz,Česko,316 00,black,"Benzina plus Třemošná, Plzeňská, Orlík, Třemošná, okres Plzeň-sever, Plzeňský kraj, 316 00, Česko",13.39253,Třemošná,,
Severozápad,50.62701,0.0,MOL,,,cz,Česko,415 01,black,"3140, Bílinská, Teplice, okres Teplice, Ústecký kraj, Severozápad, 415 01, Česko",13.82768,Teplice,,
Jihovýchod,49.30064,0.0,Orlen,,,cz,Česko,598 01,black,"Benzina - Třešť, Dr. Richtra, Třešť, okres Jihlava, Kraj Vysočina, Jihovýchod, 598 01, Česko",15.48245,Třešť,,
Praha,50.12485,0.0,Benzina,,Hlavní město Praha,cz,Česko,193 00,black,"Orlen, Novopacká, Horní Počernice, Praha, obvod Praha 9, Hlavní město Praha, Praha, 193 00, Česko",14.61457,Horní Počernice,,obvod Praha 9
Jihovýchod,48.8257,0.0,Orlen,,,cz,Česko,671 67,black,"Stop Cafe, Nádražní, Hrušovany nad Jevišovkou, okres Znojmo, Jihomoravský kraj, Jihovýchod, 671 67, Česko",16.39897,Hrušovany nad Jevišovkou,,
,48.96656,0.0,Shell,,České Budějovice,cz,Česko,372 15,black,"Shell, Novohradská, Havlíčkova kolonie, České Budějovice 6, České Budějovice, okres České Budějovice, 372 15, Česko",14.48797,České Budějovice 6,,
Praha,50.09691,0.0,Benzina,,Hlavní město Praha,cz,Česko,186 76,black,"Orlen, Novovysočanská, Žižkov, Praha, obvod Praha 3, Hlavní město Praha, Praha, 186 76, Česko",14.47814,Žižkov,,obvod Praha 3
Praha,50.10009,0.0,Benzina,,Hlavní město Praha,cz,Česko,170 00,black,"Orlen, Za Viaduktem, Holešovice, Praha, obvod Praha 7, Hlavní město Praha, Praha, 170 00, Česko",14.44264,Holešovice,,obvod Praha 7
,49.27237,0.0,Orlen,,,cz,Česko,387 11,black,"Benzina - Katovice, Tyršova, Katovice, okres Strakonice, 387 11, Česko",13.83952,Katovice,,
Severovýchod,50.2032,40.9,Orlen,,Hradec Králové,cz,Česko,500 01,#009900,"Brněnská, U Orlice, Hradec Králové, okres Hradec Králové, Královéhradecký kraj, Severovýchod, 500 01, Česko",15.84023,Hradec Králové,před 5 dny,
Moravskoslezsko,49.58001,0.0,Benzina,,,cz,Česko,739 11,black,"56, Frýdlant, Frýdlant nad Ostravicí, okres Frýdek-Místek, Moravskoslezský kraj, Moravskoslezsko, 739 11, Česko",18.3526,Frýdlant,,
Jihovýchod,49.22132,41.5,ORLEN,,Brno,cz,Česko,612 93,#009900,"Stop Cafe, 42, Žabovřesky, Brno, okres Brno-město, Jihomoravský kraj, Jihovýchod, 612 93, Česko",16.5828,Žabovřesky,před 4 dny,
Střední Čechy,49.53184,0.0,Orlen,,,cz,Česko,391 36,black,"Mitrovice, D3, Mitrovice, Mezno, okres Benešov, Střední Čechy, 391 36, Česko",14.66487,Mitrovice,,
,48.98876,39.9,Benzina,,České Budějovice,cz,Česko,370 04,#009900,"Stop Cafe, Nádražní, Pražské Předměstí, České Budějovice 3, České Budějovice, okres České Budějovice, 370 04, Česko",14.47836,České Budějovice 3,před 5 dny,
,49.13138,0.0,Orlen,,,cz,Česko,377 01,black,"890, Václavská, Jindřichův Hradec III, Jindřichův Hradec, okres Jindřichův Hradec, 377 01, Česko",15.00283,Jindřichův Hradec III,,
Severozápad,50.96817,39.5,Orlen,,,cz,Česko,408 01,#009900,"636/2, Východní, Rumburk, okres Děčín, Ústecký kraj, Severozápad, 408 01, Česko",14.5635,Rumburk,před 5 dny,
Severovýchod,49.82354,39.9,Orlen,,,cz,Česko,569 55,#009900,"Benzina, 35, Gajer, Janov u Litomyšle, Mendryka, Janov, okres Svitavy, Pardubický kraj, Severovýchod, 569 55, Česko",16.40505,Janov u Litomyšle,před 5 dny,
Jihovýchod,48.83148,0.0,Orlen,,,cz,Česko,691 86,black,"Orlen, 52, Bavory, okres Břeclav, Jihomoravský kraj, Jihovýchod, 691 86, Česko",16.61338,Bavory,,
,49.27479,39.5,Benzina,,,cz,Česko,,#009900,"Stop Cafe, 191, Svatá Kateřina, Svatá Kateřina u Chudenína, Chudenín, okres Klatovy, Plzeňský kraj, Česko",13.0686,Svatá Kateřina u Chudenína,před 5 dny,
,49.08203,0.0,Orlen ,,,cz,Česko,380 01,black,"Stop Cafe, Hradecká, Péráček, Dačice, okres Jindřichův Hradec, 380 01, Česko",15.41979,Péráček,,
Moravskoslezsko,49.70744,0.0,Benzina,,,cz,Česko,742 13,black,"Benzina Studénka, Butovická, Butovice, Studénka, okres Nový Jičín, Moravskoslezský kraj, Moravskoslezsko, 742 13, Česko",18.04852,Butovice,,
Severozápad,50.66584,39.5,Orlen,,Ústí nad Labem,cz,Česko,400 07,#999900,"813/65, Neštěmická, Nad zoologickou zahradou, Krásné Březno, Ústí nad Labem, okres Ústí nad Labem, Ústecký kraj, Severozápad, 400 07, Česko",14.06533,Krásné Březno,před 9 dny,
Severozápad,50.79765,38.9,Orlen,,,cz,Česko,407 21,#009900,"Orlen, Úzká, Dolní Kamenice, Česká Kamenice, okres Děčín, Ústecký kraj, Severozápad, 407 21, Česko",14.40445,Dolní Kamenice,před 3 dny,
Střední Morava,49.4622,38.9,Benzina,,,cz,Česko,756 61,#009900,"1. máje, sídliště Koryčanské paseky, Rožnov pod Radhoštěm, okres Vsetín, Zlínský kraj, Střední Morava, 756 61, Česko",18.12861,Rožnov pod Radhoštěm,Dnes,
Jihovýchod,48.73504,39.5,Benzina,,,cz,Česko,691 41,#999900,"Orlen, Hraniční, Poštorná, Břeclav, okres Břeclav, Jihomoravský kraj, Jihovýchod, 691 41, Česko",16.85838,Poštorná,před 8 dny,
Severovýchod,50.14937,0.0,Orlen,,,cz,Česko,503 51,black,"Nové Město nad Cidlinou, Nové Město, okres Hradec Králové, Královéhradecký kraj, Severovýchod, 503 51, Česko",15.49953,Nové Město nad Cidlinou,,
,49.57821,0.0,Orlen,,,cz,Česko,334 01,black,"1142, Dukelská, Přeštice, okres Plzeň-jih, Plzeňský kraj, 334 01, Česko",13.3268,Přeštice,,
Severovýchod,50.70916,0.0,Orlen ,,,cz,Česko,468 46,black,"Stop Cafe, 01019, Plavy, Bohdalovice, Plavy, okres Jablonec nad Nisou, Liberecký kraj, Severovýchod, 468 46, Česko",15.31553,Plavy,,
Střední Čechy,50.03338,0.0,Benzina,,,cz,Česko,252 19,black,"D5, Dušníky u Rudné, Rudná, okres Praha-západ, Střední Čechy, 252 19, Česko",14.21623,Dušníky u Rudné,,
Košický kraj,48.76694,0.0,Orlen,,,sk,Slovensko,071 01,black,"Stop Cafe, 3897, okres Michalovce, Košický kraj, Východné Slovensko, 071 01, Slovensko",21.88675,,,
Praha,50.1381,39.9,ORLEN,,Hlavní město Praha,cz,Česko,165 00,#009900,"ev.10/157, Kamýcká, Suchdol, Praha, obvod Praha 6, Hlavní město Praha, Praha, 165 00, Česko",14.36647,Praha,Dnes,obvod Praha 6
Severozápad,50.51987,0.0,Benzina,,,cz,Česko,435 02,black,"Hořanská cesta, Souš, Most II, Most, okres Most, Ústecký kraj, Severozápad, 435 02, Česko",13.60956,Souš,,
,49.54867,39.5,Orlen,,,cz,Česko,591 01,#999900,"2207/46, Brněnská, Žďár nad Sázavou 1, Město Žďár, Žďár nad Sázavou, okres Žďár nad Sázavou, Kraj Vysočina, 591 01, Česko",15.95625,Žďár nad Sázavou 1,před 7 dny,
Severovýchod,50.34286,38.5,Orlen,,,cz,Česko,551 01,#009900,"ORLEN, 761, Hradecká, Pražské Předměstí, Jaroměř, okres Náchod, Královéhradecký kraj, Severovýchod, 551 01, Česko",15.90453,Pražské Předměstí,před 5 dny,
Severovýchod,50.14315,39.9,Orlen,,,cz,Česko,533 22,#009900,"Benzina, 35, Hoděšovice, Býšť, okres Pardubice, Pardubický kraj, Severovýchod, 533 22, Česko",15.89475,,Předevčírem,
Jihovýchod,49.41564,0.0,Orlen,,,cz,Česko,393 01,black,"Benzina - PELHŘIMOV, 1930, Nádražní, Pelhřimov, okres Pelhřimov, Kraj Vysočina, Jihovýchod, 393 01, Česko",15.22194,Pelhřimov,,
Střední Morava,49.48362,39.9,Benzina,,,cz,Česko,796 03,#009900,"ORLEN - Benzina - Prostějov, Olomoucká, Za Olomouckou, Prostějov, okres Prostějov, Olomoucký kraj, Střední Morava, 796 03, Česko",17.12175,Prostějov,před 3 dny,
Praha,50.03102,0.0,Orlen,,Hlavní město Praha,cz,Česko,152 00,black,"H2, K Barrandovu, Barrandov, Hlubočepy, Praha, obvod Praha 5, Hlavní město Praha, Praha, 152 00, Česko",14.38047,Hlubočepy,,obvod Praha 5
Severovýchod,49.96594,39.5,Orlen,,,cz,Česko,562 03,#009900,"ORLEN - Ústí Nad Orlicí, Moravská, Moravská, Hylváty, Ústí nad Orlicí, okres Ústí nad Orlicí, Pardubický kraj, Severovýchod, 562 03, Česko",16.40496,,Dnes,
Moravskoslezsko,49.77555,0.0,Benzina,,,cz,Česko,742 83,black,"D1, Janovice, Bravantice, okres Nový Jičín, Moravskoslezský kraj, Moravskoslezsko, 742 83, Česko",18.09532,Bravantice,,
Střední Morava,49.21815,0.0,Benzina,,,cz,Česko,763 12,black,"1363, Zlínská, Vizovice, okres Zlín, Zlínský kraj, Střední Morava, 763 12, Česko",17.84714,Vizovice,,
Severovýchod,49.98137,0.0,Orlen,,,cz,Česko,562 01,black,"1395, Královéhradecká, Ústí nad Orlicí, okres Ústí nad Orlicí, Pardubický kraj, Severovýchod, 562 01, Česko",16.39469,Ústí nad Orlicí,,
,49.32494,0.0,Orlen ,,,cz,Česko,341 01,black,"1134, Komenského, Zářečí u Horažďovic, Nový Dvůr, Horažďovice, okres Klatovy, Plzeňský kraj, 341 01, Česko",13.68739,Zářečí u Horažďovic,,
Jihovýchod,49.18347,38.9,Benzina,,Brno,cz,Česko,627 00,#009900,"1474/1c, Hviezdoslavova, Slatina, Brno, okres Brno-město, Jihomoravský kraj, Jihovýchod, 627 00, Česko",16.6717,Slatina,Včera,
,49.18481,39.9,ORLEN,,,cz,Česko,665 01,#009900,"Brněnská, Rosice u Brna, Rosice, okres Brno-venkov, Jihomoravský kraj, 665 01, Česko",16.40309,Rosice u Brna,Včera,
,48.77763,39.5,Benzina,,,cz,Česko,690 03,#999900,"3121, Lidická, Břeclav, okres Břeclav, Jihomoravský kraj, 690 03, Česko",16.89834,Břeclav,před 8 dny,
Bratislavský kraj,48.44294,0.0,Benzina,,,sk,Slovensko,901 91,black,"Brnianska, Malacky, okres Malacky, Bratislavský kraj, 901 91, Slovensko",17.0123,,,
Severozápad,50.48109,0.0,Orlen,,,cz,Česko,411 21,black,"Kralupol, D8, Siřejovice, okres Litoměřice, Ústecký kraj, Severozápad, 411 21, Česko",14.08115,Siřejovice,,
,49.19849,39.5,Benzina,,,cz,Česko,398 11,#999900,"913, Ve Školce, Protivín, okres Písek, 398 11, Česko",14.21133,Protivín,před 7 dny,
Střední Čechy,50.25029,39.9,Benzina,,,cz,Česko,278 01,#009900,"Benzina - Kralupy nad Vltavou, Mostní, Lobeček, Kralupy nad Vltavou, okres Mělník, Střední Čechy, 278 01, Česko",14.32033,Lobeček,Dnes,
Střední Čechy,50.23525,40.5,Orlen,,,cz,Česko,274 01,#009900,"Stop Cafe, Dukelských hrdinů, Slaný, okres Kladno, Střední Čechy, 274 01, Česko",14.06979,Slaný,Dnes,
Severovýchod,50.03433,38.7,Orlen,,Pardubice,cz,Česko,530 02,#009900,"2763, Palackého třída, Zelené Předměstí, Pardubice, okres Pardubice, Pardubický kraj, Severovýchod, 530 02, Česko",15.75096,Zelené Předměstí,Včera,
Moravskoslezsko,49.61245,0.0,MOL,,,cz,Česko,742 21,black,"Drnholec nad Lubinou, Lubina, Kopřivnice, okres Nový Jičín, Moravskoslezský kraj, Moravskoslezsko, 742 21, Česko",18.16116,Drnholec nad Lubinou,,
Severovýchod,50.159,0.0,Orlen,,,cz,Česko,503 51,black,"Benzina - Chlumec Nad Cidlinou, Pražská, Chlumec nad Cidlinou III, Chlumec nad Cidlinou, okres Hradec Králové, Královéhradecký kraj, Severovýchod, 503 51, Česko",15.4464,Chlumec nad Cidlinou III,,
Severozápad,50.67027,39.5,Orlen,,,cz,Česko,417 01,#999900,"303, Ruská, Dubí-Bystřice, Dubí, okres Teplice, Ústecký kraj, Severozápad, 417 01, Česko",13.79417,,před 7 dny,
Severozápad,50.51665,40.5,Orlen,,,cz,Česko,412 01,#999900,"ev.164, U Terezínské křižovatky, Nové Kopisty, Terezín, okres Litoměřice, Ústecký kraj, Severozápad, 412 01, Česko",14.13638,,před 9 dny,
,49.2524,0.0,Orlen,,,cz,Česko,386 01,black,"Benzina Volyňská, Volyňská, Strakonice II, Nové Strakonice, Strakonice, okres Strakonice, 386 01, Česko",13.91307,Strakonice II,,
Moravskoslezsko,49.8563,0.0,Benzina,,Ostrava,cz,Česko,712 00,black,"Stop Cafe, 901/69, Muglinovská, Muglinov, Ostrava, okres Ostrava-město, Moravskoslezský kraj, Moravskoslezsko, 712 00, Česko",18.28845,Muglinov,,
Střední Čechy,50.06895,0.0,Orlen ,,,cz,Česko,250 82,black,"ORLEN Benzina Úvaly, U Přeložky, Na Slovanech, Úvaly u Prahy, Úvaly, okres Praha-východ, Střední Čechy, 250 82, Česko",14.7308,Úvaly u Prahy,,
Praha,50.04009,0.0,OMV,,Hlavní město Praha,cz,Česko,149 00,black,"OMV, Mírového hnutí, Háje, Praha, obvod Praha 4, Hlavní město Praha, Praha, 149 00, Česko",14.51125,Háje,,obvod Praha 4
Severozápad,50.24427,40.9,Orlen,,,cz,Česko,362 63,#009900,"Stop Cafe, Stará cesta, Všeborovice, Dalovice, okres Karlovy Vary, Karlovarský kraj, Severozápad, 362 63, Česko",12.89923,Všeborovice,před 4 dny,
Severovýchod,50.04469,39.9,Orlen ,,Pardubice,cz,Česko,530 09,#009900,"Orlen benzina, 324, Polabiny V, Pardubice, okres Pardubice, Pardubický kraj, Severovýchod, 530 09, Česko",15.76766,Pardubice,Předevčírem,
Střední Čechy,50.14363,0.0,Orlen,,,cz,Česko,439 86,black,"D6, Bukov, Kolešov, okres Rakovník, Střední Čechy, 439 86, Česko",13.49295,Kolešov,,
,49.14104,0.0,Benzina,,,cz,Česko,389 01,black,"ČS ORLEN Vodňany, Budějovická, Vodňany II, Vodňany, okres Strakonice, 389 01, Česko",14.1832,Vodňany II,,
Jihovýchod,49.26974,0.0,Benzina,,,cz,Česko,594 54,black,"Orlen, D1, Velká Bíteš, okres Žďár nad Sázavou, Kraj Vysočina, Jihovýchod, 594 54, Česko",16.27762,Velká Bíteš,,
,49.22322,0.0,ORLEN,,Brno,cz,Česko,624 00,black,"LPG, Bystrcká, Komín, Brno, okres Brno-město, Jihomoravský kraj, 624 00, Česko",16.53753,Komín,,
Střední Čechy,50.33846,38.9,Orlen ,,,cz,Česko,276 01,#999900,"Mělník, okres Mělník, Střední Čechy, 276 01, Česko",14.49377,Mělník,před 9 dny,
Jihovýchod,49.21896,0.0,ORLEN,,Brno,cz,Česko,616 00,black,"Benzina, Královopolská, Žabovřesky, Brno, okres Brno-město, Jihomoravský kraj, Jihovýchod, 616 00, Česko",16.57544,Žabovřesky,,
Střední Čechy,49.97298,0.0,Orlen,,,cz,Česko,252 42,black,"1007, Budějovická, Šátalka, Jesenice u Prahy, Zdiměřice, Jesenice, okres Praha-západ, Střední Čechy, 252 42, Česko",14.50247,Jesenice u Prahy,,
Severovýchod,50.57127,0.0,ORLEN,,,cz,Česko,471 63,black,"Benzina - Doksy, 38, Doksy u Máchova jezera, Staré Splavy, Doksy, okres Česká Lípa, Liberecký kraj, Severovýchod, 471 63, Česko",14.64469,Doksy u Máchova jezera,,
Moravskoslezsko,49.79779,0.0,Benzina,,Ostrava,cz,Česko,700 30,black,"3187, Rudná, Zábřeh, Zábřeh nad Odrou, Ostrava, okres Ostrava-město, Moravskoslezský kraj, Moravskoslezsko, 700 30, Česko",18.23908,Zábřeh,,
Střední Čechy,50.06333,0.0,Orlen,,,cz,Česko,282 01,black,"Orlen Český Brod, 12, Český Brod, okres Kolín, Střední Čechy, 282 01, Česko",14.84871,Český Brod,,
Severovýchod,50.08881,39.5,Orlen,,,cz,Česko,564 01,#009900,"Benzina - Žamberk, Čs. armády, Žamberk, okres Ústí nad Orlicí, Pardubický kraj, Severovýchod, 564 01, Česko",16.45627,Žamberk,před 6 dny,
Jihovýchod,48.81303,0.0,Benzina,,,cz,Česko,692 01,black,"Stop Cafe, 1532/76, Brněnská, Mikulov na Moravě, Mikulov, okres Břeclav, Jihomoravský kraj, Jihovýchod, 692 01, Česko",16.62998,Mikulov na Moravě,,
Praha,50.10816,42.9,Benzina,,Hlavní město Praha,cz,Česko,193 00,#999900,"Olomoucká, Horní Počernice, Praha, obvod Praha 9, Hlavní město Praha, Praha, 193 00, Česko",14.63842,Horní Počernice,před 7 dny,obvod Praha 9
Střední Čechy,50.04061,0.0,Orlen,,,cz,Česko,280 00,black,"Ovčárecká, Kolín V, Kolín, Sendražice, Kolín, okres Kolín, Střední Čechy, 280 00, Česko",15.21335,Kolín V,,
Střední Morava,49.4548,39.9,Benzina,,,cz,Česko,796 01,#009900,"Brněnská, Prostějov, okres Prostějov, Olomoucký kraj, Střední Morava, 796 01, Česko",17.11176,Prostějov,před 5 dny,
Severovýchod,50.78776,0.0,Orlen,,,cz,Česko,463 53,black,"151, Rynoltice, okres Liberec, Liberecký kraj, Severovýchod, 463 53, Česko",14.80939,,,
Moravskoslezsko,49.74097,39.3,Benzina,,,cz,Česko,737 01,#009900,"Orlen, Jablunkovská, Kontešinec, Český Těšín, okres Karviná, Moravskoslezský kraj, Moravskoslezsko, 737 01, Česko",18.62136,Český Těšín,Předevčírem,
,49.69876,0.0,Orlen,,Plzeň,cz,Česko,326 00,black,"Benzina, Plzeň, K Plzenci, K Plzenci, Černice, Plzeň 8-Černice, Plzeň, okres Plzeň-město, Plzeňský kraj, 326 00, Česko",13.4235,Černice,,Plzeň 8-Černice
Severovýchod,49.94289,0.0,Orlen,,,cz,Česko,566 01,black,"Orlen express, Husova, Litomyšlské Předměstí, Vysoké Mýto, okres Ústí nad Orlicí, Pardubický kraj, Severovýchod, 566 01, Česko",16.16434,Litomyšlské Předměstí,,
,49.38469,0.0,Orlen ,,,cz,Česko,339 01,black,"Za Tratí, Klatovy I, Klatovy, okres Klatovy, Plzeňský kraj, 339 01, Česko",13.29635,Klatovy I,,
Severozápad,50.08402,39.5,Orlen,,,cz,Česko,335 02,#009900,"Stop Cafe, Ašská, Cheb, okres Cheb, Karlovarský kraj, Severozápad, 335 02, Česko",12.37239,Cheb,Dnes,
,49.40844,0.0,Benzina,,,cz,Česko,339 01,black,"Benzina - Klatovy, Plzeňská, Klatovy II, Klatovy, okres Klatovy, Plzeňský kraj, 339 01, Česko",13.2936,Klatovy II,,
Praha,50.077,41.9,Benzina,,Hlavní město Praha,cz,Česko,150 06,#009900,"Orlen, Slezanů, Břevnov, Praha, obvod Praha 6, Hlavní město Praha, Praha, 150 06, Česko",14.33511,Břevnov,Dnes,obvod Praha 6
Střední Morava,49.46582,38.9,Benzina,,,cz,Česko,756 61,#009900,"2270, Radhošťská, Rožnov pod Radhoštěm, okres Vsetín, Zlínský kraj, Střední Morava, 756 61, Česko",18.16215,Rožnov pod Radhoštěm,Dnes,
Moravskoslezsko,49.83087,0.0,ORLEN,,Ostrava,cz,Česko,722 00,black,"Orlen, Opavská, Poruba-sever, Ostrava, okres Ostrava-město, Moravskoslezský kraj, Moravskoslezsko, 722 00, Česko",18.18605,Poruba-sever,,
Severovýchod,50.02736,0.0,ORLEN,,Pardubice,cz,Česko,532 32,black,"Benzina - Pardubice, Dukla, Pražská, Zavadilka, Pardubice, okres Pardubice, Pardubický kraj, Severovýchod, 532 32, Česko",15.75479,Pardubice,,
Severozápad,50.66112,0.0,Orlen,,Ústí nad Labem,cz,Česko,400 11,black,"Benzina, Ústí nad Labem, Předmostí, Předmostí, Ke Skřivánku, Ústí nad Labem, okres Ústí nad Labem, Ústecký kraj, Severozápad, 400 11, Česko",14.0469,Ústí nad Labem,,
Střední Morava,49.21056,0.0,Benzina,,,cz,Česko,765 02,black,"Benzina - Otrokovice, tř. Tomáše Bati, Otrokovice, okres Zlín, Zlínský kraj, Střední Morava, 765 02, Česko",17.51724,Otrokovice,,
Severozápad,50.31668,37.9,Orlen,,,cz,Česko,363 01,#009900,"Orlen, Jáchymovská, Ostrov nad Ohří, Ostrov, okres Karlovy Vary, Karlovarský kraj, Severozápad, 363 01, Česko",12.94548,Ostrov nad Ohří,před 4 dny,
Jihovýchod,49.32766,0.0,Orlen,,,cz,Česko,679 22,black,"43, Lipůvka, okres Blansko, Jihomoravský kraj, Jihovýchod, 679 22, Česko",16.55374,Lipůvka,,
,49.40275,0.0,Orlen,,,cz,Česko,390 02,black,"Benzina - Tábor, Měšice, Pelhřimovská, Na kopečku, Tábor, okres Tábor, 390 02, Česko",14.69262,Tábor,,
Severovýchod,50.16495,39.5,Orlen,,,cz,Česko,516 01,#009900,"322, Jiráskova, Rychnov nad Kněžnou, Lipovka, Rychnov nad Kněžnou, okres Rychnov nad Kněžnou, Královéhradecký kraj, Severovýchod, 516 01, Česko",16.27174,Rychnov nad Kněžnou,Včera,
Severozápad,50.38891,0.0,Orlen,,,cz,Česko,431 51,black,"Benzina, Osvobozená, Horní Miřetice, Miřetice u Klášterce nad Ohří, Klášterec nad Ohří, okres Chomutov, Ústecký kraj, Severozápad, 431 51, Česko",13.19508,Miřetice u Klášterce nad Ohří,,
Střední Čechy,50.08672,37.9,ORLEN,,,cz,Česko,273 51,#009900,"101, Unhošť, okres Kladno, Střední Čechy, 273 51, Česko",14.14174,Unhošť,Dnes,
Severovýchod,50.56495,0.0,Benzina,,,cz,Česko,541 01,black,"Benzina - Trutnov, Polská, Polská, Dolní Předměstí, Trutnov, okres Trutnov, Královéhradecký kraj, Severovýchod, 541 01, Česko",15.92315,Dolní Předměstí,,
Severozápad,50.36011,0.0,Orlen,,,cz,Česko,439 01,black,"Stop Cafe, Husova, Kotěrova kolonie, Louny, okres Louny, Ústecký kraj, Severozápad, 439 01, Česko",13.82481,Louny,,
Jihovýchod,49.53841,39.5,Orlen,,,cz,Česko,396 01,#009900,"1540, 5. května, Humpolec, Vilémov, Humpolec, okres Pelhřimov, Kraj Vysočina, Jihovýchod, 396 01, Česko",15.36754,Humpolec,před 6 dny,
Moravskoslezsko,49.93503,39.5,Orlen,,,cz,Česko,747 05,#999900,"Orlen, Těšínská, Předměstí, Opava-Předměstí, Opava, okres Opava, Moravskoslezský kraj, Moravskoslezsko, 747 05, Česko",17.91298,Předměstí,před 7 dny,
Praha,50.06411,41.9,Benzina,,Hlavní město Praha,cz,Česko,100 31,#009900,"Orlen, 1545, Průběžná, Strašnice, Praha, obvod Praha 10, Hlavní město Praha, Praha, 100 31, Česko",14.50413,Strašnice,Předevčírem,obvod Praha 10
,49.40862,0.0,Orlen ,,,cz,Česko,339 01,black,"Benzina - Klatovy, Plzeňská, Plzeňská, Klatovy II, Klatovy, okres Klatovy, Plzeňský kraj, 339 01, Česko",13.29425,Klatovy II,,
Jihovýchod,49.1485,0.0,Benzina,,,cz,Česko,684 01,black,"Benzina, Hodějice, 50, Hodějice, okres Vyškov, Jihomoravský kraj, Jihovýchod, 684 01, Česko",16.92191,Hodějice,,
,49.13572,0.0,Orlen,,,cz,Česko,377 01,black,"34, Jindřichův Hradec III, Jindřichův Hradec, okres Jindřichův Hradec, 377 01, Česko",15.01902,Jindřichův Hradec III,,
Severozápad,50.07276,0.0,Orlen,,,cz,Česko,335 02,black,"Orlen, Vrbenského, Cheb, okres Cheb, Karlovarský kraj, Severozápad, 335 02, Česko",12.36112,Cheb,,
,49.39504,0.0,Orlen,,,cz,Česko,390 05,black,"McDonald's, Soběslavská, sídliště Nad Lužnicí, Tábor, okres Tábor, 390 05, Česko",14.68768,sídliště Nad Lužnicí,,
Střední Čechy,50.00352,0.0,Orlen ,,,cz,Česko,251 01,black,"Černokostelecká, Radošovice, Říčany-Radošovice, Říčany, okres Praha-východ, Střední Čechy, 251 01, Česko",14.66017,Radošovice,,
Severovýchod,49.71515,0.0,Orlen ,,,cz,Česko,569 01,black,"ORLEN, 43, Hradec nad Svitavou, okres Svitavy, Pardubický kraj, Severovýchod, 569 01, Česko",16.48609,Hradec nad Svitavou,,
Jihovýchod,49.35959,39.9,Orlen,,,cz,Česko,678 01,#009900,"Benzina, Svitavská, Staré Blansko, Blansko, okres Blansko, Jihomoravský kraj, Jihovýchod, 678 01, Česko",16.64243,Blansko,Včera,
,49.01461,0.0,Orlen ,,,cz,Česko,378 33,black,"380, Vídeňská, Nová Bystřice, Albeř, Nová Bystřice, okres Jindřichův Hradec, 378 33, Česko",15.11319,Nová Bystřice,,
,49.06683,0.0,Orlen ,,,cz,Česko,385 01,black,"Orlen, 534, 1. máje, Vimperk II, Vimperk, Boubská, Vimperk, okres Prachatice, 385 01, Česko",13.78198,Vimperk II,,
Praha,50.10904,0.0,Benzina,,Hlavní město Praha,cz,Česko,194 00,black,"Autocentrum Dojáček, Kolbenova, Hloubětín, Praha, obvod Praha 9, Hlavní město Praha, Praha, 194 00, Česko",14.54292,Hloubětín,,obvod Praha 9
Severovýchod,50.08165,39.5,Orlen,,,cz,Česko,561 69,#999900,"998, Králíky, okres Ústí nad Orlicí, Pardubický kraj, Severovýchod, 561 69, Česko",16.76118,,před 9 dny,
Jihovýchod,48.88969,0.0,Benzina,,,cz,Česko,696 65,black,"Stop Cafe, 55, Strážnice na Moravě, Strážnice, okres Hodonín, Jihomoravský kraj, Jihovýchod, 696 65, Česko",17.29356,Strážnice na Moravě,,
Severozápad,50.31647,0.0,Orlen,,,cz,Česko,362 22,black,"Orlen, 220, Pozorka u Nejdku, Pozorka, Nejdek, okres Karlovy Vary, Karlovarský kraj, Severozápad, 362 22, Česko",12.75219,Pozorka u Nejdku,,
Severozápad,50.66269,39.5,Orlen,,Ústí nad Labem,cz,Česko,400 07,#009900,"Benzina Ústí nad Labem, Přístavní, Přístavní, Krásné Březno-Nový Svět, Krásné Březno, Ústí nad Labem, okres Ústí nad Labem, Ústecký kraj, Severozápad, 400 07, Česko",14.07181,Krásné Březno,Včera,
Severovýchod,50.8135,0.0,Orlen,,,cz,Česko,463 31,black,"Orlen, 13;35, Dolní Chrastava, Horní Chrastava, Chrastava, okres Liberec, Liberecký kraj, Severovýchod, 463 31, Česko",14.96276,Dolní Chrastava,,
,49.80699,0.0,Orlen,,,cz,Česko,347 01,black,"Stop Cafe, Sokolovská, Tachov, Vítkov, Tachov, okres Tachov, Plzeňský kraj, 347 01, Česko",12.64347,Tachov,,
Střední Morava,49.29377,0.0,ValaTrans,,,cz,Česko,756 31,black,"483, Liptál, okres Vsetín, Zlínský kraj, Střední Morava, 756 31, Česko",17.93573,,,
,49.05296,37.9,BENZINA,,,cz,Česko,384 11,#009900,"Penny, 145, Netolice, Petrův Dvůr, Netolice, okres Prachatice, 384 11, Česko",14.18937,Netolice,před 3 dny,
,49.19112,39.9,Benzina,,,cz,Česko,683 01,#009900,"Benzina, Slavkovská, Rousínovec, Rousínov u Vyškova, Rousínov, okres Vyškov, Jihomoravský kraj, 683 01, Česko",16.87921,Rousínovec,Včera,
Moravskoslezsko,49.92725,0.0,Benzina,,,cz,Česko,746 91,black,"Orlen, Hradecká, Opava-Předměstí, Opava, okres Opava, Moravskoslezský kraj, Moravskoslezsko, 746 91, Česko",17.89879,Opava-Předměstí,,
Moravskoslezsko,49.78178,39.9,Benzina,,Ostrava,cz,Česko,700 30,#999900,"Horní, Bělský Les, Hrabůvka, Ostrava, okres Ostrava-město, Moravskoslezský kraj, Moravskoslezsko, 700 30, Česko",18.2534,Bělský Les,před 9 dny,
,49.99056,0.0,Orlen ,,,cz,Česko,331 41,black,"Benzina, Žatecká, Kralovice u Rakovníka, Kralovice, okres Plzeň-sever, Plzeňský kraj, 331 41, Česko",13.48838,Kralovice u Rakovníka,,
Severozápad,50.41064,0.0,Orlen,,,cz,Česko,413 01,black,"2496, Žižkova, Roudnice nad Labem, Podlusky, Roudnice nad Labem, okres Litoměřice, Ústecký kraj, Severozápad, 413 01, Česko",14.24322,Roudnice nad Labem,,
Střední Čechy,49.94737,40.5,Orlen,,,cz,Česko,284 01,#999900,"939, Kouřimská, Žižkov, Kutná Hora, okres Kutná Hora, Střední Čechy, 284 01, Česko",15.25502,Žižkov,před 7 dny,
Severozápad,50.45986,0.0,Orlen,,,cz,Česko,430 01,black,"Benzina - Chomutov, V Alejích, 13, Chomutov I, Chomutov, okres Chomutov, Ústecký kraj, Severozápad, 430 01, Česko",13.40346,Chomutov I,,
,48.84662,0.0,Orlen,,,cz,Česko,669 02,black,"Stop Cafe, Vídeňská třída, Znojmo-město, Znojmo, okres Znojmo, Jihomoravský kraj, 669 02, Česko",16.05712,Znojmo-město,,
Střední Čechy,50.13309,0.0,Orlen,,,cz,Česko,289 12,black,"Orlen, Poděbradská, Sadská, okres Nymburk, Střední Čechy, 289 12, Česko",14.97372,Sadská,,
Jihovýchod,49.27058,0.0,Benzina,,,cz,Česko,664 83,black,"Orlen, D1, Přibyslavice u Velké Bíteše, Přibyslavice, okres Brno-venkov, Jihomoravský kraj, Jihovýchod, 664 83, Česko",16.2792,Přibyslavice u Velké Bíteše,,
Moravskoslezsko,49.60736,41.5,Benzina,,,cz,Česko,742 42,#009900,"664, Suvorovova, Nový Jičín-Dolní Předměstí, Nový Jičín, okres Nový Jičín, Moravskoslezský kraj, Moravskoslezsko, 742 42, Česko",18.02994,Nový Jičín-Dolní Předměstí,Dnes,
Jihovýchod,49.55417,38.9,Orlen,,,cz,Česko,591 01,#009900,"1145/24, Jihlavská, Žďár nad Sázavou 1, Město Žďár, Radonín, Žďár nad Sázavou, okres Žďár nad Sázavou, Kraj Vysočina, Jihovýchod, 591 01, Česko",15.94641,Žďár nad Sázavou 1,Předevčírem,
Severozápad,50.49888,0.0,Orlen,,,cz,Česko,431 11,black,"1777, Dvořákova, Nové Vinařice, Jirkov, okres Chomutov, Ústecký kraj, Severozápad, 431 11, Česko",13.44456,Nové Vinařice,,
Severozápad,50.78506,39.5,Orlen,,,cz,Česko,405 02,#009900,"Benzina, Děčín Kamenická, 1436/219, Kamenická, Nové Město, Děčín, Folknáře, Děčín, okres Děčín, Ústecký kraj, Severozápad, 405 02, Česko",14.24065,Nové Město,Předevčírem,
Severozápad,50.1226,39.5,Orlen,,,cz,Česko,351 01,#009900,"Stop Cafe, 21, Aleje-Zátiší, Františkovy Lázně, okres Cheb, Karlovarský kraj, Severozápad, 351 01, Česko",12.36856,Aleje-Zátiší,Dnes,
Severozápad,50.5195,0.0,Orlen,,,cz,Česko,410 02,black,"1233, Lovosice, okres Litoměřice, Ústecký kraj, Severozápad, 410 02, Česko",14.04797,,,
,48.90629,44.9,Benzina,,,cz,Česko,691 68,#999900,"Starovičky, D2, Starovičky, okres Břeclav, Jihomoravský kraj, 691 68, Česko",16.78355,Starovičky,před 8 dny,
Severozápad,50.914,0.0,Benzina,,,cz,Česko,407 52,black,"529, Studánka, Varnsdorf, okres Děčín, Ústecký kraj, Severozápad, 407 52, Česko",14.56644,,,
,49.7441,39.5,Orlen,,,cz,Česko,337 01,#009900,"1200, Pražská, Střed, Rokycany, okres Rokycany, Plzeňský kraj, 337 01, Česko",13.60892,Střed,Dnes,
,49.01269,0.0,Orlen,,,cz,Česko,383 01,black,"Stop Cafe, Nebahovská, Prachatice I, Prachatice, okres Prachatice, 383 01, Česko",14.00478,Prachatice I,,
Severovýchod,49.90544,39.9,Orlen,,,cz,Česko,538 51,#009900,"Benzina - Chrast U Chrudimě, Tyršova, Chrast, okres Chrudim, Pardubický kraj, Severovýchod, 538 51, Česko",15.92274,Chrast,před 4 dny,
,49.52204,0.0,Orlen ,,,cz,Česko,396 01,black,"Benzina, 19;34;347, Vystrkov u Humpolce, Vystrkov, okres Pelhřimov, Kraj Vysočina, 396 01, Česko",15.34761,Vystrkov u Humpolce,,
Severovýchod,50.36195,0.0,Orlen,,,cz,Česko,508 01,black,"ev.126, Klicperova, Hořice v Podkrkonoší, Hořice, okres Jičín, Královéhradecký kraj, Severovýchod, 508 01, Česko",15.62489,Hořice v Podkrkonoší,,
Praha,50.12281,0.0,MOL,,Hlavní město Praha,cz,Česko,191 00,black,"MOL, Kbelská, Klíčov, Vysočany, Praha, obvod Praha 9, Hlavní město Praha, Praha, 191 00, Česko",14.51318,Vysočany,,obvod Praha 9
Střední Čechy,50.19095,0.0,Benzina,,,cz,Česko,250 02,black,"Benzina, Kostelecká, Brandýs nad Labem, Brandýs nad Labem-Stará Boleslav, okres Praha-východ, Střední Čechy, 250 02, Česko",14.64666,Brandýs nad Labem,,
Severovýchod,50.76556,0.0,ORLEN,,,cz,Česko,473 01,black,"Benzina - Nový Bor, B. Egermanna, Arnultovice, Arnultovice u Nového Boru, Nový Bor, okres Česká Lípa, Liberecký kraj, Severovýchod, 473 01, Česko",14.54172,Arnultovice,,
Střední Čechy,50.40426,0.0,Orlen,,,cz,Česko,277 21,black,"Benzina, Pražská, Liběchov, okres Mělník, Střední Čechy, 277 21, Česko",14.44844,Liběchov,,
Jihovýchod,49.31219,0.0,Benzina,,,cz,Česko,664 23,black,"Benzina, 38529, Čebín, okres Brno-venkov, Jihomoravský kraj, Jihovýchod, 664 23, Česko",16.48654,Čebín,,
Severozápad,50.63031,39.9,Orlen,,,cz,Česko,415 01,#009900,"Benzina plus, 8, Prosetice, Teplice, okres Teplice, Ústecký kraj, Severozápad, 415 01, Česko",13.84313,Prosetice,před 3 dny,
Moravskoslezsko,49.79026,0.0,Benzina,,,cz,Česko,736 01,black,"Stop Cafe, Železničářů, Havířov-město, Havířov, okres Karviná, Moravskoslezský kraj, Moravskoslezsko, 736 01, Česko",18.41109,Havířov-město,,
Severozápad,50.64822,39.5,Orlen,,,cz,Česko,415 01,#999900,"3095, Dubská, Teplice, okres Teplice, Ústecký kraj, Severozápad, 415 01, Česko",13.81498,Teplice,před 7 dny,
Jihovýchod,49.20963,39.2,Orlen ,,,cz,Česko,675 71,#009900,"Benzina - Stop Cafe, Třebíčská, Náměšť nad Oslavou, okres Třebíč, Kraj Vysočina, Jihovýchod, 675 71, Česko",16.14383,Náměšť nad Oslavou,Dnes,
Střední Čechy,49.79467,0.0,Orlen,,,cz,Česko,255 98,black,"Orlen, 3, Benešov u Prahy, Pomněnice, Benešov, okres Benešov, Střední Čechy, 255 98, Česko",14.67919,Benešov u Prahy,,
Severovýchod,50.13729,0.0,Orlen ,,,cz,Česko,503 26,black,"D11, Osice, okres Hradec Králové, Královéhradecký kraj, Severovýchod, 503 26, Česko",15.69857,Osice,,
Střední Čechy,50.35657,0.0,Benzina,,,cz,Česko,276 01,black,"Mělník, okres Mělník, Střední Čechy, 276 01, Česko",14.48591,Mělník,,
,49.4196,0.0,Benzina,,,cz,Česko,,black,"189, Lísková, Lísková u Nemanic, Nemanice, okres Domažlice, Plzeňský kraj, Česko",12.71886,Lísková u Nemanic,,
Střední Čechy,49.53373,0.0,Orlen,,,cz,Česko,391 36,black,"Mitrovice, D3, Mitrovice, Mezno, okres Benešov, Střední Čechy, 391 36, Česko",14.6637,Mitrovice,,
Jihovýchod,48.94267,0.0,Benzina,,,cz,Česko,696 12,black,"Stop Cafe, Brněnská, Hovorany, okres Hodonín, Jihomoravský kraj, Jihovýchod, 696 12, Česko",16.98606,Hovorany,,
Moravskoslezsko,49.94659,0.0,Benzina,,,cz,Česko,746 01,black,"Krnovská, Předměstí, Opava-Předměstí, Opava, okres Opava, Moravskoslezský kraj, Moravskoslezsko, 746 01, Česko",17.88438,Předměstí,,
Střední Morava,49.36302,38.5,TAM,,,cz,Česko,756 23,#009900,"437, Vsetín, okres Vsetín, Zlínský kraj, Střední Morava, 756 23, Česko",17.95952,Vsetín,před 6 dny,
Severovýchod,50.24071,0.0,Orlen,,,cz,Česko,504 01,black,"Benzina - Nový Bydžov, Dukelská třída, Nový Bydžov, okres Hradec Králové, Královéhradecký kraj, Severovýchod, 504 01, Česko",15.50067,Nový Bydžov,,
Jihozápad,48.82089,0.0,Benzina,,,cz,Česko,382 32,black,"Stop Cafe, 3, Velešín, okres Český Krumlov, Jihočeský kraj, Jihozápad, 382 32, Česko",14.45881,Velešín,,
Střední Čechy,49.75322,44.5,Orlen,,,cz,Česko,285 09,#009900,"D1, Střechov nad Sázavou, Trhový Štěpánov, okres Benešov, Střední Čechy, 285 09, Česko",15.02243,,před 3 dny,
Severozápad,50.45821,0.0,Orlen ,,,cz,Česko,430 03,black,"Benzina - Chomutov, Černovická, Černovická, Chomutov II, Chomutov, okres Chomutov, Ústecký kraj, Severozápad, 430 03, Česko",13.38824,Chomutov II,,
Střední Morava,49.09356,0.0,Benzina,,,cz,Česko,763 26,black,"981, Uherskobrodská, Luhačovice, okres Zlín, Zlínský kraj, Střední Morava, 763 26, Česko",17.74357,Luhačovice,,
Střední Čechy,50.10573,0.0,Benzina,,,cz,Česko,273 61,black,"Velká Dobrá, D6, Velká Dobrá, okres Kladno, Střední Čechy, 273 61, Česko",14.0707,Velká Dobrá,,
,48.95177,39.9,Benzina,,České Budějovice,cz,Česko,370 01,#009900,"Benzina, Lidická třída, České Budějovice 7, České Budějovice, okres České Budějovice, 370 01, Česko",14.466,České Budějovice 7,před 3 dny,
,49.26348,0.0,Benzina,,,cz,Česko,386 01,black,"Benzina Katovická, Katovická, Strakonice I, Strakonice, okres Strakonice, 386 01, Česko",13.88958,Strakonice I,,
Střední Morava,49.0415,39.5,Benzina,,,cz,Česko,687 33,#009900,"Benzina - Drslavice, 50, Drslavice, okres Uherské Hradiště, Zlínský kraj, Střední Morava, 687 33, Česko",17.59215,Drslavice,před 5 dny,
Severovýchod,50.58772,0.0,RoBiN OIL,,,cz,Česko,511 01,black,"182, Palackého, Konělupy, Turnov, okres Semily, Liberecký kraj, Severovýchod, 511 01, Česko",15.1479,Turnov,,
Jihovýchod,49.38119,0.0,Orlen,,Jihlava,cz,Česko,586 01,black,"4715/90, Znojemská, Brtnické předměstí, Jihlava, okres Jihlava, Kraj Vysočina, Jihovýchod, 586 01, Česko",15.59218,Brtnické předměstí,,
,49.05168,0.0,Neznámá,,,cz,Česko,373 41,black,"105, Hluboká nad Vltavou, okres České Budějovice, 373 41, Česko",14.43064,Hluboká nad Vltavou,,
Severozápad,51.00263,37.7,Orlen ,,,cz,Česko,407 77,#009900,"1091, Rumburská, Šluknov, okres Děčín, Ústecký kraj, Severozápad, 407 77, Česko",14.46445,Šluknov,Včera,
Střední Čechy,50.20066,0.0,HERST,,,cz,Česko,250 63,black,"Herst, Kostelecká, Mratín, okres Praha-východ, Střední Čechy, 250 63, Česko",14.54626,Mratín,,
,49.61815,0.0,Orlen,,,cz,Česko,580 01,black,"Benzina Havl. Brod, U Cihláře, Havlíčkův Brod, okres Havlíčkův Brod, Kraj Vysočina, 580 01, Česko",15.57435,Havlíčkův Brod,,
,49.75035,0.0,Orlen,,Plzeň,cz,Česko,301 52,black,"Benzina plus Plzeň, Letná, Těšínská, Plzeň 4, Plzeň, okres Plzeň-město, Plzeňský kraj, 301 52, Česko",13.40399,Plzeň 4,,Plzeň 4
Praha,50.00929,0.0,Orlen,,Hlavní město Praha,cz,Česko,252 43,black,"PKW, Újezd u Průhonic, Praha, obvod Praha 4, Hlavní město Praha, Praha, 252 43, Česko",14.54245,Újezd u Průhonic,,obvod Praha 4
Severovýchod,50.20461,0.0,II/299 Jindřich Fryš,,,cz,Česko,503 46,black,"1245, Severní, Třebechovice pod Orebem, Krňovice, Třebechovice pod Orebem, okres Hradec Králové, Královéhradecký kraj, Severovýchod, 503 46, Česko",15.98765,Třebechovice pod Orebem,,
Praha,50.03312,0.0,Orlen,,Hlavní město Praha,cz,Česko,147 00,black,"LKW - TRUCK - TIR, Jiráskova čtvrť, Braník, Praha, obvod Praha 4, Hlavní město Praha, Praha, 147 00, Česko",14.42417,Braník,,obvod Praha 4
Praha,50.08279,41.9,Orlen,,Hlavní město Praha,cz,Česko,130 00,#999900,"Orlen, Olšanská, Žižkov, Praha, obvod Praha 3, Hlavní město Praha, Praha, 130 00, Česko",14.4622,Žižkov,před 9 dny,obvod Praha 3
Střední Čechy,49.99262,0.0,Orlen,,,cz,Česko,281 63,black,"Orlen, Pražská, Kostelec nad Černými lesy, okres Praha-východ, Střední Čechy, 281 63, Česko",14.84401,Kostelec nad Černými lesy,,
Region Hovedstaden,55.09761,0.0,Neznáma,,,dk,Danmark,3700,black,"99, Zahrtmannsvej, Rønne, Bornholms Regionskommune, Region Hovedstaden, 3700, Danmark",14.7122,,,
Moravskoslezsko,49.58437,0.0,Benzina,,,cz,Česko,739 11,black,"Stop Cafe, Hlavní, Frýdlant, Frýdlant nad Ostravicí, okres Frýdek-Místek, Moravskoslezský kraj, Moravskoslezsko, 739 11, Česko",18.35955,Frýdlant,,
Jihovýchod,49.13514,37.9,Orlen,,,cz,Česko,664 42,#009900,"Orlen, 744, U Dálnice, Modřice, okres Brno-venkov, Jihomoravský kraj, Jihovýchod, 664 42, Česko",16.63241,Modřice,před 6 dny,
Jihovýchod,48.86635,0.0,Orlen,,,cz,Česko,671 61,black,"53, Bantice, okres Znojmo, Jihomoravský kraj, Jihovýchod, 671 61, Česko",16.17801,Bantice,,
Střední Morava,49.47539,39.9,Benzina,,,cz,Česko,798 11,#009900,"Benzina - Přerov, Vrahovická, Vrahovická, Prostějov, okres Prostějov, Olomoucký kraj, Střední Morava, 798 11, Česko",17.13107,Prostějov,před 5 dny,
Severozápad,50.51798,0.0,Orlen,,,cz,Česko,412 01,black,"2097/25, Želetická, Litoměřice, okres Litoměřice, Ústecký kraj, Severozápad, 412 01, Česko",14.13743,Litoměřice,,
Střední Morava,49.02567,38.8,ORLEN,,,cz,Česko,688 01,#009900,"Močidla, Uherský Brod, okres Uherské Hradiště, Zlínský kraj, Střední Morava, 688 01, Česko",17.66042,Uherský Brod,Předevčírem,
,49.75493,39.5,Orlen,,Plzeň,cz,Česko,322 00,#009900,"Benzina Plzeň, Křimice, Chebská, Křimice, Plzeň 5-Křimice, Plzeň, okres Plzeň-město, Plzeňský kraj, 322 00, Česko",13.31076,Křimice,před 5 dny,Plzeň 5-Křimice
Moravskoslezsko,49.66781,39.9,Benzina,,,cz,Česko,738 01,#009900,"Orlen, Beskydská, Místek, Frýdek-Místek, okres Frýdek-Místek, Moravskoslezský kraj, Moravskoslezsko, 738 01, Česko",18.34655,Místek,před 6 dny,
Severovýchod,50.73381,39.5,Orlen ,,,cz,Česko,466 02,#009900,"4525/33, Březová, Jablonec nad Nisou, okres Jablonec nad Nisou, Liberecký kraj, Severovýchod, 466 02, Česko",15.18364,Jablonec nad Nisou,Předevčírem,
Střední Morava,49.58513,41.5,Benzina,,Olomouc,cz,Česko,749 00,#009900,"Benzina, Frištenského, Neředín, Olomouc, okres Olomouc, Olomoucký kraj, Střední Morava, 749 00, Česko",17.22674,Neředín,před 3 dny,
Severovýchod,50.75653,40.5,Orlen,,Liberec,cz,Česko,460 12,#999999,"Orlen, Nákladní, U Nisy, Horní Růžodol, Liberec, okres Liberec, Liberecký kraj, Severovýchod, 460 12, Česko",15.05181,Horní Růžodol,před 10 dny,
,48.77051,0.0,Benzina,,,cz,Česko,378 10,black,"Stop Cafe, Revoluční, České Velenice, okres Jindřichův Hradec, 378 10, Česko",14.95801,České Velenice,,
Praha,50.0589,42.9,Benzina,,Hlavní město Praha,cz,Česko,106 00,#999900,"Orlen, Žirovnická, Záběhlice, Praha, obvod Praha 10, Hlavní město Praha, Praha, 106 00, Česko",14.48946,Záběhlice,před 8 dny,obvod Praha 10
Severovýchod,50.57143,0.0,Orlen,,,cz,Česko,541 01,black,"Auto Trutnov s.r.o., Krkonošská, Dolní Staré Město, Volanov, Trutnov, okres Trutnov, Královéhradecký kraj, Severovýchod, 541 01, Česko",15.89473,Dolní Staré Město,,
Praha,50.10377,0.0,Orlen,,Hlavní město Praha,cz,Česko,194 00,black,"Benzina - Poděbradská, Poděbradská, Kejřův Mlýn, Hloubětín, Praha, obvod Praha 9, Hlavní město Praha, Praha, 194 00, Česko",14.52725,Hloubětín,,obvod Praha 9
,49.16557,0.0,ORLEN,,Brno,cz,Česko,617 00,black,"Benzina - Brno, Kaštanová, Kaštanová, Horní Heršpice, Brno, okres Brno-město, Jihomoravský kraj, 617 00, Česko",16.62979,Horní Heršpice,,
Střední Čechy,50.43268,40.9,ORLEN ,,,cz,Česko,293 06,#009900,"Stop Cafe, Průmyslová, Kosmonosy, okres Mladá Boleslav, Střední Čechy, 293 06, Česko",14.92565,Kosmonosy,před 5 dny,
Střední Morava,50.22011,0.0,Orlen,,,cz,Česko,790 01,black,"ORLEN Jeseník, 60, Jeseník, okres Jeseník, Olomoucký kraj, Střední Morava, 790 01, Česko",17.19047,Jeseník,,
,49.67654,0.0,Orlen,,,cz,Česko,321 00,black,"Šlovice, D5, km 83.8 (L), D5, Šlovice u Plzně, Šlovice, Dobřany, okres Plzeň-jih, Plzeňský kraj, 321 00, Česko",13.32492,Šlovice u Plzně,,
Praha,50.07687,41.9,ORLEN,,Hlavní město Praha,cz,Česko,163 00,#009900,"Orlen, 97, Karlovarská, Řepy, Praha, obvod Praha 6, Hlavní město Praha, Praha, 163 00, Česko",14.30584,Řepy,před 3 dny,obvod Praha 6
,49.18705,39.5,Orlen ,,,cz,Česko,588 56,#009900,"Na Sádkách, Vnitřní Město, Telč, okres Jihlava, Kraj Vysočina, 588 56, Česko",15.44843,Vnitřní Město,před 3 dny,
Střední Čechy,49.71228,0.0,Orlen,,,cz,Česko,262 11,black,"Benzina, D4, Drásov u Příbramě, Skalka, Drásov, okres Příbram, Střední Čechy, 262 11, Česko",14.09761,Drásov u Příbramě,,
Jihovýchod,49.34201,39.5,Benzina,,,cz,Česko,666 01,#009900,"Benzina, 385, Tišnov, okres Brno-venkov, Jihomoravský kraj, Jihovýchod, 666 01, Česko",16.41795,Tišnov,před 5 dny,
województwo dolnośląskie,50.91388,0.0,Orlen ,,,pl,Polska,52-920,black,"Kurzańska, Bogatynia, gmina Bogatynia, powiat zgorzelecki, województwo dolnośląskie, 52-920, Polska",14.95527,,,
Jihovýchod,49.05697,39.5,Orlen ,,,cz,Česko,676 02,#009900,"Stop Cafe, 1039, Pražská, Moravské Budějovice, okres Třebíč, Kraj Vysočina, Jihovýchod, 676 02, Česko",15.80393,Moravské Budějovice,před 5 dny,
,48.90684,40.5,Orlen,,,cz,Česko,671 51,#009900,"38, Mramotice, Znojmo, okres Znojmo, Jihomoravský kraj, 671 51, Česko",15.9747,Mramotice,před 3 dny,
Jihovýchod,49.55862,0.0,Orlen,,,cz,Česko,592 31,black,"255, Brněnská, Nové Město na Moravě, Petrovice, Nové Město na Moravě, okres Žďár nad Sázavou, Kraj Vysočina, Jihovýchod, 592 31, Česko",16.07459,Nové Město na Moravě,,
Střední Čechy,49.92662,39.9,Orlen,,,cz,Česko,252 29,#009900,"ORLEN, 1078, Pražská, Dobřichovice, okres Praha-západ, Střední Čechy, 252 29, Česko",14.26916,Dobřichovice,před 4 dny,
,49.39128,0.0,Orlen,,Jihlava,cz,Česko,586 01,black,"35, Hosov, Jihlava, okres Jihlava, Kraj Vysočina, 586 01, Česko",15.54844,Hosov,,
Severozápad,50.59494,38.9,Orlen,,,cz,Česko,436 01,#009900,"2145, U Bílého sloupu, Horní Litvínov, Litvínov, okres Most, Ústecký kraj, Severozápad, 436 01, Česko",13.60614,Horní Litvínov,před 4 dny,
Jihovýchod,48.8425,0.0,Benzina,,,cz,Česko,691 02,black,"1344, Žižkovská, Velké Bílovice, okres Břeclav, Jihomoravský kraj, Jihovýchod, 691 02, Česko",16.90302,Velké Bílovice,,
Severovýchod,50.43429,39.9,Orlen,,,cz,Česko,506 42,#009900,"Orlen, Husova, Valdické Předměstí, Jičín, okres Jičín, Královéhradecký kraj, Severovýchod, 506 42, Česko",15.36388,Valdické Předměstí,před 3 dny,
,49.29722,0.0,Benzina,,,cz,Česko,397 11,black,"29, Budějovické Předměstí, Písek, Semice, Písek, okres Písek, 397 11, Česko",14.16073,Budějovické Předměstí,,
Jihozápad,49.70317,0.0,Orlen,,,cz,Česko,349 61,black,"Orlen, D5, Pozorka u Kladrub, Kladruby, okres Tachov, Plzeňský kraj, Jihozápad, 349 61, Česko",12.98718,Pozorka u Kladrub,,
Střední Morava,49.02555,0.0,Benzina,,,cz,Česko,688 01,black,"Močidla, Uherský Brod, okres Uherské Hradiště, Zlínský kraj, Střední Morava, 688 01, Česko",17.6604,Uherský Brod,,
Severozápad,50.18499,39.9,Orlen,,,cz,Česko,357 41,#009900,"Orlen, D6, Staré Sedlo u Sokolova, Staré Sedlo, okres Sokolov, Karlovarský kraj, Severozápad, 357 41, Česko",12.69411,Staré Sedlo u Sokolova,před 4 dny,
Jihovýchod,49.20486,0.0,Benzina,,,cz,Česko,604 81,black,"Benzina, 6021, Ostrovačice, okres Brno-venkov, Jihomoravský kraj, Jihovýchod, 604 81, Česko",16.4438,Ostrovačice,,
Střední Morava,49.07437,38.5,Benzina,,,cz,Česko,686 03,#009900,"Stop Cafe, Nádražní, Staré Město u Uherského Hradiště, Staré Město, okres Uherské Hradiště, Zlínský kraj, Střední Morava, 686 03, Česko",17.42171,Staré Město u Uherského Hradiště,Předevčírem,
Moravskoslezsko,49.81344,39.9,Benzina,,Ostrava,cz,Česko,716 00,#009900,"Orlen, Těšínská, Radvanice, Ostrava, okres Ostrava-město, Moravskoslezský kraj, Moravskoslezsko, 716 00, Česko",18.33554,Radvanice,Dnes,
Praha,50.0971,0.0,Benzina,,Hlavní město Praha,cz,Česko,190 93,black,"Stop Cafe, Novovysočanská, Vysočany, Praha, obvod Praha 9, Hlavní město Praha, Praha, 190 93, Česko",14.47958,Vysočany,,obvod Praha 9
Severovýchod,50.43381,0.0,Orlen,,,cz,Česko,506 01,black,"Benzina - Jičín, Robousy, 163, Robusy, Robousy, Jičín, okres Jičín, Královéhradecký kraj, Severovýchod, 506 01, Česko",15.40821,Robousy,,
Střední Morava,49.47912,39.5,Benzina,,,cz,Česko,756 43,#009900,"Kelč-Nové Město, Kelč, okres Vsetín, Zlínský kraj, Střední Morava, 756 43, Česko",17.81836,Kelč-Nové Město,před 5 dny,
Střední Morava,49.55684,39.9,Orlen,,,cz,Česko,753 01,#999900,"Orlen, 47, Hranice, okres Přerov, Olomoucký kraj, Střední Morava, 753 01, Česko",17.72798,Hranice,před 9 dny,
Severovýchod,50.41532,37.9,Orlen,,,cz,Česko,547 01,#009900,"603, Pražská, Náchod, okres Náchod, Královéhradecký kraj, Severovýchod, 547 01, Česko",16.16852,Náchod,Dnes,
,49.39257,0.0,Benzina,,,cz,Česko,345 06,black,"648, Na Kobyle, Kdyně, okres Domažlice, Plzeňský kraj, 345 06, Česko",13.02465,Kdyně,,
Severovýchod,50.62013,0.0,ORLEN,,,cz,Česko,543 01,black,"1457, Valteřická, Vrchlabí, okres Trutnov, Královéhradecký kraj, Severovýchod, 543 01, Česko",15.59861,Vrchlabí,,
Severozápad,50.09237,0.0,Orlen,,,cz,Česko,,black,"Obilná, D6, D6, Obilná, Odrava, okres Cheb, Karlovarský kraj, Severozápad, Česko",12.46357,,,
Severozápad,50.14933,39.9,Orlen,,,cz,Česko,364 71,#009900,"Pražská, Bochov, okres Karlovy Vary, Karlovarský kraj, Severozápad, 364 71, Česko",13.05206,Bochov,před 6 dny,
Severovýchod,50.57292,0.0,ORLEN,,,cz,Česko,511 01,black,"Orlen Turnov, Nová Ves, Kyselovsko, Mašov u Turnova, Turnov, okres Semily, Liberecký kraj, Severovýchod, 511 01, Česko",15.17314,Mašov u Turnova,,
Jihovýchod,49.18795,0.0,ORLEN,,Brno,cz,Česko,656 70,black,"Orlen, Zvonařka, Trnitá, Brno, okres Brno-město, Jihomoravský kraj, Jihovýchod, 656 70, Česko",16.62288,Trnitá,,
Střední Čechy,49.70487,0.0,Orlen,,,cz,Česko,258 01,black,"Benzina Vlašim, Vlasákova, Vlašim, okres Benešov, Střední Čechy, 258 01, Česko",14.9009,Vlašim,,
,49.43878,0.0,Orlen ,,,cz,Česko,345 34,black,"Stop Cafe, 189, Klenčí pod Čerchovem, okres Domažlice, Plzeňský kraj, 345 34, Česko",12.82923,Klenčí pod Čerchovem,,
Střední Morava,49.22068,39.9,Benzina,,Zlín,cz,Česko,760 01,#009900,"Benzina - Zlín, Příluky, Vizovická, Příluky u Zlína, Jaroslavice, Zlín, okres Zlín, Zlínský kraj, Střední Morava, 760 01, Česko",17.7079,,před 5 dny,
Střední Čechy,50.17721,38.5,Orlen,,,cz,Česko,288 02,#009900,"BENZINA Plus, Kolínská, Nymburk, okres Nymburk, Střední Čechy, 288 02, Česko",15.04661,Nymburk,před 3 dny,
Severozápad,50.52376,0.0,Orlen ,,,cz,Česko,431 82,black,"ev.86, Hora Svatého Šebestiána, okres Chomutov, Ústecký kraj, Severozápad, 431 82, Česko",13.23708,,,
Severovýchod,50.91599,0.0,Orlen,,,cz,Česko,464 01,black,"Orlen, Liberecká, Frýdlant, Větrov, Frýdlant, okres Liberec, Liberecký kraj, Severovýchod, 464 01, Česko",15.06165,Frýdlant,,
Střední Morava,49.27776,39.5,Benzina,,,cz,Česko,767 01,#999999,"Benzina Kotojedy, 367, Kotojedy, Těšnovice, Kroměříž, okres Kroměříž, Zlínský kraj, Střední Morava, 767 01, Česko",17.40135,,před 10 dny,
Severozápad,50.10062,39.5,Orlen,,,cz,Česko,350 02,#009900,"Cheb, D6, D6;21, Cheb, Tršnice, Cheb, okres Cheb, Karlovarský kraj, Severozápad, 350 02, Česko",12.38537,Cheb,před 6 dny,
,49.49103,0.0,Orlen,,,cz,Česko,680 11,black,"Benzina, Otakara Kubína, Židovské Město, Boskovice, okres Blansko, Jihomoravský kraj, 680 11, Česko",16.64984,Boskovice,,
,49.6434,0.0,Orlen,,,cz,Česko,333 01,black,"Benzina Stod, Plzeňská, Stod, okres Plzeň-jih, Plzeňský kraj, 333 01, Česko",13.16744,Stod,,
Střední Čechy,50.40563,0.0,Orlen,,,cz,Česko,293 03,black,"Stop Cafe, D10;16;38, Mladá Boleslav III, Mladá Boleslav, okres Mladá Boleslav, Střední Čechy, 293 03, Česko",14.9313,Mladá Boleslav III,,
Severovýchod,49.75326,40.5,Orlen,,,cz,Česko,568 02,#009900,"Benzina, 716/1, U Tří mostů, Čtyřicet Lánů, Svitavy, okres Svitavy, Pardubický kraj, Severovýchod, 568 02, Česko",16.47694,Čtyřicet Lánů,před 5 dny,
Severozápad,50.09329,0.0,Orlen,,,cz,Česko,364 64,black,"Benzina Bečov nad Teplou, Karlovarská, Bečov nad Teplou, Vodná, Bečov nad Teplou, okres Karlovy Vary, Karlovarský kraj, Severozápad, 364 64, Česko",12.84062,Bečov nad Teplou,,
Severovýchod,50.71335,0.0,Q3,,,cz,Česko,468 45,black,"364, Velké Hamry, okres Jablonec nad Nisou, Liberecký kraj, Severovýchod, 468 45, Česko",15.3161,Velké Hamry,,
Střední Čechy,50.03361,0.0,Benzina,,,cz,Česko,252 19,black,"McDonald's, 1432, Rudná, okres Praha-západ, Střední Čechy, 252 19, Česko",14.21439,,,
Severovýchod,50.20048,0.0,OMV,,Hradec Králové,cz,Česko,500 12,black,"AlzaBox, Sokolská, U Orlice, Hradec Králové, okres Hradec Králové, Královéhradecký kraj, Severovýchod, 500 12, Česko",15.83561,Hradec Králové,,
Moravskoslezsko,49.82765,0.0,Benzina,,Ostrava,cz,Česko,706 02,black,"Stop Cafe, Místecká, Moravská Ostrava, Ostrava, okres Ostrava-město, Moravskoslezský kraj, Moravskoslezsko, 706 02, Česko",18.2818,Moravská Ostrava,,
,49.34933,0.0,Benzina ,,,cz,Česko,345 32,black,"Orlen, Horní Folmava, Dolní Folmava, Česká Kubice, okres Domažlice, Plzeňský kraj, 345 32, Česko",12.85452,,,
Moravskoslezsko,49.84548,0.0,Benzina,,,cz,Česko,734 01,black,"Stop Cafe, Za Splavem, Ráj, Karviná, okres Karviná, Moravskoslezský kraj, Moravskoslezsko, 734 01, Česko",18.55451,Ráj,,
województwo dolnośląskie,50.15849,0.0,ORLEN,,,pl,Polska,57-530,black,"33, Międzylesie, gmina Międzylesie, powiat kłodzki, województwo dolnośląskie, 57-530, Polska",16.67064,,,
Severovýchod,50.77359,39.9,Orlen,,Liberec,cz,Česko,460 01,#009900,"Stop Cafe, Sokolská, Keilův vrch, Liberec, okres Liberec, Liberecký kraj, Severovýchod, 460 01, Česko",15.04623,Liberec,před 4 dny,
,49.75133,0.0,Orlen,,,cz,Česko,349 01,black,"1333, Na Vinici, Stříbro, okres Tachov, Plzeňský kraj, 349 01, Česko",12.98554,Stříbro,,
Severovýchod,50.03745,0.0,Orlen,,,cz,Česko,535 01,black,"Benzina, 1523, Pardubická, Sídliště 17. Listopadu, Přelouč, okres Pardubice, Pardubický kraj, Severovýchod, 535 01, Česko",15.56459,Přelouč,,
Severovýchod,50.59269,0.0,ORLEN,,,cz,Česko,512 01,black,"289, Slaná, Nedvězí, Slaná, okres Semily, Liberecký kraj, Severovýchod, 512 01, Česko",15.33108,Slaná,,
Severovýchod,50.12193,39.5,Orlen,,,cz,Česko,517 41,#009900,"BENZINA, 1435, Rudé armády, Kostelec nad Orlicí, okres Rychnov nad Kněžnou, Královéhradecký kraj, Severovýchod, 517 41, Česko",16.21795,Kostelec nad Orlicí,před 5 dny,
,49.35915,0.0,Benzina,,,cz,Česko,594 01,black,"1701, Františky Stránecké, Velké Meziříčí, okres Žďár nad Sázavou, Kraj Vysočina, 594 01, Česko",15.99523,Velké Meziříčí,,
Moravskoslezsko,50.1138,0.0,Orlen,,,cz,Česko,793 26,black,"Orlen, Husova, Vrbno pod Pradědem, Železná, Vrbno pod Pradědem, okres Bruntál, Moravskoslezský kraj, Moravskoslezsko, 793 26, Česko",17.39203,Vrbno pod Pradědem,,
Moravskoslezsko,50.08778,0.0,Benzina,,,cz,Česko,794 01,black,"Stop Cafe, 2243/5, Čsl. armády, Pod Bezručovým vrchem, Krnov-Horní Předměstí, Krnov, okres Bruntál, Moravskoslezský kraj, Moravskoslezsko, 794 01, Česko",17.69384,Pod Bezručovým vrchem,,
Jihovýchod,48.84237,0.0,Petrol Station,,,cz,Česko,691 02,black,"1344, Žižkovská, Velké Bílovice, okres Břeclav, Jihomoravský kraj, Jihovýchod, 691 02, Česko",16.90295,Velké Bílovice,,
,49.48199,0.0,Benzina,,,cz,Česko,335 01,black,"539, Nepomuk, okres Plzeň-jih, Plzeňský kraj, 335 01, Česko",13.58739,,,
Moravskoslezsko,49.82974,0.0,Benzina,,,cz,Česko,735 41,black,"Stop Cafe, Ostravská, Petřvald u Karviné, Petřvald, okres Karviná, Moravskoslezský kraj, Moravskoslezsko, 735 41, Česko",18.38496,Petřvald u Karviné,,
Střední Morava,49.16057,0.0,Benzina,,,cz,Česko,763 61,black,"Benzina, 1532, Nádražní, Napajedla, okres Zlín, Zlínský kraj, Střední Morava, 763 61, Česko",17.50538,Napajedla,,
,49.67844,0.0,Orlen,,,cz,Česko,321 00,black,"Šlovice, D5, km 83.2 (P), D5, Šlovice u Plzně, Šlovice, Dobřany, okres Plzeň-jih, Plzeňský kraj, 321 00, Česko",13.33072,Šlovice u Plzně,,
Praha,49.99863,0.0,Orlen,,Hlavní město Praha,cz,Česko,148 00,black,"Benzina, 1169, Kunratická spojka, Kunratice, Praha, obvod Praha 4, Hlavní město Praha, Praha, 148 00, Česko",14.48659,Kunratice,,obvod Praha 4
Severovýchod,50.00851,0.0,Orlen,,Pardubice,cz,Česko,533 33,black,"184, Dražkovice, Pardubice, okres Pardubice, Pardubický kraj, Severovýchod, 533 33, Česko",15.773,Dražkovice,,
Střední Morava,49.95388,0.0,Orlen,,,cz,Česko,787 01,black,"Benzina - Šumperk, Autocvičiště, Šumperk, okres Šumperk, Olomoucký kraj, Střední Morava, 787 01, Česko",16.96118,Šumperk,,
Střední Čechy,50.4055,0.0,Orlen,,,cz,Česko,293 03,black,"Stop Cafe, D10;16;38, Mladá Boleslav III, Mladá Boleslav, okres Mladá Boleslav, Střední Čechy, 293 03, Česko",14.93238,Mladá Boleslav III,,
Střední Čechy,49.74483,0.0,Orlen,,,cz,Česko,257 51,black,"Orlen, 3, Bystřice u Benešova, Jírovice, Bystřice, okres Benešov, Střední Čechy, 257 51, Česko",14.67241,Bystřice u Benešova,,
Jihovýchod,49.69632,39.5,Orlen,,,cz,Česko,582 63,#009900,"Benzina, 34, Ždírec nad Doubravou, Nové Ransko, Ždírec nad Doubravou, okres Havlíčkův Brod, Kraj Vysočina, Jihovýchod, 582 63, Česko",15.8033,Ždírec nad Doubravou,před 6 dny,
Střední Morava,49.72241,39.5,Benzina,,,cz,Česko,785 01,#009900,"Orlen, Nádražní, Šternberk, okres Olomouc, Olomoucký kraj, Střední Morava, 785 01, Česko",17.28579,Šternberk,Včera,
,49.25423,0.0,Orlen,,,cz,Česko,342 01,black,"169, Sušice nad Otavou, Chmelná, Sušice, okres Klatovy, Plzeňský kraj, 342 01, Česko",13.55155,Sušice nad Otavou,,
Severozápad,50.31369,38.9,Orlen ,,,cz,Česko,438 01,#009900,"Stop Cafe, Husova, Žatec, okres Louny, Ústecký kraj, Severozápad, 438 01, Česko",13.53277,Žatec,Včera,
Střední Čechy,50.25375,0.0,Orlen ,,,cz,Česko,272 11,black,"Benzina, Kostelecká, Lobkovice, Neratovice, okres Mělník, Střední Čechy, 272 11, Česko",14.52694,Lobkovice,,
Střední Morava,50.0269,0.0,Orlen,,,cz,Česko,788 14,black,"Orlen, Rudé armády, Velké Losiny, okres Šumperk, Olomoucký kraj, Střední Morava, 788 14, Česko",17.03727,Velké Losiny,,
,49.27019,38.5,Orlen,,,cz,Česko,392 01,#999900,"736, Wilsonova, Soběslav Ⅲ, Soběslav, okres Tábor, 392 01, Česko",14.71498,Soběslav Ⅲ,před 7 dny,
,49.13888,0.0,Orlen ,,,cz,Česko,340 04,black,"Stop Cafe, Královácká, Železná Ruda, okres Klatovy, Plzeňský kraj, 340 04, Česko",13.22812,Železná Ruda,,
Severovýchod,50.69895,39.9,PRIM,,,cz,Česko,470 06,#009900,"Orlen, Pražská, Česká Lípa, okres Česká Lípa, Liberecký kraj, Severovýchod, 470 06, Česko",14.54148,Česká Lípa,Dnes,
Severozápad,50.77523,39.5,Orlen,,,cz,Česko,405 01,#009900,"Stop Cafe, 13;62, Zámek, Děčín, okres Děčín, Ústecký kraj, Severozápad, 405 01, Česko",14.2135,Děčín,před 4 dny,
,49.3162,39.5,Benzina,,,cz,Česko,397 01,#999900,"Pražská, Pražské Předměstí, Písek, okres Písek, 397 01, Česko",14.13616,Pražské Předměstí,před 8 dny,
Severozápad,50.50355,0.0,Orlen,,,cz,Česko,435 21,black,"Teplická, Most II, Most, okres Most, Ústecký kraj, Severozápad, 435 21, Česko",13.67416,Most II,,
Střední Morava,49.0764,39.5,Benzina,,,cz,Česko,686 05,#009900,"Orlen - Uherské Hradiště, Sokolovská, Moravníky, Mařatice, Uherské Hradiště, okres Uherské Hradiště, Zlínský kraj, Střední Morava, 686 05, Česko",17.48294,Mařatice,Dnes,
Střední Morava,49.14772,0.0,Benzina,,,cz,Česko,766 01,black,"Benzina - Valašské Klobouky, Cyrilometodějská, Valašské Klobouky, okres Zlín, Zlínský kraj, Střední Morava, 766 01, Česko",18.02206,Valašské Klobouky,,
województwo opolskie,50.45872,0.0,Orlen,,,pl,Polska,48-370,black,"Orlen, 49, Wojska Polskiego, Paczków, gmina Paczków, powiat nyski, województwo opolskie, 48-370, Polska",17.02898,,,
Střední Morava,49.23636,0.0,Benzina,,Zlín,cz,Česko,760 05,black,"Benzina - Zlín, Jižní Svahy, Okružní, Jižní Svahy, Zlín, okres Zlín, Zlínský kraj, Střední Morava, 760 05, Česko",17.66687,Zlín,,
Severovýchod,50.42669,0.0,Orlen,,,cz,Česko,544 01,black,"3160, 17. listopadu, Dvůr Králové nad Labem, okres Trutnov, Královéhradecký kraj, Severovýchod, 544 01, Česko",15.81571,Dvůr Králové nad Labem,,
Severovýchod,49.93723,0.0,Orlen,,,cz,Česko,537 01,black,"Benzina, 828, Obce Ležáků, Chrudim III, Chrudim, okres Chrudim, Pardubický kraj, Severovýchod, 537 01, Česko",15.79539,Chrudim III,,
Jihozápad,48.82505,0.0,Benzina,,,cz,Česko,381 01,black,"Orlen, Budějovická, Přísečná-Domoradice, Český Krumlov, okres Český Krumlov, Jihočeský kraj, Jihozápad, 381 01, Česko",14.33391,,,
Střední Morava,49.77612,0.0,Benzina,,,cz,Česko,789 85,black,"Benzina - Mohelnice, 1. máje, 180/16, 1. máje, Mohelnice, okres Šumperk, Olomoucký kraj, Střední Morava, 789 85, Česko",16.93192,Mohelnice,,
Severovýchod,50.18887,38.5,Orlen,,,cz,Česko,503 46,#009900,"Benzina - Třebechovice pod Orebem, 1397, Týnišťská, Třebechovice pod Orebem, Štěnkov, Třebechovice pod Orebem, okres Hradec Králové, Královéhradecký kraj, Severovýchod, 503 46, Česko",16.00691,Třebechovice pod Orebem,před 4 dny,
,49.72318,0.0,Benzina,,Plzeň,cz,Česko,301 00,black,"Benzina Plzeň, Bory, Dobřanská, Zelený trojúhelník, Plzeň, Plzeň 3, Plzeň, okres Plzeň-město, Plzeňský kraj, 301 00, Česko",13.35431,Plzeň,,Plzeň 3
Střední Čechy,50.03073,37.9,Orlen,,,cz,Česko,252 25,#009900,"Logport, Jinočany, okres Praha-západ, Střední Čechy, 252 25, Česko",14.2798,Jinočany,Předevčírem,
,48.99625,37.9,BENZINA,,České Budějovice,cz,Česko,370 10,#009900,"Retil Park, Generála Píky, České Budějovice 3, České Budějovice, okres České Budějovice, 370 10, Česko",14.49027,České Budějovice 3,před 5 dny,
Střední Morava,49.05874,39.5,Benzina,,,cz,Česko,687 01,#999900,"Benzina - Uherské Hradiště, M. Malinovského, Tř. Maršála Malinovského, Uherské Hradiště, Sady, Uherské Hradiště, okres Uherské Hradiště, Zlínský kraj, Střední Morava, 687 01, Česko",17.46599,Uherské Hradiště,před 9 dny,
Střední Morava,50.24648,0.0,Orlen ,,,cz,Česko,790 81,black,"Orlen, Jesenická, Česká Ves, okres Jeseník, Olomoucký kraj, Střední Morava, 790 81, Česko",17.21388,Česká Ves,,
Střední Morava,49.32519,38.9,Benzina,,,cz,Česko,769 17,#009900,"Palackého, Všetuly, Količín, Holešov, okres Kroměříž, Zlínský kraj, Střední Morava, 769 17, Česko",17.55218,Všetuly,Předevčírem,
Severovýchod,50.13873,42.9,Orlen ,,,cz,Česko,503 26,#999900,"Benzina, D11, Osice, okres Hradec Králové, Královéhradecký kraj, Severovýchod, 503 26, Česko",15.69798,Osice,před 7 dny,
Jihozápad,49.44135,39.9,Benzina,,,cz,Česko,399 01,#999900,"Benzina, Čs. legií, Hajda, Milevsko, okres Písek, Jihočeský kraj, Jihozápad, 399 01, Česko",14.3586,Milevsko,před 7 dny,
Praha,50.01048,0.0,Orlen ,,Hlavní město Praha,cz,Česko,252 43,black,"Brněnská, Újezd u Průhonic, Praha, obvod Praha 4, Hlavní město Praha, Praha, 252 43, Česko",14.54302,Újezd u Průhonic,,obvod Praha 4
Moravskoslezsko,49.76464,0.0,Benzina,,Ostrava,cz,Česko,720 00,black,"Hrabová, D56, Místecká, Hrabová, Ostrava, okres Ostrava-město, Moravskoslezský kraj, Moravskoslezsko, 720 00, Česko",18.27274,Hrabová,,
Jihozápad,48.61922,0.0,Orlen,,,cz,Česko,382 73,black,"Stop Cafe, 163, Herbertov, Těchoraz, Vyšší Brod, okres Český Krumlov, Jihočeský kraj, Jihozápad, 382 73, Česko",14.32469,,,
Severovýchod,50.44256,39.9,Orlen,,,cz,Česko,506 01,#009900,"464, M. Koněva, Holínské Předměstí, Jičín, okres Jičín, Královéhradecký kraj, Severovýchod, 506 01, Česko",15.33913,Holínské Předměstí,před 4 dny,
Severovýchod,50.21766,0.0,Orlen,,Hradec Králové,cz,Česko,500 03,black,"Bratří Štefanů, Nad jezem, Slezské Předměstí, Hradec Králové, okres Hradec Králové, Královéhradecký kraj, Severovýchod, 500 03, Česko",15.87768,Slezské Předměstí,,
Severozápad,50.52452,41.9,Orlen,,,cz,Česko,434 06,#009900,"Benzina, Hraniční, Souš, Most II, Most, okres Most, Ústecký kraj, Severozápad, 434 06, Česko",13.63035,Souš,před 4 dny,
Střední Čechy,49.89892,0.0,Orlen,,,cz,Česko,252 03,black,"201, Líšnice, okres Praha-západ, Střední Čechy, 252 03, Česko",14.32048,,,
Severozápad,50.50436,0.0,Orlen,,,cz,Česko,434 01,black,"1415, Teplická, Most II, Most, okres Most, Ústecký kraj, Severozápad, 434 01, Česko",13.67348,Most II,,
Severozápad,50.55721,0.0,Orlen,,,cz,Česko,434 03,black,"27, Záluží u Litvínova, Litvínov, okres Most, Ústecký kraj, Severozápad, 434 03, Česko",13.60157,Záluží u Litvínova,,
Moravskoslezsko,49.77532,0.0,Benzina,,,cz,Česko,742 83,black,"D1, Janovice, Bravantice, okres Nový Jičín, Moravskoslezský kraj, Moravskoslezsko, 742 83, Česko",18.09749,Bravantice,,
Severovýchod,50.14362,39.5,Orlen,,,cz,Česko,517 21,#999900,"1049, Voklik, Týniště nad Orlicí, okres Rychnov nad Kněžnou, Královéhradecký kraj, Severovýchod, 517 21, Česko",16.08893,Týniště nad Orlicí,před 9 dny,
Moravskoslezsko,49.85877,0.0,Benzina,,Ostrava,cz,Česko,725 29,black,"Orlen, Podkovářská, Přívoz, Ostrava, okres Ostrava-město, Moravskoslezský kraj, Moravskoslezsko, 725 29, Česko",18.26949,Přívoz,,
Střední Čechy,49.6684,0.0,Orlen,,,cz,Česko,261 01,black,"Stop Cafe, Brodská, Příbram VIII, Příbram, Zdaboř, Příbram, okres Příbram, Střední Čechy, 261 01, Česko",13.99498,Příbram VIII,,
,49.18993,0.0,ORLEN,,Brno,cz,Česko,618 00,black,"1168/19, Olomoucká, Černovice, Brno, okres Brno-město, Jihomoravský kraj, 618 00, Česko",16.63706,Černovice,,
Střední Čechy,50.51576,0.0,Orlen,,,cz,Česko,295 01,black,"Stop Cafe, Víta Nejedlého, Mnichovo Hradiště, okres Mladá Boleslav, Střední Čechy, 295 01, Česko",14.97229,Mnichovo Hradiště,,
Střední Morava,49.32904,0.0,Benzina,,,cz,Česko,755 01,black,"Stop Cafe, Generála Klapálka, Vsetín, okres Vsetín, Zlínský kraj, Střední Morava, 755 01, Česko",18.00139,Vsetín,,
,48.98956,0.0,Benzina,,České Budějovice,cz,Česko,370 11,black,"Stop Cafe, 3, Sídliště Vltava, České Budějovice 2, České Budějovice, okres České Budějovice, 370 11, Česko",14.45919,České Budějovice 2,,
Střední Čechy,49.60909,0.0,OMV,,,cz,Česko,257 68,black,"D1, Dunice, okres Benešov, Střední Čechy, 257 68, Česko",15.15303,Dunice,,
,49.08891,0.0,KM-PRONA,,,cz,Česko,675 51,black,"KM-Prona, Jaroměřice nad Rokytnou, Poděbradova, Jaroměřice nad Rokytnou, okres Třebíč, Kraj Vysočina, 675 51, Česko",15.88843,Jaroměřice nad Rokytnou,,
Praha,50.03198,0.0,EuroOil,,Hlavní město Praha,cz,Česko,147 00,black,"Parkoviště pro sanitky Meditrans, Vrbova, Jiráskova čtvrť, Braník, Praha, obvod Praha 4, Hlavní město Praha, Praha, 147 00, Česko",14.42491,Braník,,obvod Praha 4
Trenčiansky kraj,48.96563,0.0,Avanti,,,sk,Slovensko,018 41,black,"Obrancov mieru, Pri Vlečke I, Dubnica nad Váhom, okres Ilava, Trenčiansky kraj, Západné Slovensko, 018 41, Slovensko",18.17912,Pri Vlečke I,,
województwo śląskie,50.03734,0.0,AUCHAN,,Żory,pl,Polska,44-244,black,"Auchan, Francuska, Zostawa, Śródmieście, Żory, województwo śląskie, 44-244, Polska",18.70272,Śródmieście,,Śródmieście
Jihovýchod,49.40313,0.0,ICOM Transport,,Jihlava,cz,Česko,586 01,black,"ICOM, Jiráskova, Jihlava, okres Jihlava, Kraj Vysočina, Jihovýchod, 586 01, Česko",15.57493,Jihlava,,
,49.40843,0.0,COMETT PLUS,,,cz,Česko,390 34,black,"Comett, Chýnovská, Na kopečku, Tábor, okres Tábor, 390 34, Česko",14.68842,Tábor,,
województwo dolnośląskie,50.82165,0.0,Muller,,,pl,Polska,58-580,black,"Polana Maliszewskiego, Jakuszyce, Szklarska Poręba, powiat karkonoski, województwo dolnośląskie, 58-580, Polska",15.44009,,,
Střední Morava,49.27866,33.9,AVIA,,,cz,Česko,763 16,#999900,"392, Zlínská, Fryšták, okres Zlín, Zlínský kraj, Střední Morava, 763 16, Česko",17.68542,Fryšták,před 9 dny,
Střední Čechy,50.1403,37.5,Cobalt,,,cz,Česko,272 04,#009900,"Cobalt, Rakovnická, Rozdělov, Kladno, okres Kladno, Střední Čechy, 272 04, Česko",14.06469,Rozdělov,Včera,
Střední Morava,49.44676,0.0,Mol,,,cz,Česko,750 02,black,"2887/3, U Hřbitova, Šířava, Přerov, okres Přerov, Olomoucký kraj, Střední Morava, 750 02, Česko",17.46428,Přerov,,
,49.18275,0.0,Japo Autodoprava,,,cz,Česko,664 41,black,"JAPO, Vintrovna, Popůvky u Brna, Popůvky, okres Brno-venkov, Jihomoravský kraj, 664 41, Česko",16.48417,Popůvky u Brna,,
Trenčiansky kraj,48.89495,0.0,Slovnaft,,Trenčín,sk,Slovensko,911 37,black,"Slovnaft, 61, Záblatie, Zámostie, Trenčín, okres Trenčín, Trenčiansky kraj, Západné Slovensko, 911 37, Slovensko",18.00822,Záblatie,,Zámostie
województwo dolnośląskie,50.89817,0.0,Watis,,,pl,Polska,59-920,black,"Watis, 30, Białogórska, Bogatynia, gmina Bogatynia, powiat zgorzelecki, województwo dolnośląskie, 59-920, Polska",14.9533,,,
Jihovýchod,48.84234,0.0,Petrol Station,,,cz,Česko,691 02,black,"1344, Žižkovská, Velké Bílovice, okres Břeclav, Jihomoravský kraj, Jihovýchod, 691 02, Česko",16.90287,Velké Bílovice,,
Jihovýchod,49.14109,33.9,AVIA,,Brno,cz,Česko,619 00,#009900,"Avia Brno, 131, Vídeňská, Přízřenice, Brno, okres Brno-město, Jihomoravský kraj, Jihovýchod, 619 00, Česko",16.60365,Přízřenice,Dnes,
Severozápad,50.54649,0.0,F1,,,cz,Česko,431 82,black,"7, Jilmová, Hora Svatého Šebestiána, okres Chomutov, Ústecký kraj, Severozápad, 431 82, Česko",13.22733,Jilmová,,
,49.40726,0.0,AGROPODNIK DOMAŽLICE a.s.,,,cz,Česko,339 01,black,"Klatovy II, Klatovy, okres Klatovy, Plzeňský kraj, 339 01, Česko",13.29797,Klatovy II,,
Jihovýchod,49.55458,0.0,Zdar,,,cz,Česko,591 01,black,"759/4, Jihlavská, Žďár nad Sázavou 1, Město Žďár, Radonín, Žďár nad Sázavou, okres Žďár nad Sázavou, Kraj Vysočina, Jihovýchod, 591 01, Česko",15.94738,Žďár nad Sázavou 1,,
Severovýchod,49.84931,0.0,ROBIN OIL,,,cz,Česko,539 73,black,"Družstevní, Skuteč, Štěpánov, Skuteč, okres Chrudim, Pardubický kraj, Severovýchod, 539 73, Česko",15.99276,Skuteč,,
,48.85394,0.0,Unicorn,,,cz,Česko,671 82,black,"Eurobit Dobšice, 53, Dobšice u Znojma, Dobšice, okres Znojmo, Jihomoravský kraj, 671 82, Česko",16.10943,Dobšice u Znojma,,
Střední Čechy,49.84173,0.0,Terminál oil,,,cz,Česko,268 01,black,"Na Cintlovce, Cintlovka, Tlustice, okres Beroun, Střední Čechy, 268 01, Česko",13.87634,Tlustice,,
,49.31847,0.0,Shell,,,cz,Česko,683 21,black,"Shell, D46, Pustiměřské Prusy, Pustiměř, okres Vyškov, Jihomoravský kraj, 683 21, Česko",17.03851,Pustiměř,,
,49.41872,33.9,TANK ONO,,,cz,Česko,344 01,#009900,"131, Újezd, okres Domažlice, Plzeňský kraj, 344 01, Česko",12.87421,,před 3 dny,
Severovýchod,50.55032,33.9,TANK ONO,,,cz,Česko,541 01,#009900,"ONO - Trutnov, Hradecká, Bojiště, Bojiště u Trutnova, Trutnov, okres Trutnov, Královéhradecký kraj, Severovýchod, 541 01, Česko",15.9072,Bojiště,Dnes,
Střední Čechy,50.2007,0.0,HERST,,,cz,Česko,250 63,black,"Herst, Kostelecká, Mratín, okres Praha-východ, Střední Čechy, 250 63, Česko",14.54622,Mratín,,
Severozápad,50.7875,0.0,VELTA Free Shop,,,cz,Česko,403 37,black,"579, Petrovice, okres Ústí nad Labem, Ústecký kraj, Severozápad, 403 37, Česko",13.9775,,,
Severozápad,50.4523,0.0,HERST,,,cz,Česko,430 01,black,"5491, Pražská, Chomutov I, Chomutov, okres Chomutov, Ústecký kraj, Severozápad, 430 01, Česko",13.42645,Chomutov I,,
,48.91096,0.0,RobinOil,,,cz,Česko,384 51,black,"39, Volary, okres Prachatice, 384 51, Česko",13.88116,Volary,,
Střední Morava,49.30126,0.0,RoBiN OIL,,,cz,Česko,767 01,black,"1345/62a, Kojetínská, Kroměříž, okres Kroměříž, Zlínský kraj, Střední Morava, 767 01, Česko",17.38563,Kroměříž,,
Střední Čechy,49.6952,0.0,OMV,,,cz,Česko,261 01,black,"OMV, Evropská, Příbram I, Příbram, okres Příbram, Střední Čechy, 261 01, Česko",14.00688,Příbram I,,
Střední Čechy,49.82167,0.0,WARMAN,,,cz,Česko,252 08,black,"390, Slapy, okres Praha-západ, Střední Čechy, 252 08, Česko",14.38582,,,
Prešovský kraj,49.30931,0.0,Slovnaft,,,sk,Slovensko,064 01,black,"Slovnaft, Popradská, Stará Ľubovňa, okres Stará Ľubovňa, Prešovský kraj, 064 01, Slovensko",20.67959,,,
,49.18439,0.0,Eurobit,,,cz,Česko,664 03,black,"399, Podolí, okres Brno-venkov, Jihomoravský kraj, 664 03, Česko",16.70161,,,
Praha,50.06857,37.5,RoBiN OIL,,Hlavní město Praha,cz,Česko,150 06,#009900,"Plzeňská, Motol, Praha, obvod Praha 5, Hlavní město Praha, Praha, 150 06, Česko",14.35301,Motol,Dnes,obvod Praha 5
Moravskoslezsko,49.93366,0.0,Eurobit,,,cz,Česko,746 01,black,"2760/38, Těšínská, Předměstí, Opava-Předměstí, Opava, okres Opava, Moravskoslezský kraj, Moravskoslezsko, 746 01, Česko",17.9168,Předměstí,,
,49.64368,0.0,F1,,,cz,Česko,348 07,black,"Hraniční přechod Rozvadov – Waidhaus, D5, Střeble, Rozvadov, okres Tachov, Plzeňský kraj, 348 07, Česko",12.52849,Střeble,,
,49.75152,0.0,MOL,,,cz,Česko,349 01,black,"MOL, Stříbro, Plzeňská, Stříbro, okres Tachov, Plzeňský kraj, 349 01, Česko",12.99909,Stříbro,,
Severozápad,50.08691,0.0,MOL,,,cz,Česko,,black,"MOL, Pomezí směr D, 6, Pomezí nad Ohří, okres Cheb, Karlovarský kraj, Severozápad, Česko",12.26537,Pomezí nad Ohří,,
Střední Morava,49.4389,0.0,Eurobit,,,cz,Česko,750 02,black,"Unicorn, 9. května, Jižní čtvrť, Přerov, Újezdec, Přerov, okres Přerov, Olomoucký kraj, Střední Morava, 750 02, Česko",17.45777,Přerov,,
Střední Čechy,50.43201,0.0,TANK ONO,,,cz,Česko,294 05,black,"16, Martinovice, Sukorady u Mladé Boleslavi, Sukorady, okres Mladá Boleslav, Střední Čechy, 294 05, Česko",15.04192,Sukorady u Mladé Boleslavi,,
Střední Čechy,50.04704,0.0,KM-PRONA,,,cz,Česko,280 02,black,"53, Vrbčany, okres Kolín, Střední Čechy, 280 02, Česko",14.99605,,,
Moravskoslezsko,49.83497,34.5,KM-PRONA,,Ostrava,cz,Česko,709 00,#009900,"Grmelova, Mariánské Hory, Ostrava, okres Ostrava-město, Moravskoslezský kraj, Moravskoslezsko, 709 00, Česko",18.24975,Mariánské Hory,před 4 dny,
Nitriansky kraj,48.08784,0.0,Slovnaft,,,sk,Slovensko,942 01,black,"1168/57, Nitrianska, Šurany, okres Nové Zámky, Nitriansky kraj, Západné Slovensko, 942 01, Slovensko",18.16534,,,
Hessen,50.6784,0.0,Aral,,,de,Deutschland,35745,black,"Aral, 26, Westerwaldstraße, Hintertal, Herborn, Lahn-Dill-Kreis, Hessen, 35745, Deutschland",8.30138,,,
Praha,50.06143,0.0,MOL,,Hlavní město Praha,cz,Česko,101 38,black,"Fresh Corner, Nad Vršovskou horou, Michle, Praha, obvod Praha 10, Hlavní město Praha, Praha, 101 38, Česko",14.47142,Michle,,obvod Praha 10
Severozápad,50.61094,0.0,EuroOil,,,cz,Česko,419 01,black,"1481, Teplická, Duchcov, okres Teplice, Ústecký kraj, Severozápad, 419 01, Česko",13.75067,Duchcov,,
Severozápad,50.21547,40.2,F1,,,cz,Česko,352 01,#999900,"F1 Gas, Selbská, Aš, okres Cheb, Karlovarský kraj, Severozápad, 352 01, Česko",12.17094,Aš,před 7 dny,
Jihovýchod,49.09558,0.0,BENTEL,,,cz,Česko,664 59,black,"Bentel, Draha, Telnice u Brna, Telnice, okres Brno-venkov, Jihomoravský kraj, Jihovýchod, 664 59, Česko",16.71582,Telnice u Brna,,
Střední Morava,49.02252,0.0,TEMPEX,,,cz,Česko,688 01,black,"2366, Vazová, Uherský Brod, okres Uherské Hradiště, Zlínský kraj, Střední Morava, 688 01, Česko",17.63775,Uherský Brod,,
Jihovýchod,49.18409,0.0,Shell,,,cz,Česko,665 01,black,"Shell, Zastávecká, Rosice u Brna, Rosice, okres Brno-venkov, Jihomoravský kraj, Jihovýchod, 665 01, Česko",16.37162,Rosice u Brna,,
Praha,50.09064,36.9,AUTO Jarov,,Hlavní město Praha,cz,Česko,130 00,#009900,"2539/5, Osiková, Žižkov, Praha, obvod Praha 3, Hlavní město Praha, Praha, 130 00, Česko",14.49837,Žižkov,Včera,obvod Praha 3
Severozápad,50.72784,0.0,Fill,,,cz,Česko,415 01,black,"315, Cínovec, Dubí, okres Teplice, Ústecký kraj, Severozápad, 415 01, Česko",13.76608,,,
Severovýchod,50.56496,0.0,Benzina,,,cz,Česko,541 01,black,"Benzina - Trutnov, Polská, Polská, Dolní Předměstí, Trutnov, okres Trutnov, Královéhradecký kraj, Severovýchod, 541 01, Česko",15.92321,Dolní Předměstí,,
Jihovýchod,48.80555,0.0,Shell,,,cz,Česko,692 01,black,"ev.69, K Vápence, Mikulov na Moravě, Mikulov, okres Břeclav, Jihomoravský kraj, Jihovýchod, 692 01, Česko",16.62596,Mikulov na Moravě,,
Sachsen,50.96915,0.0,STAR,,,de,Deutschland,01855,black,"2, Hohnsteiner Straße, Hainersdorf, Sebnitz, Sächsische Schweiz-Osterzgebirge, Sachsen, 01855, Deutschland",14.25172,Hainersdorf,,
Severozápad,50.78645,0.0,PHM Travel Free,,,cz,Česko,403 37,black,"248, Petrovice u Chabařovic, Petrovice, okres Ústí nad Labem, Ústecký kraj, Severozápad, 403 37, Česko",13.9787,Petrovice u Chabařovic,,
Košický kraj,48.69833,0.0,Slovnaft,,Košice,sk,Slovensko,040 11,black,"Slovnaft, Moldavská cesta, Terasa, Košice - mestská časť Západ, okres Košice II, Košice, Košický kraj, Východné Slovensko, 040 11, Slovensko",21.23654,Košice - mestská časť Západ,,okres Košice II
,49.31558,0.0,RoBiN OIL,,,cz,Česko,397 11,black,"Senza Area, Táborská, Vnitřní Město, Písek, okres Písek, 397 11, Česko",14.1643,Vnitřní Město,,
Severovýchod,50.20874,36.9,KM-PRONA,,,cz,Česko,517 01,#009900,"602, Dobrušská, Solnice, okres Rychnov nad Kněžnou, Královéhradecký kraj, Severovýchod, 517 01, Česko",16.23478,Solnice,před 6 dny,
Střední Morava,49.10591,37.9,Bílovice,,,cz,Česko,687 12,#009900,"608, Bílovice, okres Uherské Hradiště, Zlínský kraj, Střední Morava, 687 12, Česko",17.55784,,Dnes,
,49.1724,0.0,MK Oil,,,cz,Česko,387 01,black,"Nádražní, Volyně, okres Strakonice, 387 01, Česko",13.89338,Volyně,,
Bratislavský kraj,48.21162,0.0,Metro,,Bratislava,sk,Slovensko,841 07,black,"Metro, Na sútoku, Nový dvor, Bratislava, okres Bratislava IV, Bratislava, Bratislavský kraj, 841 07, Slovensko",17.01434,Bratislava,,okres Bratislava IV
,49.71225,0.0,EuroOil,,,cz,Česko,583 01,black,"1673, Havlíčkova, Chotěboř, okres Havlíčkův Brod, Kraj Vysočina, 583 01, Česko",15.66221,Chotěboř,,
Severozápad,50.16297,33.9,TANK ONO,,,cz,Česko,351 32,#009900,"ONO, 21, Vojtanov, okres Cheb, Karlovarský kraj, Severozápad, 351 32, Česko",12.31832,Vojtanov,Dnes,
Střední Čechy,50.43449,38.8,Tank oil,,,cz,Česko,293 06,#999900,"17. listopadu, Mladá Boleslav II, Mladá Boleslav, okres Mladá Boleslav, Střední Čechy, 293 06, Česko",14.91322,Mladá Boleslav II,před 7 dny,
,49.82433,36.9,Protego s r.o. Koloc Oil,,,cz,Česko,338 08,#009900,"29, Kařez, okres Rokycany, Plzeňský kraj, 338 08, Česko",13.78313,,Dnes,
Severozápad,50.36288,0.0,Pas oil,,,cz,Česko,362 51,black,"1058, třída Dukelských hrdinů, Jáchymov, Nové Město, Jáchymov, okres Karlovy Vary, Karlovarský kraj, Severozápad, 362 51, Česko",12.92767,Jáchymov,,
Severozápad,49.96463,0.0,MOL,,,cz,Česko,353 01,black,"666/20b, Chebská, Úšovice, Mariánské Lázně, okres Cheb, Karlovarský kraj, Severozápad, 353 01, Česko",12.69385,Úšovice,,
Jihovýchod,49.62823,0.0,GORIVO,,,cz,Česko,592 21,black,"CS Gorivo, 37, Škrdlovice, okres Žďár nad Sázavou, Kraj Vysočina, Jihovýchod, 592 21, Česko",15.92697,Škrdlovice,,
Severozápad,50.91824,35.9,Koloc Oil - Protego s.r.o. ,,,cz,Česko,470 47,#009900,"Koloc Oil, 5. května, Varnsdorf, okres Děčín, Ústecký kraj, Severozápad, 470 47, Česko",14.60637,Varnsdorf,Včera,
Prešovský kraj,49.19024,0.0,Slovnaft,,,sk,Slovensko,091 12,black,"Slovnaft, Hviezdoslavova, Sitník, Stropkov, okres Stropkov, Prešovský kraj, 091 12, Slovensko",21.65778,Sitník,,
Moravskoslezsko,49.9614,0.0,DZ OIL,,,cz,Česko,795 01,black,"371/19a, Potočná, Stará Ves u Rýmařova, Stará Ves, okres Bruntál, Moravskoslezský kraj, Moravskoslezsko, 795 01, Česko",17.22876,Stará Ves u Rýmařova,,
Severovýchod,50.74793,36.5,KM-PRONA,,Liberec,cz,Česko,460 06,#999999,"KM-Prona, Liberec, Vratislavická, Stará Rochlická, Rochlice, Rochlice u Liberce, Liberec, okres Liberec, Liberecký kraj, Severovýchod, 460 06, Česko",15.06982,Rochlice,před 10 dny,
Severovýchod,50.34283,0.0,Orlen,,,cz,Česko,551 01,black,"ORLEN, 761, Hradecká, Pražské Předměstí, Jaroměř, okres Náchod, Královéhradecký kraj, Severovýchod, 551 01, Česko",15.90453,Pražské Předměstí,,
Severozápad,50.36224,0.0,MWD,,,cz,Česko,440 01,black,"2980, Říční, Louny, okres Louny, Ústecký kraj, Severozápad, 440 01, Česko",13.81319,Louny,,
Severovýchod,50.73332,36.9,Vendys Petrol,,,cz,Česko,466 02,#999900,"5265/150a, Podhorská, Jablonecké Paseky, Jablonec nad Nisou, okres Jablonec nad Nisou, Liberecký kraj, Severovýchod, 466 02, Česko",15.18795,Jablonecké Paseky,před 8 dny,
Praha,50.01963,0.0,ONE1,,Hlavní město Praha,cz,Česko,154 00,black,"One1, K Barrandovu, Slivenec, Praha, obvod Praha 5, Hlavní město Praha, Praha, 154 00, Česko",14.34762,Slivenec,,obvod Praha 5
Střední Morava,49.95395,0.0,Orlen,,,cz,Česko,787 01,black,"Benzina - Šumperk, Autocvičiště, Šumperk, okres Šumperk, Olomoucký kraj, Střední Morava, 787 01, Česko",16.96118,Šumperk,,
,49.86371,0.0,LS Přimda - čerpací stanice ,,,cz,Česko,348 15,black,"Lesní společnost Přimda, 21;198;201;230, Planá u Mariánských Lázní, Planá, okres Tachov, Plzeňský kraj, 348 15, Česko",12.73494,Planá u Mariánských Lázní,,
Severozápad,50.99143,0.0,TixExpress,,,cz,Česko,407 80,black,"26510, Vilémov u Šluknova, Dolina, Vilémov, okres Děčín, Ústecký kraj, Severozápad, 407 80, Česko",14.33329,Vilémov u Šluknova,,
Severozápad,50.3523,0.0,F1,,,cz,Česko,358 01,black,"5, Hraničná, Kraslice, okres Sokolov, Karlovarský kraj, Severozápad, 358 01, Česko",12.47117,Hraničná,,
,49.24877,0.0,SILMET,,,cz,Česko,664 02,black,"Pastýřky, Ochoz u Brna, okres Brno-venkov, Jihomoravský kraj, 664 02, Česko",16.72938,Ochoz u Brna,,
Severovýchod,50.76255,0.0,MOL,,,cz,Česko,468 61,black,"MOL, Desná, Krkonošská, Dolní Polubný, Desná III, Desná, okres Jablonec nad Nisou, Liberecký kraj, Severovýchod, 468 61, Česko",15.32021,Desná III,,
Trenčiansky kraj,48.89386,0.0,Lukoil,,Trenčín,sk,Slovensko,911 01,black,"439/118, Gen. M. R. Štefánika, Trenčín, okres Trenčín, Trenčiansky kraj, Západné Slovensko, 911 01, Slovensko",18.06178,,,
Severozápad,50.08381,0.0,Shell,,,cz,Česko,350 02,black,"2373/9, Ašská, Cheb, okres Cheb, Karlovarský kraj, Severozápad, 350 02, Česko",12.37031,Cheb,,
,48.91108,0.0,RoBiN OIL,,,cz,Česko,384 51,black,"RoBiN OIL Volary, 39, Volary, okres Prachatice, 384 51, Česko",13.88139,Volary,,
Jihozápad,48.61679,0.0,EuroOil,,,cz,Česko,382 76,black,"163, Loučovice, okres Český Krumlov, Jihočeský kraj, Jihozápad, 382 76, Česko",14.25363,Loučovice,,
Severovýchod,50.3982,33.9,TANK ONO,,,cz,Česko,549 08,#009900,"Tank Ono - ČS Vysokov u Náchoda, 33, Vysokov, okres Náchod, Královéhradecký kraj, Severovýchod, 549 08, Česko",16.10605,Vysokov,před 6 dny,
Střední Čechy,50.00376,0.0,MOL,,,cz,Česko,252 43,black,"PKW, Čestlice, okres Praha-východ, Střední Čechy, 252 43, Česko",14.57057,Čestlice,,
Košický kraj,48.73113,0.0,Lukoil,,Košice,sk,Slovensko,040 22,black,"Slovnaft, 1201, Košice - mestská časť Dargovských hrdinov, okres Košice III, Košice, Košický kraj, Východné Slovensko, 040 22, Slovensko",21.29046,Košice - mestská časť Dargovských hrdinov,,okres Košice III
Střední Čechy,49.96426,0.0,CV Petrol,,,cz,Česko,252 41,black,"406, Zbraslavská, Dolní Břežany, okres Praha-západ, Střední Čechy, 252 41, Česko",14.45392,Dolní Břežany,,
,48.9246,0.0,Chemis,,,cz,Česko,691 22,black,"Chemis Pasohlávky sever, 52, Pasohlávky, Nová Ves, Pasohlávky, okres Brno-venkov, Jihomoravský kraj, 691 22, Česko",16.54733,Pasohlávky,,
Střední Morava,49.02371,0.0,Tempex,,,cz,Česko,688 01,black,"2446, Pod Valy, Uherský Brod, okres Uherské Hradiště, Zlínský kraj, Střední Morava, 688 01, Česko",17.64021,Uherský Brod,,
Trenčiansky kraj,48.89433,0.0,Slovnaft,,Trenčín,sk,Slovensko,911 01,black,"7773/120A, Gen. M. R. Štefánika, Trenčín, okres Trenčín, Trenčiansky kraj, Západné Slovensko, 911 01, Slovensko",18.06438,,,
,49.39529,33.9,TANK ONO,,Jihlava,cz,Česko,586 05,#009900,"Tank Ono - ČS Jihlava, Žižkova, Jihlava, okres Jihlava, Kraj Vysočina, 586 05, Česko",15.56842,Jihlava,Dnes,
Severozápad,50.45805,0.0,MOL,,,cz,Česko,430 03,black,"5362, Černovická, Chomutov I, Chomutov, okres Chomutov, Ústecký kraj, Severozápad, 430 03, Česko",13.39596,Chomutov I,,
Severozápad,50.2272,0.0,KM-PRONA,,,cz,Česko,357 35,#999999,"KM-Prona, Chodov u Sokolova, 1071, Horní, Dolní Chodov, Chodov, okres Sokolov, Karlovarský kraj, Severozápad, 357 35, Česko",12.74538,Dolní Chodov,před 10 dny,
,49.72208,0.0,EuroOil,,Plzeň,cz,Česko,326 00,black,"Skladová, Světovar, Hradiště u Plzně, Plzeň 2-Slovany, Plzeň, okres Plzeň-město, Plzeňský kraj, 326 00, Česko",13.41215,Hradiště u Plzně,,Plzeň 2-Slovany
Severovýchod,49.62127,35.5,CarGas,,,cz,Česko,569 04,#009900,"9, Moravská Chrastová, Brněnec, okres Svitavy, Pardubický kraj, Severovýchod, 569 04, Česko",16.5283,,před 3 dny,
Severovýchod,50.68188,0.0,KM-PRONA,,,cz,Česko,470 06,black,"KM-Prona, Česká Lípa - Liberecká ulice, U Ploučnice, Stará Lípa, Česká Lípa, okres Česká Lípa, Liberecký kraj, Severovýchod, 470 06, Česko",14.56414,Stará Lípa,,
Severozápad,50.98249,36.5,PASOIL,,,cz,Česko,407 82,#999900,"Pasoil, Vilémovská, Dolní Poustevna, okres Děčín, Ústecký kraj, Severozápad, 407 82, Česko",14.29785,Dolní Poustevna,před 7 dny,
Tirol,47.53274,0.0,SHELL,,,at,Österreich,6380,black,"Shell, Niederhofen, Sankt Johann in Tirol, Bezirk Kitzbühel, Tirol, 6380, Österreich",12.43721,,,
Severovýchod,50.58686,36.9,RoBiN OIL,,,cz,Česko,541 02,#009900,"RoBiN OIL s.r.o., Krkonošská, Horní Staré Město, Trutnov, okres Trutnov, Královéhradecký kraj, Severovýchod, 541 02, Česko",15.87859,Horní Staré Město,před 5 dny,
Severozápad,50.35033,0.0,F1 (Top Tank),,,cz,Česko,,black,"Free1 GAS Kraslice CZK, Hraničná, Kraslice, okres Sokolov, Karlovarský kraj, Severozápad, Česko",12.47505,Hraničná,,
Banskobystrický kraj,48.7479,0.0,SLOVNAFT,,Banská Bystrica,sk,Slovensko,974 11,black,"6455/66, Rudlovská cesta, Rudlová, Sásová, Banská Bystrica, okres Banská Bystrica, Banskobystrický kraj, Stredné Slovensko, 974 11, Slovensko",19.15728,Sásová,,
Střední Čechy,50.03878,0.0,Srkal,,,cz,Česko,281 26,black,"106, Lžovice, Týnec nad Labem, okres Kolín, Střední Čechy, 281 26, Česko",15.34618,Lžovice,,
Střední Čechy,49.63844,0.0,SILMET,,,cz,Česko,262 31,black,"Silmet, 604, Milín, Buk, Milín, okres Příbram, Střední Čechy, 262 31, Česko",14.04917,Milín,,
,49.63835,0.0,Bexon,,,cz,Česko,332 05,black,"20, Chválenice, Želčany, Chválenice, okres Plzeň-město, Plzeňský kraj, 332 05, Česko",13.4775,Chválenice,,
,48.7358,0.0,LAD OiL - Čepro a.s.,,,cz,Česko,671 69,black,"415, Hevlín, okres Znojmo, Jihomoravský kraj, 671 69, Česko",16.3832,Hevlín,,
Praha,50.12018,0.0,Shell,,Hlavní město Praha,cz,Česko,191 00,black,"Shell, Prosecká, Prosek, Praha, obvod Praha 9, Hlavní město Praha, Praha, 191 00, Česko",14.50285,Prosek,,obvod Praha 9
Střední Čechy,50.01555,0.0,MOL,,,cz,Česko,280 02,black,"901, Havlíčkova, Kolín IV, Kolín, Šťáralka, Kolín, okres Kolín, Střední Čechy, 280 02, Česko",15.22077,Kolín IV,,
Severozápad,50.24124,0.0,Shell,,Karlovy Vary,cz,Česko,360 04,black,"Shell, Jáchymovská, Bohatice, Karlovy Vary, okres Karlovy Vary, Karlovarský kraj, Severozápad, 360 04, Česko",12.87211,Bohatice,,
Praha,50.11812,0.0,KM-PRONA,,Hlavní město Praha,cz,Česko,193 00,black,"2500/250, Náchodská, Horní Počernice, Praha, obvod Praha 9, Hlavní město Praha, Praha, 193 00, Česko",14.63641,Horní Počernice,,obvod Praha 9
Střední Čechy,49.90984,0.0,MARHO,,,cz,Česko,251 66,black,"Hlavní, Mirošovice u Říčan, Mirošovice, okres Praha-východ, Střední Čechy, 251 66, Česko",14.70696,Mirošovice u Říčan,,
Jihovýchod,49.15049,0.0,OMV,,,cz,Česko,684 01,black,"50, Slavkov u Brna, okres Vyškov, Jihomoravský kraj, Jihovýchod, 684 01, Česko",16.86642,Slavkov u Brna,,
Žilinský kraj,49.44868,0.0,OMV,,,sk,Slovensko,022 01,black,"2827/10, Jesenského, Čadečka, Jurošovci, Čadca, okres Čadca, Žilinský kraj, Stredné Slovensko, 022 01, Slovensko",18.78076,,,
Jihozápad,49.75785,43.5,Shell,,,cz,Česko,337 01,#009900,"Shell Czech Republic a.s., D5, Střed, Borek u Rokycan, Rokycany, okres Rokycany, Plzeňský kraj, Jihozápad, 337 01, Česko",13.61741,Střed,Dnes,
Praha,50.10199,37.9,RoBiN OIL,,Hlavní město Praha,cz,Česko,190 00,#009900,"1057/20, Českomoravská, Vysočany, Praha, obvod Praha 9, Hlavní město Praha, Praha, 190 00, Česko",14.49877,Vysočany,před 4 dny,obvod Praha 9
Banskobystrický kraj,48.71243,0.0,LukOil,,Banská Bystrica,sk,Slovensko,974 05,black,"Sládkovičova, Radvaň, Kráľová, Banská Bystrica, okres Banská Bystrica, Banskobystrický kraj, Stredné Slovensko, 974 05, Slovensko",19.13288,Radvaň,,
Střední Čechy,50.40492,0.0,KM-PRONA,,,cz,Česko,293 01,black,"311, Nádražní, Čejetičky, Čejetice u Mladé Boleslavi, Mladá Boleslav, okres Mladá Boleslav, Střední Čechy, 293 01, Česko",14.89354,Čejetičky,,
,49.29276,33.9,TANK ONO,,,cz,Česko,387 51,#009900,"139, Kbelnice, Přešťovice, okres Strakonice, 387 51, Česko",13.98265,,Dnes,
,49.23211,0.0,AN Novotný,,,cz,Česko,375 03,black,"159, Malá Strana, Týn nad Vltavou, okres České Budějovice, 375 03, Česko",14.42789,Malá Strana,,
Moravskoslezsko,49.90515,0.0,EuroOil,,,cz,Česko,711 00,black,"Odpočívka Antošovice - směr Česko, D1, Šilheřovice, okres Opava, Moravskoslezský kraj, Moravskoslezsko, 711 00, Česko",18.30769,Šilheřovice,,
Střední Morava,49.03707,0.0,Jan Hruboš,,,cz,Česko,687 33,black,"219, Veletiny, okres Uherské Hradiště, Zlínský kraj, Střední Morava, 687 33, Česko",17.55661,,,
Prešovský kraj,49.01115,0.0,Lukoil,,,sk,Slovensko,080 06,black,"Bardejovská, Šarišské Lúky, Ľubotice, okres Prešov, Prešovský kraj, 080 06, Slovensko",21.25846,Šarišské Lúky,,
Severovýchod,50.73648,36.5,RoBiN OIL,,,cz,Česko,468 51,#009900,"1349, Hlavní, Smržovka, okres Jablonec nad Nisou, Liberecký kraj, Severovýchod, 468 51, Česko",15.24848,Smržovka,Dnes,
,49.20744,0.0,Eurobit,,Brno,cz,Česko,628 00,black,"4301/19, Žarošická, Vinohrady, Židenice, Brno, okres Brno-město, Jihomoravský kraj, 628 00, Česko",16.66455,Vinohrady,,
Severozápad,50.35868,0.0,F1 gas,,,cz,Česko,362 36,black,"412, Karlovarská, Pernink, okres Karlovy Vary, Karlovarský kraj, Severozápad, 362 36, Česko",12.78951,Pernink,,
Bratislavský kraj,48.18827,0.0,Slovnaft,,Bratislava,sk,Slovensko,835 17,black,"Cesta na Senec, Trnávka, Bratislava, okres Bratislava II, Bratislava, Bratislavský kraj, 835 17, Slovensko",17.18036,Bratislava,,okres Bratislava II
województwo śląskie,50.09097,0.0,Auchan,,,pl,Polska,47-400,black,"Obora, Ostróg, Racibórz, powiat raciborski, województwo śląskie, 47-400, Polska",18.25736,,,Ostróg
Oberösterreich,47.83689,0.0,OMV,,,at,Österreich,5310,black,"Raststation Mondsee, Warte am See, Loibichl, Innerschwand am Mondsee, Bezirk Vöcklabruck, Oberösterreich, 5310, Österreich",13.39458,,,
Praha,50.04378,0.0,MOL,,Hlavní město Praha,cz,Česko,140 02,black,"Olbrachtova, Zelená Liška, Krč, Praha, obvod Praha 4, Hlavní město Praha, Praha, 140 02, Česko",14.4403,Krč,,obvod Praha 4
Jihovýchod,49.43868,0.0,MOL,,,cz,Česko,393 01,black,"Pražská, Pelhřimov, Starý Pelhřimov, Pelhřimov, okres Pelhřimov, Kraj Vysočina, Jihovýchod, 393 01, Česko",15.21269,Pelhřimov,,
Severozápad,50.46214,0.0,MOL,,,cz,Česko,430 01,black,"5411, Lipská, Chomutov I, Chomutov, okres Chomutov, Ústecký kraj, Severozápad, 430 01, Česko",13.40717,Chomutov I,,
Severozápad,50.94929,0.0,ARMEX OIL,,,cz,Česko,408 01,black,"141, Rumburk 2-Horní Jindřichov, Horní Jindřichov, Rumburk, okres Děčín, Ústecký kraj, Severozápad, 408 01, Česko",14.58135,Horní Jindřichov,,
Košický kraj,48.7065,0.0,Slovnaft,,Košice,sk,Slovensko,040 01,black,"Slovnaft, Jantárová, Južné Mesto, Košice - mestská časť Juh, okres Košice IV, Košice, Košický kraj, Východné Slovensko, 040 01, Slovensko",21.2663,Košice - mestská časť Juh,,okres Košice IV
,49.71415,33.9,TANK ONO,,,cz,Česko,330 23,#009900,"Blatnice u Nýřan, Blatnice, okres Plzeň-sever, Plzeňský kraj, 330 23, Česko",13.18321,Blatnice u Nýřan,Dnes,
Střední Morava,49.00355,0.0,SubOil Hungas,,,cz,Česko,688 01,black,"2713, Nivnická, Uherský Brod, okres Uherské Hradiště, Zlínský kraj, Střední Morava, 688 01, Česko",17.64837,Uherský Brod,,
Střední Morava,49.22999,0.0,RoBiN OIL,,,cz,Česko,765 02,black,"RoBiN OIL Tlumačov, Skály, Tlumačov na Moravě, Tlumačov, okres Zlín, Zlínský kraj, Střední Morava, 765 02, Česko",17.52045,Tlumačov na Moravě,,
Jihovýchod,49.05697,0.0,Orlen ,,,cz,Česko,676 02,black,"Stop Cafe, 1039, Pražská, Moravské Budějovice, okres Třebíč, Kraj Vysočina, Jihovýchod, 676 02, Česko",15.80393,Moravské Budějovice,,
,49.36198,33.9,TANK ONO,,,cz,Česko,391 11,#009900,"733, ČSLA, Planá nad Lužnicí, Lhota Samoty, Planá nad Lužnicí, okres Tábor, 391 11, Česko",14.69985,Planá nad Lužnicí,Dnes,
Trenčiansky kraj,48.79151,0.0,REAL-K,,,sk,Slovensko,913 24,black,"RealK, 243, Svinná, okres Trenčín, Trenčiansky kraj, Západné Slovensko, 913 24, Slovensko",18.15527,,,
Severovýchod,49.92032,38.9,AVIA,,,cz,Česko,563 01,#009900,"1007, Králická, Žichlínské Předměstí, Lanškroun, okres Ústí nad Orlicí, Pardubický kraj, Severovýchod, 563 01, Česko",16.62311,Žichlínské Předměstí,před 5 dny,
,49.2683,0.0,RoBiN OIL,,,cz,Česko,386 01,black,"407, Písecká, Strakonice I, Strakonice, okres Strakonice, 386 01, Česko",13.91665,Strakonice I,,
,49.34721,0.0,F1,,,cz,Česko,345 32,black,"55, Horní Folmava, Dolní Folmava, Česká Kubice, okres Domažlice, Plzeňský kraj, 345 32, Česko",12.85107,,,
,49.13892,0.0,Orlen ,,,cz,Česko,340 04,black,"Stop Cafe, Královácká, Železná Ruda, okres Klatovy, Plzeňský kraj, 340 04, Česko",13.22812,Železná Ruda,,
,49.19039,0.0,MOL,,Brno,cz,Česko,618 00,black,"3419/7, Olomoucká, Černovice, Brno, okres Brno-město, Jihomoravský kraj, 618 00, Česko",16.63226,Černovice,,
Praha,50.0793,0.0,MOL,,Hlavní město Praha,cz,Česko,161 00,black,"MOL, Praha 6 - Drnovská, Drnovská, Ruzyně, Praha, obvod Praha 6, Hlavní město Praha, Praha, 161 00, Česko",14.30945,Ruzyně,,obvod Praha 6
Severozápad,50.99054,0.0,Nord Papoil ,,,cz,Česko,407 80,black,"2675, Vilémov u Šluknova, Dolina, Vilémov, okres Děčín, Ústecký kraj, Severozápad, 407 80, Česko",14.32321,Vilémov u Šluknova,,
Praha,50.09297,0.0,PRIM,,Hlavní město Praha,cz,Česko,194 00,black,"Nord, Českobrodská, Hloubětín, Praha, obvod Praha 9, Hlavní město Praha, Praha, 194 00, Česko",14.52729,Hloubětín,,obvod Praha 9
Bratislavský kraj,48.42917,0.0,SHELL,,,sk,Slovensko,901 01,black,"Pezinská, Malacky, okres Malacky, Bratislavský kraj, 901 01, Slovensko",17.03636,,,
Střední Čechy,50.07177,0.0,TRILOBIT,,,cz,Česko,281 71,black,"12, Tuklaty, okres Kolín, Střední Čechy, 281 71, Česko",14.7732,Tuklaty,,
Střední Morava,49.2259,37.2,RoBiN OIL,,Zlín,cz,Česko,760 01,#009900,"Robin Oil, Broučkova, Bartošova čtvrť, Zlín, okres Zlín, Zlínský kraj, Střední Morava, 760 01, Česko",17.69275,Zlín,před 5 dny,
Severovýchod,50.6931,0.0,KM-PRONA,,,cz,Česko,542 21,black,"KM-Prona, Pec pod Sněžkou, 296, Velká Úpa II, Velká Úpa, Pec pod Sněžkou, okres Trutnov, Královéhradecký kraj, Severovýchod, 542 21, Česko",15.74694,Velká Úpa II,,
Střední Čechy,49.85244,0.0,MOL,,,cz,Česko,267 53,black,"D5, Záluží u Hořovic, Záluží, okres Beroun, Střední Čechy, 267 53, Česko",13.8674,Záluží u Hořovic,,
Střední Čechy,50.13137,0.0,Shell,,,cz,Česko,290 01,black,"Shell, 4, Poděbradská, Písková Lhota u Poděbrad, Písková Lhota, okres Nymburk, Střední Čechy, 290 01, Česko",15.08197,Písková Lhota u Poděbrad,,
,48.81371,0.0,MOL,,,cz,Česko,671 67,black,"MOL, Cukrovarská, Hrušovany nad Jevišovkou, okres Znojmo, Jihomoravský kraj, 671 67, Česko",16.39615,Hrušovany nad Jevišovkou,,
Severozápad,50.61132,0.0,PASOIL,,,cz,Česko,419 01,black,"PASOIL, Osecká, Duchcov, okres Teplice, Ústecký kraj, Severozápad, 419 01, Česko",13.73811,Duchcov,,
Severovýchod,50.42671,0.0,Orlen,,,cz,Česko,544 01,black,"ORLEN, 3160, 17. listopadu, Dvůr Králové nad Labem, okres Trutnov, Královéhradecký kraj, Severovýchod, 544 01, Česko",15.81569,Dvůr Králové nad Labem,,
Trenčiansky kraj,48.9136,0.0,Slovnaft,,,sk,Slovensko,911 01,black,"Zamarovce, D1, Zamarovce, okres Trenčín, Trenčiansky kraj, Západné Slovensko, 911 01, Slovensko",18.05507,,,
,43.10548,0.0,INA,,,hr,Hrvatska,21330,black,"INA Gradac, 5, Magistrala, Gradac, Općina Gradac, Splitsko-dalmatinska županija, 21330, Hrvatska",17.34819,,,Gradac
Severovýchod,50.32803,33.9,TANK ONO,,,cz,Česko,503 14,#009900,"ONO - Milovice u Hořic, 35, Milovice u Hořic, okres Jičín, Královéhradecký kraj, Severovýchod, 503 14, Česko",15.63625,Milovice u Hořic,Dnes,
Jihovýchod,48.94411,0.0,ČSAD,,,cz,Česko,698 01,black,"1689, třída Masarykova, Veselí-Předměstí, Zarazice, Veselí nad Moravou, okres Hodonín, Jihomoravský kraj, Jihovýchod, 698 01, Česko",17.37101,Veselí-Předměstí,,
Severozápad,50.08608,38.9, Schnell,,,cz,Česko,350 02,#009900,"139/56, Pražská, Hradiště u Chebu, Cheb, okres Cheb, Karlovarský kraj, Severozápad, 350 02, Česko",12.4033,Hradiště u Chebu,Dnes,
Žilinský kraj,49.10053,0.0,SLOVNAFT,,,sk,Slovensko,038 61,black,"Slovnaft, Francúzskych partizánov, Priekopa, Martin, okres Martin, Žilinský kraj, Stredné Slovensko, 038 61, Slovensko",18.92035,Priekopa,,
,49.30785,0.0,Auto Kápl,,,cz,Česko,398 21,black,"Auto Kápl, 139, Nepodřice, Malé Nepodřice, Dobev, okres Písek, 398 21, Česko",14.09714,Nepodřice,,
Střední Čechy,50.10798,0.0,PRIM,,,cz,Česko,269 01,black,"2552, Dukelských hrdinů, Rakovník II, Rakovník, okres Rakovník, Střední Čechy, 269 01, Česko",13.71415,Rakovník II,,
Bratislavský kraj,48.11777,0.0,Lukoil,,Bratislava,sk,Slovensko,851 01,black,"Panónska cesta, Dvory I, Dvory, Bratislava, okres Bratislava V, Bratislava, Bratislavský kraj, 851 01, Slovensko",17.09751,Bratislava,,okres Bratislava V
Niederösterreich,47.94914,0.0,OSTATNI,,,at,Österreich,3341,black,"2, Kilian-Heumader Straße, Katastralgemeinde Ybbsitz, Ybbsitz, Bezirk Amstetten, Niederösterreich, 3341, Österreich",14.89618,Katastralgemeinde Ybbsitz,,
Moravskoslezsko,49.84457,0.0,TOMEGAS,,Ostrava,cz,Česko,710 00,black,"AMI Trade, Holečkova, Slezská Ostrava, Ostrava, okres Ostrava-město, Moravskoslezský kraj, Moravskoslezsko, 710 00, Česko",18.30852,Slezská Ostrava,,
Severozápad,50.50028,36.5,RoBiN OIL,,,cz,Česko,434 01,#009900,"RoBiN OIL Most, Žatecká, Most II, Most, okres Most, Ústecký kraj, Severozápad, 434 01, Česko",13.63008,Most II,Včera,
,49.73661,33.9,TANK ONO,,Plzeň,cz,Česko,318 00,#009900,"ONO - Plzeň, Domažlická, Domažlická, Zátiší, Skvrňany, Plzeň 3, Plzeň, okres Plzeň-město, Plzeňský kraj, 318 00, Česko",13.33088,Skvrňany,Dnes,Plzeň 3
,49.40959,0.0,KM-PRONA,,,cz,Česko,390 02,black,"3192, Chýnovská, Na kopečku, Tábor, okres Tábor, 390 02, Česko",14.68636,Tábor,,
Severovýchod,50.4325,36.9,EuroOil,,,cz,Česko,506 01,#009900,"569, Raisova, Pražské Předměstí, Jičín, okres Jičín, Královéhradecký kraj, Severovýchod, 506 01, Česko",15.34268,Pražské Předměstí,Dnes,
Severozápad,50.72857,0.0,F1 Gas,,,cz,Česko,415 01,black,"293, Cínovec, Dubí, okres Teplice, Ústecký kraj, Severozápad, 415 01, Česko",13.76956,,,
Oberösterreich,48.73657,0.0,BP,,,at,Österreich,4164,black,"Dreisesselbergstraße, Schwarzenberg am Böhmerwald, Bezirk Rohrbach, Oberösterreich, 4164, Österreich",13.81902,,,
Trnavský kraj,48.84148,0.0,Slovnaft,,,sk,Slovensko,909 01,black,"Mallého, Skalica, okres Skalica, Trnavský kraj, Západné Slovensko, 909 01, Slovensko",17.21794,,,
Trenčiansky kraj,49.10297,0.0,SHELL,,,sk,Slovensko,017 01,black,"Shell, 1728, Považská Bystrica, okres Považská Bystrica, Trenčiansky kraj, Západné Slovensko, 017 01, Slovensko",18.43837,,,
Tirol,47.48397,0.0,DISK,,,at,Österreich,6391,black,"5, Drahtzug, Neumoos, Fieberbrunn, Bezirk Kitzbühel, Tirol, 6391, Österreich",12.53503,,,
Střední Čechy,50.13392,36.2,ROBIN OIL,,,cz,Česko,290 33,#009900,"Bílkova, Kluk, Poděbrady, okres Nymburk, Střední Čechy, 290 33, Česko",15.10419,Kluk,před 5 dny,
Jihozápad,48.90701,0.0,PAP OIL,,,cz,Česko,382 03,black,"MOL Křemže, Spojovací, Křemže, Chlum, Křemže, okres Český Krumlov, Jihočeský kraj, Jihozápad, 382 03, Česko",14.30552,Křemže,,
,49.35716,33.9,TANK ONO,,,cz,Česko,398 48,#009900,"Tank Ono - ČS Podolí u Písku, 29, Podolí I, okres Písek, 398 48, Česko",14.2902,Podolí I,Dnes,
Severovýchod,50.66814,0.0,KM-PRONA,,,cz,Česko,463 42,black,"Z-Box, Rychnovská, Hodkovice nad Mohelkou, okres Liberec, Liberecký kraj, Severovýchod, 463 42, Česko",15.09535,Hodkovice nad Mohelkou,,
Severozápad,50.35179,0.0,TANK ONO,,,cz,Česko,439 42,black,"Tank Ono, 7, Březno u Postoloprt, Postoloprty, okres Louny, Ústecký kraj, Severozápad, 439 42, Česko",13.72802,,,
Severovýchod,50.21881,0.0,ARZE s.r.o.,,Hradec Králové,cz,Česko,500 09,black,"Arze, Bratří Štefanů, Nad jezem, Slezské Předměstí, Hradec Králové, okres Hradec Králové, Královéhradecký kraj, Severovýchod, 500 09, Česko",15.89146,Slezské Předměstí,,
Střední Čechy,50.15868,33.9,TANK ONO,,,cz,Česko,289 04,#009900,"72, Kolaje, okres Nymburk, Střední Čechy, 289 04, Česko",15.23441,,Dnes,
,49.34128,0.0,RoBiN OIL,,,cz,Česko,345 32,black,"65, Horní Folmava, Dolní Folmava, Česká Kubice, okres Domažlice, Plzeňský kraj, 345 32, Česko",12.85147,,,
Severozápad,50.64592,0.0,Shell,,,cz,Česko,417 31,black,"Shell, U hřiště, Teplice, okres Teplice, Ústecký kraj, Severozápad, 417 31, Česko",13.82154,Teplice,,
Jihovýchod,49.72671,0.0,MP SPOL,,,cz,Česko,583 01,black,"1690, Riegrova, Chotěboř, okres Havlíčkův Brod, Kraj Vysočina, Jihovýchod, 583 01, Česko",15.67158,Chotěboř,,
Střední Čechy,49.60651,0.0,MOL,,,cz,Česko,262 42,black,"118, Rožmitál pod Třemšínem, okres Příbram, Střední Čechy, 262 42, Česko",13.87389,Rožmitál pod Třemšínem,,
Severovýchod,50.51384,0.0,HDB,,,cz,Česko,542 32,black,"HDB, 14, Úpice, okres Trutnov, Královéhradecký kraj, Severovýchod, 542 32, Česko",16.01579,Úpice,,
,49.18772,0.0,KM-PRONA,,,cz,Česko,378 21,black,"692, Míru, Kardašova Řečice, okres Jindřichův Hradec, 378 21, Česko",14.84547,Kardašova Řečice,,
Severozápad,50.16686,33.9,TANK ONO,,,cz,Česko,356 01,#009900,"Stará Ovčárna, Vítkov u Sokolova, Vítkov, Sokolov, okres Sokolov, Karlovarský kraj, Severozápad, 356 01, Česko",12.66458,Vítkov u Sokolova,Dnes,
Střední Čechy,49.79489,36.9,MARTIN OIL,,,cz,Česko,262 03,#009900,"Martin Oil Mokrovraty, 202, 114, Mokrovraty, Pouště, Mokrovraty, okres Příbram, Střední Čechy, 262 03, Česko",14.2533,Mokrovraty,Předevčírem,
Košický kraj,48.69811,0.0,OMV,,Košice,sk,Slovensko,040 11,black,"Moldavská cesta, Terasa, Košice - mestská časť Západ, okres Košice II, Košice, Košický kraj, Východné Slovensko, 040 11, Slovensko",21.23773,Košice - mestská časť Západ,,okres Košice II
Moravskoslezsko,49.64707,0.0,PAP OIL,,,cz,Česko,742 58,black,"76, Ostravská, U vodojemu, Příbor, okres Nový Jičín, Moravskoslezský kraj, Moravskoslezsko, 742 58, Česko",18.14386,Příbor,,
Střední Čechy,49.84061,0.0,MOL,,,cz,Česko,257 24,black,"D1, Bělčice, Bělčice u Ostředka, Ostředek, okres Benešov, Střední Čechy, 257 24, Česko",14.81327,Bělčice u Ostředka,,
,48.92913,33.9,AVIA,,,cz,Česko,671 72,#999900,"Avia Miroslav, 1268, Nádraží, Miroslav, okres Znojmo, Jihomoravský kraj, 671 72, Česko",16.35315,Miroslav,před 8 dny,
Košický kraj,48.72016,0.0,Slovnaft,,Košice,sk,Slovensko,040 22,black,"Palackého, Stredné Mesto, Košice - mestská časť Staré Mesto, okres Košice I, Košice, Košický kraj, Východné Slovensko, 040 22, Slovensko",21.27306,Stredné Mesto,,okres Košice I
,49.67884,0.0,MOL,,,cz,Česko,348 06,black,"D5, Kateřinské Chalupy, Svatá Kateřina u Rozvadova, Svatá Kateřina, Rozvadov, okres Tachov, Plzeňský kraj, 348 06, Česko",12.60339,Svatá Kateřina u Rozvadova,,
Moravskoslezsko,49.93382,0.0,EUROBIT,,,cz,Česko,747 31,black,"Eurobit, Velké Hoštice, Opavská, Velké Hoštice, okres Opava, Moravskoslezský kraj, Moravskoslezsko, 747 31, Česko",17.99019,Velké Hoštice,,
Severozápad,50.62699,0.0,MOL,,,cz,Česko,415 01,black,"MOL, Teplice, 13, Teplice, okres Teplice, Ústecký kraj, Severozápad, 415 01, Česko",13.82776,Teplice,,
,49.74403,0.0,MOL,,,cz,Česko,337 01,black,"975, Arbesova, Plzeňské Předměstí, Rokycany, okres Rokycany, Plzeňský kraj, 337 01, Česko",13.58132,Plzeňské Předměstí,,
,49.14928,0.0,F1 Gas ,,,cz,Česko,340 04,black,"Free1 GAS Železná Ruda, Pamferova Huť, Pamferova Hut, Železná Ruda, okres Klatovy, Plzeňský kraj, 340 04, Česko",13.25622,Železná Ruda,,
Jihozápad,49.39216,0.0,Shell,,,cz,Česko,339 01,black,"Shell, Domažlická, Klatovy III, Klatovy, Beňovy, Klatovy, okres Klatovy, Plzeňský kraj, Jihozápad, 339 01, Česko",13.2766,Klatovy III,,
,49.21574,0.0,D-1 Autopark,,,cz,Česko,604 81,black,"Autopark D-1, Veveří, Ostrovačice, okres Brno-venkov, Jihomoravský kraj, 604 81, Česko",16.40908,Ostrovačice,,
,49.62944,33.9,TANK ONO,,,cz,Česko,334 42,#009900,"Tank ONO s.r.o., 459, Komenského, Chlumčany u Přeštic, Chlumčany, okres Plzeň-jih, Plzeňský kraj, 334 42, Česko",13.33034,Chlumčany u Přeštic,Dnes,
Salzburg,47.59152,0.0,ENI,,,at,Österreich,5440,black,"Lammer-Radweg, Torren, Golling an der Salzach, Bezirk Hallein, Salzburg, 5440, Österreich",13.17612,,,
Jihovýchod,49.54037,0.0,"ICOM Transport, a.s.",,,cz,Česko,396 01,black,"ICOM transport, Okružní, Humpolec, okres Pelhřimov, Kraj Vysočina, Jihovýchod, 396 01, Česko",15.34512,Humpolec,,
Žilinský kraj,49.42882,0.0,OMV,,,sk,Slovensko,022 01,black,"79, Horelica, Čadca, okres Čadca, Žilinský kraj, Stredné Slovensko, 022 01, Slovensko",18.80583,Horelica,,
województwo dolnośląskie,50.43159,0.0,Orlen,,,pl,Polska,57-350,black,"Orlen, 133, Słone, Kudowa-Zdrój, powiat kłodzki, województwo dolnośląskie, 57-350, Polska",16.19817,Słone,,
,49.27767,0.0,MOL,,,cz,Česko,664 31,black,"MOL, 43, Česká, okres Brno-venkov, Jihomoravský kraj, 664 31, Česko",16.57051,Česká,,
Moravskoslezsko,49.8076,0.0,Mol,,Ostrava,cz,Česko,703 00,black,"MOL, Ostrava - Ruská, Ruská, Zábřeh-VŽ, Ostrava, okres Ostrava-město, Moravskoslezský kraj, Moravskoslezsko, 703 00, Česko",18.25003,Zábřeh-VŽ,,
Střední Čechy,49.97034,0.0,AVIA,,,cz,Česko,252 42,black,"Avia Jesenice, Pražská, Osnice, Kocanda, Jesenice, okres Praha-západ, Střední Čechy, 252 42, Česko",14.53835,Osnice,,
Severovýchod,50.69983,0.0,MOL,,,cz,Česko,512 43,black,"Auto Belda s.r.o., 800, Jablonec nad Jizerou, okres Semily, Liberecký kraj, Severovýchod, 512 43, Česko",15.43465,,,
Praha,50.08328,37.9,MOL,,Hlavní město Praha,cz,Česko,130 20,#999900,"MOL, Praha 3 - Žižkov U Nákladového nádraží, U Nákladového nádraží, Žižkov, Praha, obvod Praha 3, Hlavní město Praha, Praha, 130 20, Česko",14.47806,Žižkov,před 9 dny,obvod Praha 3
Praha,50.01968,0.0,F1,,Hlavní město Praha,cz,Česko,154 00,black,"One1, K Barrandovu, Slivenec, Praha, obvod Praha 5, Hlavní město Praha, Praha, 154 00, Česko",14.34782,Slivenec,,obvod Praha 5
Střední Čechy,49.92585,0.0,KM-PRONA,,,cz,Česko,285 71,black,"Chrudimská, Dolní Bučice, Vrdy, okres Kutná Hora, Střední Čechy, 285 71, Česko",15.45886,Dolní Bučice,,
,49.0559,0.0,Adosa,,,cz,Česko,664 55,black,"352, Moutnice, okres Brno-venkov, Jihomoravský kraj, 664 55, Česko",16.73489,,,
Střední Morava,49.08027,0.0,Trako,,,cz,Česko,763 21,black,"160, Hrádecká, Hrádek na Vlárské dráze, Slavičín, okres Zlín, Zlínský kraj, Střední Morava, 763 21, Česko",17.88677,,,
,65.10769,0.0,A+S,,,is,Ísland,370,black,"Fjósar, Búðardalur, Dalabyggð, Vesturland, 370, Ísland",-21.76353,,,
Severovýchod,50.74028,0.0,EURO CAR Vik,,,cz,Česko,468 71,black,"692, Lučany nad Nisou, okres Jablonec nad Nisou, Liberecký kraj, Severovýchod, 468 71, Česko",15.2249,,,
Moravskoslezsko,49.60358,0.0,LXM,,,cz,Česko,742 42,black,"48, Šenov u Nového Jičína, okres Nový Jičín, Moravskoslezský kraj, Moravskoslezsko, 742 42, Česko",18.00684,Šenov u Nového Jičína,,
Severozápad,50.62961,0.0,Benzina,,,cz,Česko,435 45,black,"233, Mníšek v Krušných horách, Nová Ves v Horách, okres Most, Ústecký kraj, Severozápad, 435 45, Česko",13.49886,,,
,49.05839,0.0,RoBiN OIL,,,cz,Česko,385 01,black,"EuroOil Vimperk, 134/2, Sklářská, Vimperk III, Vimperk, Boubská, Vimperk, okres Prachatice, 385 01, Česko",13.78481,Vimperk III,,
Jihovýchod,49.2969,0.0,BÍTEŠSKÁ DOPRAVNÍ SPOLEČNOST,,,cz,Česko,595 01,black,"608, Vlkovská, Janovice, Velká Bíteš, okres Žďár nad Sázavou, Kraj Vysočina, Jihovýchod, 595 01, Česko",16.21869,Janovice,,
Střední Čechy,50.17281,0.0,Eurobit,,,cz,Česko,250 65,black,"Eurobit, Bořanovice, 243, Pakoměřice, Bořanovice, okres Praha-východ, Střední Čechy, 250 65, Česko",14.48415,Bořanovice,,
Jihovýchod,48.85763,36.9,ČSAD Hodonín ,,,cz,Česko,695 01,#009900,"4112/76, Měšťanská, Hodonín, okres Hodonín, Jihomoravský kraj, Jihovýchod, 695 01, Česko",17.13583,Hodonín,před 3 dny,
Střední Čechy,50.14124,0.0,OLYMP-OIL,,,cz,Česko,272 04,black,"Olymp oil, Smečenská, Rozdělov, Kladno, okres Kladno, Střední Čechy, 272 04, Česko",14.06343,Rozdělov,,
Severozápad,50.45006,33.9,TANK ONO,,,cz,Česko,435 01,#009900,"27, Havraň, okres Most, Ústecký kraj, Severozápad, 435 01, Česko",13.59789,Havraň,Dnes,
Severozápad,50.13665,0.0,Medos,,,cz,Česko,364 52,black,"Medos Agro, 60, Verušičky, okres Karlovy Vary, Karlovarský kraj, Severozápad, 364 52, Česko",13.18509,,,
Severovýchod,49.94348,36.5,EuroOil,,,cz,Česko,566 01,#009900,"EuroOil Vysoké Mýto, 892, Husova, Litomyšlské Předměstí, Vysoké Mýto, okres Ústí nad Orlicí, Pardubický kraj, Severovýchod, 566 01, Česko",16.16431,Litomyšlské Předměstí,před 5 dny,
Jihozápad,48.64682,33.9,TANK ONO,,,cz,Česko,382 72,#009900,"Tank Ono Dolní Dvořiště 1, 3, Dolní Dvořiště, okres Český Krumlov, Jihočeský kraj, Jihozápad, 382 72, Česko",14.45265,Dolní Dvořiště,Dnes,
Severozápad,50.27818,0.0,EuroOil,,,cz,Česko,363 01,black,"119, Hájek, okres Karlovy Vary, Karlovarský kraj, Severozápad, 363 01, Česko",12.92838,,,
Střední Čechy,50.14994,35.9,RoBiN OIL,,,cz,Česko,272 03,#009900,"RoBiN OIL, Libušina, Dubí u Kladna, Kladno, okres Kladno, Střední Čechy, 272 03, Česko",14.13299,Dubí u Kladna,Včera,
województwo śląskie,49.83436,0.0,Auchan,,Bielsko-Biała,pl,Polska,43-391,black,"Malowany Dworek, Stare Bielsko, Bielsko-Biała, województwo śląskie, 43-391, Polska",18.98509,Stare Bielsko,,
Severozápad,50.04688,0.0,MOL,,,cz,Česko,350 02,black,"287, Svatý Kříž, Háje u Chebu, Cheb, okres Cheb, Karlovarský kraj, Severozápad, 350 02, Česko",12.35034,Háje u Chebu,,
Severozápad,50.04104,0.0,F1,,,cz,Česko,335 02,black,"214, Háje u Chebu, Cheb, okres Cheb, Karlovarský kraj, Severozápad, 335 02, Česko",12.34087,Háje u Chebu,,
Střední Čechy,50.03875,36.0,Šafránka Rudná,,,cz,Česko,252 19,#009900,"1008/6, Masarykova, Dušníky, Dušníky u Rudné, Rudná, okres Praha-západ, Střední Čechy, 252 19, Česko",14.24342,Dušníky,Dnes,
Košický kraj,48.73395,0.0,OMV,,Košice,sk,Slovensko,040 22,black,"Prešovská cesta, Furča, Košice - mestská časť Dargovských hrdinov, okres Košice III, Košice, Košický kraj, Východné Slovensko, 040 22, Slovensko",21.27586,Košice - mestská časť Dargovských hrdinov,,okres Košice III
Severovýchod,50.69279,0.0,Shell,,,cz,Česko,470 06,black,"Shell, 9, Česká Lípa, okres Česká Lípa, Liberecký kraj, Severovýchod, 470 06, Česko",14.54193,Česká Lípa,,
Trenčiansky kraj,48.78033,0.0,slovnaft,,,sk,Slovensko,971 01,black,"Slovnaft, 811/18, Rad L. N. Tolstého, Staré mesto, Prievidza, okres Prievidza, Trenčiansky kraj, Západné Slovensko, 971 01, Slovensko",18.62103,Staré mesto,,
Moravskoslezsko,49.58561,0.0,AVANZ ,,,cz,Česko,739 11,black,"AVANZ GROUP, Hlavní, Frýdlant, Frýdlant nad Ostravicí, okres Frýdek-Místek, Moravskoslezský kraj, Moravskoslezsko, 739 11, Česko",18.3592,Frýdlant,,
Střední Morava,49.32103,37.9,EUROOIL,,,cz,Česko,752 01,#009900,"Křenovice, D1, km 249.2 (L), D1, Křenovice u Kojetína, Křenovice, okres Přerov, Olomoucký kraj, Střední Morava, 752 01, Česko",17.26193,Křenovice u Kojetína,před 5 dny,
Střední Čechy,49.85508,0.0,MOL,,,cz,Česko,267 61,black,"Záluží, D5, Záluží u Hořovic, Záluží, okres Beroun, Střední Čechy, 267 61, Česko",13.87194,Záluží u Hořovic,,
Moravskoslezsko,49.64738,0.0,Orlen,,,cz,Česko,742 53,black,"Orlen, 57, Kunín, okres Nový Jičín, Moravskoslezský kraj, Moravskoslezsko, 742 53, Česko",17.98922,Kunín,,
Severozápad,50.63452,0.0,PETROL,,,cz,Česko,415 01,black,"Zenex, Pražská, Teplice, okres Teplice, Ústecký kraj, Severozápad, 415 01, Česko",13.8465,Teplice,,
Jihozápad,49.4414,0.0,Benzina,,,cz,Česko,399 01,black,"Benzina, Čs. legií, Hajda, Milevsko, okres Písek, Jihočeský kraj, Jihozápad, 399 01, Česko",14.35861,Milevsko,,
Jihovýchod,49.00723,36.9,EuroOil,,,cz,Česko,697 01,#009900,"135/1, Tyršova, Kyjov, okres Hodonín, Jihomoravský kraj, Jihovýchod, 697 01, Česko",17.13098,Kyjov,Včera,
Jihovýchod,49.23273,0.0,EuroOil,,Brno,cz,Česko,638 00,black,"EuroOil Brno - Lesná, Okružní, Okružní, Lesná, Brno, okres Brno-město, Jihomoravský kraj, Jihovýchod, 638 00, Česko",16.62135,Lesná,,
Severozápad,50.31223,0.0,MOL,,,cz,Česko,358 01,black,"MOL, Kraslice, Čs. armády, Kraslice, okres Sokolov, Karlovarský kraj, Severozápad, 358 01, Česko",12.52134,Kraslice,,
Prešovský kraj,49.03051,0.0,Slovnaft,,,sk,Slovensko,054 01,black,"2970, Levoča, okres Levoča, Prešovský kraj, Východné Slovensko, 054 01, Slovensko",20.60643,,,
,49.64889,0.0,F1,,,cz,Česko,348 07,black,"Hraniční přechod Rozvadov – Waidhaus, D5, bývalá Střeble, Střeble, Rozvadov, okres Tachov, Plzeňský kraj, 348 07, Česko",12.53324,Střeble,,
Severozápad,51.00073,0.0,F1,,,cz,Česko,407 53,black,"Free1 GAS Jiříkov, 9. května, EWM, Jiříkov, okres Děčín, Ústecký kraj, Severozápad, 407 53, Česko",14.57465,Jiříkov,,
województwo dolnośląskie,50.43368,0.0,Circle K,,,pl,Polska,57-351,black,"8, Słone, Kudowa-Zdrój, powiat kłodzki, województwo dolnośląskie, 57-351, Polska",16.20628,Słone,,
Střední Morava,49.16056,0.0,Benzina,,,cz,Česko,763 61,black,"Benzina, 1532, Nádražní, Napajedla, okres Zlín, Zlínský kraj, Střední Morava, 763 61, Česko",17.50542,Napajedla,,
Severovýchod,50.53055,0.0,KM-PRONA,,,cz,Česko,543 75,black,"Nádražní, Chotěvice - Amerika, Chotěvice, okres Trutnov, Královéhradecký kraj, Severovýchod, 543 75, Česko",15.74376,Chotěvice,,
Praha,50.03096,0.0,KONT.cz,,Hlavní město Praha,cz,Česko,149 00,black,"dp712, Otíkova lávka, Jižní Město, Háje, Praha, obvod Praha 4, Hlavní město Praha, Praha, 149 00, Česko",14.52865,Háje,,obvod Praha 4
Jihozápad,48.8224,0.0,GASPED,,,cz,Česko,381 01,black,"301, Přísečná-Domoradice, Český Krumlov, okres Český Krumlov, Jihočeský kraj, Jihozápad, 381 01, Česko",14.33561,,,
Severovýchod,50.78419,33.9,TANK ONO,,,cz,Česko,471 54,#009900,"Martinovo údolí, Cvikov II, Cvikov, okres Česká Lípa, Liberecký kraj, Severovýchod, 471 54, Česko",14.61647,Cvikov II,Dnes,
,49.6294,0.0,TANK ONO,,,cz,Česko,334 42,black,"459, Komenského, Chlumčany u Přeštic, Chlumčany, okres Plzeň-jih, Plzeňský kraj, 334 42, Česko",13.33038,Chlumčany u Přeštic,,
,49.14906,0.0,Eurobit,,,cz,Česko,684 01,black,"302, Hodějice, okres Vyškov, Jihomoravský kraj, 684 01, Česko",16.91611,,,
,49.01039,0.0,MOL,,,cz,Česko,691 64,black,"D2, Velké Němčice, okres Břeclav, Jihomoravský kraj, 691 64, Česko",16.68784,Velké Němčice,,
Střední Čechy,50.51692,0.0,KM-PRONA,,,cz,Česko,295 01,black,"KM-Prona, Mnichovo Hradiště, 268, Mnichovo Hradiště, okres Mladá Boleslav, Střední Čechy, 295 01, Česko",14.98652,Mnichovo Hradiště,,
Severovýchod,50.76023,36.5,KM-PRONA,,Liberec,cz,Česko,463 11,#999999,"1140, Kunratická, Aloisina výšina, Starý Harcov, Liberec, okres Liberec, Liberecký kraj, Severovýchod, 463 11, Česko",15.09055,Starý Harcov,před 10 dny,
Střední Čechy,50.00038,39.9,AVIA,,,cz,Česko,267 05,#009900,"108, Křivoklátská, Nižbor, okres Beroun, Střední Čechy, 267 05, Česko",14.00282,Nižbor,Dnes,
Severozápad,50.31971,33.9,Tank ONO,,,cz,Česko,363 01,#009900,"13, Dolní Žďár, Dolní Žďár u Ostrova, Ostrov, okres Karlovy Vary, Karlovarský kraj, Severozápad, 363 01, Česko",12.94677,Dolní Žďár,před 3 dny,
Severozápad,50.69435,33.9,TANK ONO,,,cz,Česko,403 39,#009900,"ev.228, Ústecká, Chlumec u Chabařovic, Chlumec, okres Ústí nad Labem, Ústecký kraj, Severozápad, 403 39, Česko",13.94052,Chlumec u Chabařovic,Dnes,
województwo dolnośląskie,50.85787,0.0,Muller,,,pl,Polska,58-573,black,"2d, Jeleniogórska, Pakoszów, Piechowice, powiat karkonoski, województwo dolnośląskie, 58-573, Polska",15.59724,,,
Praha,50.11031,0.0,Mol,,Hlavní město Praha,cz,Česko,198 19,black,"Skorkovská, Horní Počernice, Praha, obvod Praha 9, Hlavní město Praha, Praha, 198 19, Česko",14.57615,Horní Počernice,,obvod Praha 9
Severozápad,50.16951,0.0,RoBiN OIL,,,cz,Česko,356 01,black,"RoBiN OIL Sokolov, 210, Sokolov, okres Sokolov, Karlovarský kraj, Severozápad, 356 01, Česko",12.64821,Sokolov,,
,49.0551,36.5,Oilas,,,cz,Česko,384 27,#009900,"145, Vitějovice, okres Prachatice, 384 27, Česko",14.07366,Vitějovice,před 3 dny,
,49.28755,0.0,Caroil,,,cz,Česko,682 01,black,"809/43, Olomoucká, Vyškov-Předměstí, Vyškov, okres Vyškov, Jihomoravský kraj, 682 01, Česko",17.00748,Vyškov-Předměstí,,
Moravskoslezsko,49.74637,0.0,EuroOil,,,cz,Česko,735 42,black,"EuroOil Horní Těrlicko, Těšínská, Horní Těrlicko, Těrlicko, okres Karviná, Moravskoslezský kraj, Moravskoslezsko, 735 42, Česko",18.48997,,,
,49.20798,0.0,EuroOil,,,cz,Česko,683 10,black,"EuroOil Rousínov, Čechyňská, Čechyně, Rousínov, okres Vyškov, Jihomoravský kraj, 683 10, Česko",16.89435,,,
Střední Čechy,49.94888,33.9,TANK ONO,,,cz,Česko,285 33,#009900,"227, Církvice, okres Kutná Hora, Střední Čechy, 285 33, Česko",15.32607,,Dnes,
Moravskoslezsko,50.00436,0.0,DZ OIL,,,cz,Česko,793 36,black,"DZ OIL Malá Morávka, 445, Dolní Moravice, okres Bruntál, Moravskoslezský kraj, Moravskoslezsko, 793 36, Česko",17.31502,Dolní Moravice,,
Jihovýchod,49.41151,0.0,Eurobit,,,cz,Česko,588 21,black,"Jamenský potok, km 121.8 (P), D1, Kozlov u Jihlavy, Kozlov, okres Jihlava, Kraj Vysočina, Jihovýchod, 588 21, Česko",15.71946,Kozlov u Jihlavy,,
,49.10284,33.9,TANK ONO,,,cz,Česko,664 61,#009900,"Tank Ono - ČS Brno-Popovice, Brněnská, Popovice u Rajhradu, Popovice, okres Brno-venkov, Jihomoravský kraj, 664 61, Česko",16.60338,Popovice u Rajhradu,Dnes,
Žilinský kraj,49.12496,0.0,SLOVNAFT,,,sk,Slovensko,038 61,black,"5386, Vrútky, okres Martin, Žilinský kraj, Stredné Slovensko, 038 61, Slovensko",18.90539,,,
Praha,49.98414,38.9,PR - Pavel Růžička,,Hlavní město Praha,cz,Česko,153 00,#009900,"912/13, Výpadová, Radotín, Praha, obvod Praha 5, Hlavní město Praha, Praha, 153 00, Česko",14.3679,Radotín,Předevčírem,obvod Praha 5
,49.23921,0.0,Shell,,,cz,Česko,342 01,black,"Shell, 379, Hrádecká, Sušice II, Sušice nad Otavou, Sušice, okres Klatovy, Plzeňský kraj, 342 01, Česko",13.5207,Sušice II,,
Praha,50.05113,0.0,Shell,,Hlavní město Praha,cz,Česko,150 00,black,"3363/2d, Strakonická, Zlíchov, Smíchov, Praha, obvod Praha 5, Hlavní město Praha, Praha, 150 00, Česko",14.41107,Smíchov,,obvod Praha 5
,46.20124,0.0,MOL,,Arad,ro,România,310364,black,"Calea Aurel Vlaicu, Ion G. Duca, Arad, 310364, România",21.29237,Ion G. Duca,,
,49.70738,34.0,Avia Expres,,,cz,Česko,330 26,#009900,"U Mexika, Nýřany, okres Plzeň-sever, Plzeňský kraj, 330 26, Česko",13.22615,Nýřany,před 3 dny,
,49.11931,0.0,KM-PRONA,,,cz,Česko,384 81,black,"4, Čkyně, okres Prachatice, 384 81, Česko",13.84225,Čkyně,,
,49.77512,33.9,TANK ONO,,Plzeň,cz,Česko,323 34,#009900,"ONO - Plzeň, Studentská, Studentská, Košutka, Bolevec, Plzeň 1, Plzeň, okres Plzeň-město, Plzeňský kraj, 323 34, Česko",13.36045,Bolevec,Dnes,Plzeň 1
Severovýchod,49.9428,0.0,Orlen,,,cz,Česko,566 01,black,"Orlen express, Husova, Litomyšlské Předměstí, Vysoké Mýto, okres Ústí nad Orlicí, Pardubický kraj, Severovýchod, 566 01, Česko",16.16433,Litomyšlské Předměstí,,
,49.46646,0.0,MEDOS,,,cz,Česko,394 11,black,"Medos, 129, Pacov, okres Pelhřimov, Kraj Vysočina, 394 11, Česko",14.99297,Pacov,,
Střední Morava,49.56081,36.5,AMIGO,,Olomouc,cz,Česko,779 11,#009900,"Dolní novosadská, Nemilany, Olomouc, okres Olomouc, Olomoucký kraj, Střední Morava, 779 11, Česko",17.26242,Nemilany,před 4 dny,
Jihovýchod,49.68176,0.0,SVAN OILs.r.o.,,,cz,Česko,582 41,black,"34711, Olešná u Havlíčkova Brodu, Olešná, okres Havlíčkův Brod, Kraj Vysočina, Jihovýchod, 582 41, Česko",15.53546,Olešná u Havlíčkova Brodu,,
Jihovýchod,49.09739,0.0,Plus Oil,,,cz,Česko,664 91,black,"plus oil, Krumlovská, Ivančice, Alexovice, Ivančice, okres Brno-venkov, Jihomoravský kraj, Jihovýchod, 664 91, Česko",16.37108,Ivančice,,
Moravskoslezsko,49.864,0.0,Progres,,,cz,Česko,735 32,black,"1913, Rybničná, Rychvald, okres Karviná, Moravskoslezský kraj, Moravskoslezsko, 735 32, Česko",18.38738,Rychvald,,
Střední Morava,49.52781,0.0,MOL,,,cz,Česko,751 31,black,"Ruční mytí, ev.844, Hranická, Lipník nad Bečvou-střed, Lipník nad Bečvou, okres Přerov, Olomoucký kraj, Střední Morava, 751 31, Česko",17.59143,Lipník nad Bečvou,,
Severozápad,50.60995,0.0,F1,,,cz,Česko,435 46,black,"341, Hora Svaté Kateřiny, okres Most, Ústecký kraj, Severozápad, 435 46, Česko",13.43268,,,
Střední Morava,49.07551,0.0,ČSAD,,,cz,Česko,763 21,black,"108, Nádražní, Hrádek na Vlárské dráze, Divnice, Slavičín, okres Zlín, Zlínský kraj, Střední Morava, 763 21, Česko",17.89966,,,
Střední Čechy,50.13186,0.0,MOL,,,cz,Česko,272 01,black,"MOL, Kladno - Americká, 118, Kročehlavy, Kladno, okres Kladno, Střední Čechy, 272 01, Česko",14.11204,Kročehlavy,,
Košický kraj,48.703,0.0,Shell,,Košice,sk,Slovensko,040 01,black,"Slovnaft, Alejová, Južné Mesto, Košice - mestská časť Juh, okres Košice IV, Košice, Košický kraj, Východné Slovensko, 040 01, Slovensko",21.24507,Košice - mestská časť Juh,,okres Košice IV
,49.24323,0.0,FORS CS,,,cz,Česko,664 01,black,"Brněnka, Obřanská, Bílovice nad Svitavou, okres Brno-venkov, Jihomoravský kraj, 664 01, Česko",16.66168,Bílovice nad Svitavou,,
Severozápad,50.31915,0.0,KM-PRONA,,,cz,Česko,438 01,black,"2031, Čeradická, Žatec, okres Louny, Ústecký kraj, Severozápad, 438 01, Česko",13.52959,Žatec,,
Severozápad,50.71291,0.0,MOL,,Ústí nad Labem,cz,Česko,400 10,black,"MONETA Money Bank, Všebořice, Ústí nad Labem, okres Ústí nad Labem, Ústecký kraj, Severozápad, 400 10, Česko",13.96947,Všebořice,,
Střední Morava,49.37066,0.0,ČS Brodek,,,cz,Česko,798 07,black,"Brodek u Prostějova, okres Prostějov, Olomoucký kraj, Střední Morava, 798 07, Česko",17.09148,Brodek u Prostějova,,
,49.76648,0.0,OMV,,Plzeň,cz,Česko,323 00,black,"OMV, alej Svobody, Lochotín, Plzeň, Plzeň 1, Plzeň, okres Plzeň-město, Plzeňský kraj, 323 00, Česko",13.37418,Plzeň,,Plzeň 1
Střední Čechy,50.03235,0.0,MOL,,,cz,Česko,280 02,black,"MOL, Kolín - Pražská, 1058, Pražská, Kolín II, Kolín, okres Kolín, Střední Čechy, 280 02, Česko",15.17826,Kolín II,,
Košický kraj,48.74118,0.0,Slovnaft,,Košice,sk,Slovensko,040 01,black,"2854/4, Medzi mostami, Brody, Košice - mestská časť Džungľa, okres Košice I, Košice, Košický kraj, Východné Slovensko, 040 01, Slovensko",21.25949,Košice - mestská časť Džungľa,,okres Košice I
Střední Čechy,50.08311,36.5,KM-PRONA,,,cz,Česko,253 01,#009900,"1223, Dlouhá, Litovice, Hostivice, okres Praha-západ, Střední Čechy, 253 01, Česko",14.23729,Litovice,Dnes,
Střední Čechy,50.20824,0.0,Granta,,,cz,Česko,274 01,black,"GRANTA, D7, Netovice, Kvíc, Slaný, okres Kladno, Střední Čechy, 274 01, Česko",14.08839,,,
Severozápad,50.18864,0.0,EuroOil,,,cz,Česko,357 33,black,"595, T. G. Masaryka, Nádražní předměstí, Loket, okres Sokolov, Karlovarský kraj, Severozápad, 357 33, Česko",12.75138,Nádražní předměstí,,
województwo opolskie,50.31733,0.0,LOTOS,,,pl,Polska,48-340,black,"MOL, Prymasa Stefana Wyszyńskiego, Głuchołazy, gmina Głuchołazy, powiat nyski, województwo opolskie, 48-340, Polska",17.38903,,,
Střední Čechy,50.13244,0.0,MOL,,,cz,Česko,289 15,black,"MOL, D11, Velenka, okres Nymburk, Střední Čechy, 289 15, Česko",14.86179,Velenka,,
Střední Morava,49.10245,0.0,Trako,,,cz,Česko,763 31,black,"1397, Kloboucká, Brumov, Brumov-Bylnice, okres Zlín, Zlínský kraj, Střední Morava, 763 31, Česko",18.02595,Brumov,,
Praha,50.05147,33.9,Tank ONO,,Hlavní město Praha,cz,Česko,111 01,#009900,"225/76, Kutnohorská, Dolní Měcholupy, Praha, obvod Praha 10, Hlavní město Praha, Praha, 111 01, Česko",14.56726,Dolní Měcholupy,Dnes,obvod Praha 10
Moravskoslezsko,49.85269,0.0,EuroOil,,Ostrava,cz,Česko,702 72,black,"EuroOil Ostrava - Přívoz, Muglinovská, Muglinovská, Moravská Ostrava, Ostrava, okres Ostrava-město, Moravskoslezský kraj, Moravskoslezsko, 702 72, Česko",18.28295,Moravská Ostrava,,
,48.98068,36.5,EuroOil,,České Budějovice,cz,Česko,370 01,#009900,"676, Rudolfovská tř., Nové Vráto, České Budějovice 4, České Budějovice, okres České Budějovice, 370 01, Česko",14.50126,Nové Vráto,před 6 dny,
Jihovýchod,48.94155,0.0,VENA-TRADE,,,cz,Česko,696 71,black,"Hunsgas, 54, Blatnice pod Svatým Antonínkem, okres Hodonín, Jihomoravský kraj, Jihovýchod, 696 71, Česko",17.48039,Blatnice pod Svatým Antonínkem,,
Střední Morava,49.95868,0.0,Orlen,,,cz,Česko,787 01,black,"3108/2d, Jesenická, Dvořákovy sady, Šumperk, okres Šumperk, Olomoucký kraj, Střední Morava, 787 01, Česko",16.97478,Šumperk,,
Střední Čechy,50.22703,37.5,RoBiN OIL,,,cz,Česko,294 76,#009900,"D10, Skorkov, okres Mladá Boleslav, Střední Čechy, 294 76, Česko",14.72181,Skorkov,před 5 dny,
Severovýchod,50.32192,0.0,VENDYS & V,,,cz,Česko,503 04,black,"VENDYS&V, 611, Čáslavky, Černožice nad Labem, Černožice, okres Hradec Králové, Královéhradecký kraj, Severovýchod, 503 04, Česko",15.86968,Černožice nad Labem,,
Severozápad,50.71873,0.0,HERST,,,cz,Česko,417 81,black,"182, Moldava, okres Teplice, Ústecký kraj, Severozápad, 417 81, Česko",13.68686,,,
Bratislavský kraj,48.43127,0.0,Slovnaft,,,sk,Slovensko,901 01,black,"Fresh Corner, Pezinská, Malacky, okres Malacky, Bratislavský kraj, 901 01, Slovensko",17.03234,,,
Bayern,48.98319,0.0,GLOBUS,,,de,Deutschland,93073,black,"Globus Tankstelle, 4, Pommernstraße, KaufPark Neutraubling, Birkenfeld, Neutraubling, Landkreis Regensburg, Bayern, 93073, Deutschland",12.1916,Birkenfeld,,
Střední Čechy,50.10554,0.0,ROBIN OIL,,,cz,Česko,269 01,black,"U Hamru, Rakovník I, Rakovník, okres Rakovník, Střední Čechy, 269 01, Česko",13.75087,Rakovník I,,
Nitriansky kraj,48.11145,0.0,DaliOil,,,sk,Slovensko,935 84,black,"258, Tupá, okres Levice, Nitriansky kraj, Západné Slovensko, 935 84, Slovensko",18.88154,,,
Jihovýchod,49.70796,0.0,EuroOil,,,cz,Česko,592 02,black,"408, Partyzánská, Svratka, okres Žďár nad Sázavou, Kraj Vysočina, Jihovýchod, 592 02, Česko",16.0233,Svratka,,
,49.00448,0.0,Globus,,České Budějovice,cz,Česko,370 11,black,"Globus, 20, České Vrbné, České Budějovice, okres České Budějovice, 370 11, Česko",14.45119,,,
Praha,50.04378,0.0,MOL,,Hlavní město Praha,cz,Česko,147 00,black,"Modřanská, Braník, Praha, obvod Praha 4, Hlavní město Praha, Praha, 147 00, Česko",14.41135,Braník,,obvod Praha 4
Střední Čechy,50.47758,36.7,RoBiN OIL,,,cz,Česko,294 01,#009900,"610, Trenčín, Bakov nad Jizerou, Horka, Bakov nad Jizerou, okres Mladá Boleslav, Střední Čechy, 294 01, Česko",14.9508,Bakov nad Jizerou,Dnes,
Střední Čechy,50.14342,0.0,Mol,,,cz,Česko,272 01,black,"MOL, Kladno - Kročehlavská, Kročehlavská, Kročehlavy, Kladno, okres Kladno, Střední Čechy, 272 01, Česko",14.11272,Kročehlavy,,
Střední Čechy,50.22535,36.5,RoBiN OIL,,,cz,Česko,250 70,#009900,"Odolena Voda, Teplická, Odolena Voda, okres Praha-východ, Střední Čechy, 250 70, Česko",14.40245,Odolena Voda,před 4 dny,
województwo dolnośląskie,50.15844,0.0,ORLEN,,,pl,Polska,57-530,black,"33, Międzylesie, gmina Międzylesie, powiat kłodzki, województwo dolnośląskie, 57-530, Polska",16.67065,,,
,49.43919,0.0,ČERCHOVKA,,,cz,Česko,345 34,black,"Čerchovka, 189;195, Klenčí pod Čerchovem, okres Domažlice, Plzeňský kraj, 345 34, Česko",12.82531,Klenčí pod Čerchovem,,
,48.90753,0.0,Shell,,,cz,Česko,691 08,black,"Shell, 421, Bořetice u Hustopečí, Bořetice, okres Břeclav, Jihomoravský kraj, 691 08, Česko",16.84365,Bořetice u Hustopečí,,
,48.88452,0.0,Travel Free,,,cz,Česko,384 43,black,"Strážný CZ / D, 13, Strážný CZ / D, Silnice, Strážný, okres Prachatice, 384 43, Česko",13.70419,Silnice,,
Jihozápad,48.6524,33.9,TANK ONO,,,cz,Česko,382 72,#009900,"218, Dolní Dvořiště, okres Český Krumlov, Jihočeský kraj, Jihozápad, 382 72, Česko",14.45247,Dolní Dvořiště,Dnes,
Severovýchod,50.05483,0.0,Agro Žamberk a.s.,,,cz,Česko,561 63,black,"279, Nekoř, okres Ústí nad Orlicí, Pardubický kraj, Severovýchod, 561 63, Česko",16.53439,,,
,49.4293,0.0,Shell,,,cz,Česko,344 01,black,"543, Masarykova, Domažlice, okres Domažlice, Plzeňský kraj, 344 01, Česko",12.95988,Domažlice,,
,49.39582,0.0,"Bary, s.r.o.",,,cz,Česko,679 02,black,"366, Osvobození, Ráječko, okres Blansko, Jihomoravský kraj, 679 02, Česko",16.64375,Ráječko,,
,48.99248,0.0,MOL,,České Budějovice,cz,Česko,370 21,black,"Strakonická, České Budějovice 3, České Budějovice, okres České Budějovice, 370 21, Česko",14.46969,České Budějovice 3,,
Prešovský kraj,48.83614,0.0,Slovnaft,,,sk,Slovensko,082 03,black,"Janovík, D1, Šarišské Bohdanovce, okres Prešov, Prešovský kraj, 082 03, Slovensko",21.30291,,,
Praha,50.03742,0.0,MOL,,Hlavní město Praha,cz,Česko,141 00,black,"MOL, E 55;E 65, Roztyly, Chodov, Praha, obvod Praha 4, Hlavní město Praha, Praha, 141 00, Česko",14.48948,Praha,,obvod Praha 4
Praha,50.0397,37.6,Šafránka Praha,,Hlavní město Praha,cz,Česko,155 00,#009900,"Šafránka, Jeremiášova, Lužiny, Stodůlky, Praha, obvod Praha 5, Hlavní město Praha, Praha, 155 00, Česko",14.32826,Stodůlky,Dnes,obvod Praha 5
Střední Morava,49.4581,0.0,Mol,,,cz,Česko,750 02,black,"2898/10, Polní, Pod rybníky, Přerov, okres Přerov, Olomoucký kraj, Střední Morava, 750 02, Česko",17.43684,Přerov,,
Bayern,48.78946,0.0,GLOBUS,,,de,Deutschland,94447,black,"Globus, St 2124, Enzkofen, Pankofen, Plattling, Landkreis Deggendorf, Bayern, 94447, Deutschland",12.89845,Enzkofen,,
Severovýchod,49.95601,0.0,Shell,,,cz,Česko,537 05,black,"Shell, 1228, Dašická, V Hliníkách, Chrudim, okres Chrudim, Pardubický kraj, Severovýchod, 537 05, Česko",15.79925,Chrudim,,
,49.17722,0.0,D-Oil,,,cz,Česko,664 41,black,"La Vendetta, D1, Troubsko, Veselka, Troubsko, okres Brno-venkov, Jihomoravský kraj, 664 41, Česko",16.4979,Troubsko,,
Severozápad,50.31665,0.0,Orlen,,,cz,Česko,363 01,black,"Stop Cafe, Jáchymovská, Ostrov nad Ohří, Ostrov, okres Karlovy Vary, Karlovarský kraj, Severozápad, 363 01, Česko",12.94541,Ostrov nad Ohří,,
,48.92214,0.0,Chemis,,,cz,Česko,691 22,black,"Chemis Pasohlávky jih, 52, Pasohlávky, okres Brno-venkov, Jihomoravský kraj, 691 22, Česko",16.55027,Pasohlávky,,
Trenčiansky kraj,48.78036,0.0,SLOVNAFT,,,sk,Slovensko,971 01,black,"Slovnaft, 811/18, Rad L. N. Tolstého, Staré mesto, Prievidza, okres Prievidza, Trenčiansky kraj, Západné Slovensko, 971 01, Slovensko",18.62091,Staré mesto,,
Banskobystrický kraj,48.56874,0.0,Neznáma,,,sk,Slovensko,962 33,black,"Fresh Corner Restaurant, 700, Budča, okres Zvolen, Banskobystrický kraj, Stredné Slovensko, 962 33, Slovensko",19.06087,,,
,49.70837,0.0,F1 GAS,,Plzeň,cz,Česko,321 00,black,"507/173, Klatovská, Litice, Litice u Plzně, Plzeň 6-Litice, Plzeň, okres Plzeň-město, Plzeňský kraj, 321 00, Česko",13.35727,Litice,,Plzeň 6-Litice
Severozápad,50.1715,0.0,RoBiN OIL,,,cz,Česko,351 34,black,"105, Vojtanov, okres Cheb, Karlovarský kraj, Severozápad, 351 34, Česko",12.31458,,,
,49.58297,35.9,ecco,,,cz,Česko,334 01,#009900,"U Stadionu, Přeštice, okres Plzeň-jih, Plzeňský kraj, 334 01, Česko",13.32739,Přeštice,Včera,
województwo opolskie,50.32026,0.0,Moya,,,pl,Polska,48-340,black,"Orlen, Grunwaldzka, Osiedle Koszyka, Głuchołazy, gmina Głuchołazy, powiat nyski, województwo opolskie, 48-340, Polska",17.3873,,,
Bratislavský kraj,48.16453,0.0,SLOVNAFT,,Bratislava,sk,Slovensko,821 02,black,"Trnavská cesta, Ostredky, Bratislava, okres Bratislava II, Bratislava, Bratislavský kraj, 821 02, Slovensko",17.15233,Bratislava,,okres Bratislava II
Střední Čechy,50.20082,0.0,Zerogas Litava,,,cz,Česko,250 64,black,"397, 5. května, Měšice u Prahy, Měšice, okres Praha-východ, Střední Čechy, 250 64, Česko",14.51148,Měšice u Prahy,,
Severozápad,50.48485,0.0,RoBiN OIL,,,cz,Česko,430 00,black,"RoBiN OIL Chomutov, 13, Písečná, Chomutov I, Chomutov, okres Chomutov, Ústecký kraj, Severozápad, 430 00, Česko",13.43789,Písečná,,
,48.79658,0.0,MERLIN plus,,,cz,Česko,691 56,black,"Bed & Parking Eurobit, 55, Hrušky, okres Břeclav, Jihomoravský kraj, 691 56, Česko",16.96297,Hrušky,,
Severozápad,50.32938,0.0,K Oil křeček,,,cz,Česko,358 01,black,"Kpt. Jaroše, Kraslice, Krásná, Kraslice, okres Sokolov, Karlovarský kraj, Severozápad, 358 01, Česko",12.5055,Kraslice,,
Jihovýchod,49.18762,37.9,EuroOil,,Brno,cz,Česko,603 00,#999900,"EuroOil Brno - výstaviště, Křížkovského, Křížkovského, Pisárky, Brno, okres Brno-město, Jihomoravský kraj, Jihovýchod, 603 00, Česko",16.58735,Pisárky,před 9 dny,
,48.76869,0.0,Zaris,,,cz,Česko,671 24,black,"grill point, 38, Chvalovice, okres Znojmo, Jihomoravský kraj, 671 24, Česko",16.06967,Chvalovice,,
,49.37594,0.0,MOL,,,cz,Česko,391 01,black,"MOL, U E55, Sezimovo Ústí Ⅱ, Sezimovo Ústí, okres Tábor, 391 01, Česko",14.69403,Sezimovo Ústí Ⅱ,,
Moravskoslezsko,49.8595,0.0,MOL,,Ostrava,cz,Česko,712 00,black,"MOL, Ostrava - Bohumínská, Orlovská, Muglinov, Ostrava, okres Ostrava-město, Moravskoslezský kraj, Moravskoslezsko, 712 00, Česko",18.2944,Muglinov,,
Severozápad,50.99309,35.9,Robin OIL,,,cz,Česko,407 80,#009900,"26510, Vilémov u Šluknova, Dolina, Vilémov, okres Děčín, Ústecký kraj, Severozápad, 407 80, Česko",14.3281,Vilémov u Šluknova,před 3 dny,
Moravskoslezsko,49.70919,33.9,Tank Ono,,,cz,Česko,742 13,#009900,"464, Butovice, Studénka, okres Nový Jičín, Moravskoslezský kraj, Moravskoslezsko, 742 13, Česko",18.04195,Butovice,Dnes,
,49.58437,0.0,ORI,,,cz,Česko,,black,"Železná u Smolova, Bělá nad Radbuzou, okres Domažlice, Plzeňský kraj, Česko",12.58051,,,
,45.54015,0.0,OMV,,,si,Slovenija,6000,black,"Počivališče Koper, Istrska cesta, Olmo, Koper / Capodistria (naselje), Koper / Capodistria, Upravna enota Koper / Unità amministrativa Capodistria, 6000, Slovenija",13.72613,Olmo,,
Praha,50.03607,0.0,MOL,,Hlavní město Praha,cz,Česko,141 00,black,"MOL, Türkova, U Nové dálnice, Chodovec, Chodov, Praha, obvod Praha 4, Hlavní město Praha, Praha, 141 00, Česko",14.49267,Praha,,obvod Praha 4
Střední Čechy,49.67063,0.0,DAVO OiL s.r.o.,,,cz,Česko,259 01,black,"DAVO CAR s.r.o., 3, Olbramovice Městečko, Olbramovice u Votic, Veselka, Olbramovice, okres Benešov, Střední Čechy, 259 01, Česko",14.63834,Olbramovice u Votic,,
Severozápad,50.81152,41.5,F1 Gas,,,cz,Česko,403 37,#009900,"Free1 GAS Petrovice, 248, Petrovice u Chabařovic, Petrovice, okres Ústí nad Labem, Ústecký kraj, Severozápad, 403 37, Česko",13.98245,Petrovice u Chabařovic,před 3 dny,
Praha,50.11939,37.9,RoBiN OIL,,Hlavní město Praha,cz,Česko,197 00,#009900,"Robin Oil, Novopacká, Hloubětín, Praha, obvod Praha 9, Hlavní město Praha, Praha, 197 00, Česko",14.55555,Hloubětín,před 4 dny,obvod Praha 9
Severovýchod,50.54418,0.0,KM-PRONA,,,cz,Česko,549 54,black,"KM-Prona, Police nad Metují, Ostašská, Čukotka, Velká Ledhuje, Police nad Metují, okres Náchod, Královéhradecký kraj, Severovýchod, 549 54, Česko",16.23122,Velká Ledhuje,,
Jihozápad,49.78623,36.9,RoBiN OIL,,,cz,Česko,338 05,#009900,"D5, Mýto v Čechách, Mýto, okres Rokycany, Plzeňský kraj, Jihozápad, 338 05, Česko",13.72043,Mýto v Čechách,Dnes,
Severozápad,50.22091,0.0,F1,,,cz,Česko,352 01,black,"Aš, okres Cheb, Karlovarský kraj, Severozápad, 352 01, Česko",12.19079,Aš,,
Střední Morava,49.20371,0.0,EuroBit,,,cz,Česko,765 02,black,"Unicorn, Zlínská, Kvítkovice u Otrokovic, Otrokovice, okres Zlín, Zlínský kraj, Střední Morava, 765 02, Česko",17.56188,Kvítkovice u Otrokovic,,
,49.08197,0.0,Orlen ,,,cz,Česko,380 01,black,"Stop Cafe, Hradecká, Péráček, Dačice, okres Jindřichův Hradec, 380 01, Česko",15.41981,Péráček,,
Střední Čechy,50.14353,0.0,KM-PRONA,,,cz,Česko,439 86,black,"606, Kolešov, okres Rakovník, Ústecký kraj, Střední Čechy, 439 86, Česko",13.49027,Kolešov,,
Střední Čechy,50.08735,36.2,RoBiN OIL,,,cz,Česko,273 51,#009900,"RoBiN OIL Unhošť, Karlovarská, Unhošť, okres Kladno, Střední Čechy, 273 51, Česko",14.12117,Unhošť,Dnes,
,49.74723,36.9,AVIA,,Plzeň,cz,Česko,312 00,#999900,"1162/62, Rokycanská, Lobzy, Plzeň 4, Plzeň, okres Plzeň-město, Plzeňský kraj, 312 00, Česko",13.41944,Lobzy,před 7 dny,Plzeň 4
Severozápad,50.50864,0.0,Shell,,,cz,Česko,431 82,black,"Shell, Komotauer Strauße, Hora Svatého Šebestiána, Nová Ves, Hora Svatého Šebestiána, okres Chomutov, Ústecký kraj, Severozápad, 431 82, Česko",13.25286,Hora Svatého Šebestiána,,
Severovýchod,50.07455,0.0,MOL,,,cz,Česko,534 01,black,"MOL, 1097, Hradecká, Podhráz, Holice v Čechách, Podlesí, Holice, okres Pardubice, Pardubický kraj, Severovýchod, 534 01, Česko",15.98171,Podhráz,,
Střední Čechy,50.2065,39.9,MOL,,,cz,Česko,250 67,#009900,"D8, Klíčany, okres Praha-východ, Střední Čechy, 250 67, Česko",14.43602,Klíčany,před 5 dny,
,48.91252,33.9,TANK ONO,,,cz,Česko,384 42,#009900,"Řasnice, Strážný, okres Prachatice, 384 42, Česko",13.76194,,Dnes,
Střední Čechy,50.22807,33.9,TANK ONO,,,cz,Česko,250 72,#009900,"Tank Ono - ČS Kojetice-Tůmovka, Tůmovka, Předboj, okres Praha-východ, Střední Čechy, 250 72, Česko",14.49399,Předboj,Dnes,
Praha,50.13318,37.9,RoBiN OIL,,Hlavní město Praha,cz,Česko,182 00,#009900,"Smyčka Vozovna Kobylisy, Kobylisy, Praha, obvod Praha 8, Hlavní město Praha, Praha, 182 00, Česko",14.45384,Kobylisy,před 4 dny,obvod Praha 8
Jihovýchod,49.18343,33.9,Tank ONO,,Brno,cz,Česko,627 00,#009900,"1173/1b, Hviezdoslavova, Slatina, Brno, okres Brno-město, Jihomoravský kraj, Jihovýchod, 627 00, Česko",16.6737,Slatina,Dnes,
Střední Morava,49.95992,0.0,Shell,,,cz,Česko,787 01,black,"2846/1c, Jesenická, Dvořákovy sady, Šumperk, okres Šumperk, Olomoucký kraj, Střední Morava, 787 01, Česko",16.97584,Šumperk,,
Střední Morava,49.40327,0.0,ČS Kelčice,,,cz,Česko,798 08,black,"140, Kelčice, Vranovice-Kelčice, okres Prostějov, Olomoucký kraj, Střední Morava, 798 08, Česko",17.10617,,,
Košický kraj,48.941,0.0,Slovnaft,,,sk,Slovensko,052 01,black,"2248/32, Markušovská cesta, Sídlisko Východ, Spišská Nová Ves, okres Spišská Nová Ves, Košický kraj, Východné Slovensko, 052 01, Slovensko",20.57894,,,
Trenčiansky kraj,48.62711,0.0,Shell,,,sk,Slovensko,958 01,black,"Shell, Nitrianska, Centrum-Baťovany, Partizánske, okres Partizánske, Trenčiansky kraj, Západné Slovensko, 958 01, Slovensko",18.36265,Centrum-Baťovany,,
Severovýchod,49.79019,0.0,Eurobit,,,cz,Česko,539 52,black,"Eurobit, 5. května, Trhová Kamenice, okres Chrudim, Pardubický kraj, Severovýchod, 539 52, Česko",15.81296,Trhová Kamenice,,
Tirol,47.47972,0.0,AGIP,,,at,Österreich,6391,black,"4, Spielbergstraße, Friedenau, Fieberbrunn, Bezirk Kitzbühel, Tirol, 6391, Österreich",12.53867,,,
Severozápad,50.6836,33.9,TANK ONO,,Ústí nad Labem,cz,Česko,403 40,#009900,"Božtěšická, Skorotice, Skorotice u Ústí nad Labem, Ústí nad Labem, okres Ústí nad Labem, Ústecký kraj, Severozápad, 403 40, Česko",14.01618,Skorotice,Dnes,
Severovýchod,50.22327,0.0,KM-PRONA,,,cz,Česko,504 01,black,"111, Zábědov, Nový Bydžov, okres Hradec Králové, Královéhradecký kraj, Severovýchod, 504 01, Česko",15.48051,Zábědov,,
Severozápad,50.40946,0.0,OMV,,,cz,Česko,362 62,black,"199, Boží Dar, okres Karlovy Vary, Karlovarský kraj, Severozápad, 362 62, Česko",12.92827,,,
Moravskoslezsko,49.69272,33.9,TANK ONO,,,cz,Česko,742 51,#009900,"K Letišti, Mošnov, okres Nový Jičín, Moravskoslezský kraj, Moravskoslezsko, 742 51, Česko",18.12716,Mošnov,Dnes,
Košický kraj,48.67777,0.0,Slovnaft,,Košice,sk,Slovensko,040 17,black,"Fresh Corner, 1208, Barca, okres Košice IV, Košice, Košický kraj, Východné Slovensko, 040 17, Slovensko",21.26878,Barca,,okres Košice IV
Trenčiansky kraj,48.87607,0.0,SLOVNAFT,,Trenčín,sk,Slovensko,911 04,black,"Slovnaft, 1880, Belá, Trenčianske Biskupice, Trenčín, okres Trenčín, Trenčiansky kraj, Západné Slovensko, 911 04, Slovensko",18.02506,,,Trenčianske Biskupice
Bratislavský kraj,48.21698,0.0,Slovnaft,,Bratislava,sk,Slovensko,831 06,black,"Slovnaft, Púchovská, Komisárky, Centrálna Rača, Bratislava, okres Bratislava III, Bratislava, Bratislavský kraj, 831 06, Slovensko",17.16993,Centrálna Rača,,okres Bratislava III
Střední Čechy,49.88847,0.0,KM-PRONA,,,cz,Česko,285 04,black,"244, Kolínská, Uhlířské Janovice, okres Kutná Hora, Střední Čechy, 285 04, Česko",15.06886,Uhlířské Janovice,,
województwo dolnośląskie,50.90905,0.0,Horex,,,pl,Polska,59-920,black,"Pocztowa, Bogatynia, gmina Bogatynia, powiat zgorzelecki, województwo dolnośląskie, 59-920, Polska",14.96707,,,
,49.34478,0.0,F1,,,cz,Česko,345 32,black,"Free1 GAS Folmava, 26, Horní Folmava, Dolní Folmava, Česká Kubice, okres Domažlice, Plzeňský kraj, 345 32, Česko",12.85111,,,
Trenčiansky kraj,48.78569,0.0,Slovnaft,,,sk,Slovensko,971 01,black,"Slovnaft, 185/17, Nedožerská cesta, Necpaly, Prievidza, okres Prievidza, Trenčiansky kraj, Západné Slovensko, 971 01, Slovensko",18.62853,Necpaly,,
,49.86267,0.0,EuroOil,,,cz,Česko,348 15,black,"21;198;201;230, Planá u Mariánských Lázní, Planá, okres Tachov, Plzeňský kraj, 348 15, Česko",12.73708,Planá u Mariánských Lázní,,
Praha,50.07852,39.9,Medos,,Hlavní město Praha,cz,Česko,100 42,#999900,"Medos Agro, Vinohradská, Žižkov, Praha, obvod Praha 3, Hlavní město Praha, Praha, 100 42, Česko",14.46969,Žižkov,před 7 dny,obvod Praha 3
województwo śląskie,49.76468,0.0,MOL,,,pl,Polska,43-400,black,"MOL, 45, Katowicka, Pastwiska, Cieszyn, powiat cieszyński, województwo śląskie, 43-400, Polska",18.63719,,,
Moravskoslezsko,49.79002,0.0,Globus,,,cz,Česko,736 01,black,"Globus, U Skleníků, Zbytky, Prostřední Suchá, Havířov, okres Karviná, Moravskoslezský kraj, Moravskoslezsko, 736 01, Česko",18.44128,Prostřední Suchá,,
,49.72874,0.0,Makro,,Plzeň,cz,Česko,318 00,black,"Makro, Obchodní, Průmyslová zóna Borská pole, Skvrňany, Plzeň 3, Plzeň, okres Plzeň-město, Plzeňský kraj, 318 00, Česko",13.32212,Skvrňany,,Plzeň 3
Střední Čechy,50.16145,35.9,RoBiN OIL,,,cz,Česko,272 01,#009900,"950, Na kopci, Kladno, okres Kladno, Střední Čechy, 272 01, Česko",14.11178,Kladno,Dnes,
Střední Morava,49.32008,37.9,EUROOIL,,,cz,Česko,752 01,#009900,"EuroOil, D1, Stříbrnice nad Hanou, Stříbrnice, okres Přerov, Olomoucký kraj, Střední Morava, 752 01, Česko",17.25949,Stříbrnice nad Hanou,před 5 dny,
województwo opolskie,50.05083,0.0,soukromnik,,,pl,Polska,48-140,black,"3, Marii Skłodowskiej-Curie, Branice, gmina Branice, powiat głubczycki, województwo opolskie, 48-140, Polska",17.79255,,,Branice
Severozápad,50.65435,0.0,Prim,,Ústí nad Labem,cz,Česko,400 01,black,"Prim Ústí nad Labem, Žižkova, Ústí nad Labem-u západního nádraží, Ústí nad Labem, okres Ústí nad Labem, Ústecký kraj, Severozápad, 400 01, Česko",14.02891,Ústí nad Labem,,
Normandie,49.33458,0.0,Intermarche,,,fr,France,14990,black,"Voie du Débarquement, Le Grand Parc, Bernières-sur-Mer, Caen, Calvados, Normandie, France métropolitaine, 14990, France",-0.41931,,,
Jihozápad,48.73554,0.0,RoBiN Oil,,,cz,Česko,382 41,black,"Senza Area, Omlenická, Kaplice, okres Český Krumlov, Jihočeský kraj, Jihozápad, 382 41, Česko",14.4833,Kaplice,,
Moravskoslezsko,49.90901,38.0,TRANSEUROPE,,,cz,Česko,735 51,#009900,"Transeurope, Ostravská, Starý Bohumín, Bohumín, okres Karviná, Moravskoslezský kraj, Moravskoslezsko, 735 51, Česko",18.33711,Starý Bohumín,před 3 dny,
Střední Čechy,49.91063,0.0,KM-PRONA,,,cz,Česko,251 68,black,"400, Pražská, Olešovice, Štiřín, Struhařov, Kamenice, okres Praha-východ, Střední Čechy, 251 68, Česko",14.58514,Štiřín,,
Jihovýchod,48.82926,36.9,KM - PRONA,,,cz,Česko,691 45,#009900,"922/70, Bratislavská, Podivín, okres Břeclav, Jihomoravský kraj, Jihovýchod, 691 45, Česko",16.85843,Podivín,před 6 dny,
Střední Čechy,50.14008,0.0,ŠINDELÁŘ,,,cz,Česko,252 62,black,"682, Suchdolská, Horoměřice, okres Praha-západ, Střední Čechy, 252 62, Česko",14.34786,Horoměřice,,
Severovýchod,50.58774,36.9,RoBiN OIL,,,cz,Česko,511 01,#009900,"182, Palackého, Konělupy, Turnov, okres Semily, Liberecký kraj, Severovýchod, 511 01, Česko",15.14789,Turnov,Dnes,
Praha,50.07074,33.9,Tank ONO,,Hlavní město Praha,cz,Česko,102 03,#009900,"Černokostelecká, Štěrboholy, Praha, obvod Praha 10, Hlavní město Praha, Praha, 102 03, Česko",14.54123,Štěrboholy,před 4 dny,obvod Praha 10
Jihovýchod,49.71334,0.0,Stanislava Adamová,,,cz,Česko,583 01,black,"1712, Sokolohradská, Chotěboř, okres Havlíčkův Brod, Kraj Vysočina, Jihovýchod, 583 01, Česko",15.68081,Chotěboř,,
,49.65952,0.0,F1,,,cz,Česko,348 07,black,"605, Rozvadov, okres Tachov, Plzeňský kraj, 348 07, Česko",12.53354,Rozvadov,,
Střední Morava,49.21522,33.9,AVIA,,,cz,Česko,763 11,#009900,"Avia Lípa, 4. května, Lípa nad Dřevnicí, Lípa, okres Zlín, Zlínský kraj, Střední Morava, 763 11, Česko",17.76042,Lípa nad Dřevnicí,Dnes,
Severozápad,50.48967,0.0,MOL,,,cz,Česko,434 01,black,"1241/1, Velebudická, Most II, Most, okres Most, Ústecký kraj, Severozápad, 434 01, Česko",13.6534,Most II,,
Severozápad,50.42565,33.9,TANK ONO,,,cz,Česko,413 01,#009900,"Ono - Roudnice nad Labem, Hornická, Roudnice nad Labem, Podlusky, Roudnice nad Labem, okres Litoměřice, Ústecký kraj, Severozápad, 413 01, Česko",14.23923,Roudnice nad Labem,Dnes,
Severovýchod,50.43644,0.0,M-SILNICE,,,cz,Česko,506 42,black,"M-Silnice, Šibeňák, Valdické Předměstí, Jičín, okres Jičín, Královéhradecký kraj, Severovýchod, 506 42, Česko",15.37025,Valdické Předměstí,,
Střední Morava,49.21258,0.0,TANK ONO,,,cz,Česko,763 12,black,"49, Zádveřice, Zádveřice-Raková, okres Zlín, Zlínský kraj, Střední Morava, 763 12, Česko",17.80921,Zádveřice,,
Střední Morava,49.71639,0.0,Shell,,,cz,Česko,784 01,black,"Shell, 449, Novosady, Červenka, okres Olomouc, Olomoucký kraj, Střední Morava, 784 01, Česko",17.0768,Červenka,,
Jihozápad,48.82092,0.0,Benzina,,,cz,Česko,382 32,black,"Stop Cafe, 3, Velešín, okres Český Krumlov, Jihočeský kraj, Jihozápad, 382 32, Česko",14.4588,Velešín,,
,49.74757,0.0,Shell,,Plzeň,cz,Česko,301 00,black,"2729/41, Přemyslova, Jikalka, Plzeň, Plzeň 3, Plzeň, okres Plzeň-město, Plzeňský kraj, 301 00, Česko",13.36491,Plzeň,,Plzeň 3
,49.15421,0.0,Neznámá,,,cz,Česko,377 01,black,"Nádražní, Jindřichův Hradec II, Jindřichův Hradec, Dolní Skrýchov, Jindřichův Hradec, okres Jindřichův Hradec, 377 01, Česko",15.0024,Jindřichův Hradec II,,
Střední Morava,49.48178,0.0,VENA-TRADE,,,cz,Česko,798 48,black,"163, Prostějovská, Protivanov, okres Prostějov, Olomoucký kraj, Střední Morava, 798 48, Česko",16.83936,Protivanov,,
Severozápad,50.38428,0.0,Majority Petrol,,,cz,Česko,440 01,black,"470, Dobroměřice, okres Louny, Ústecký kraj, Severozápad, 440 01, Česko",13.78714,,,
Střední Morava,49.2124,0.0,ALITRON,,,cz,Česko,763 11,black,"Výpusta, Želechovice nad Dřevnicí, okres Zlín, Zlínský kraj, Střední Morava, 763 11, Česko",17.74148,Želechovice nad Dřevnicí,,
Prešovský kraj,48.83776,0.0,Slovnaft,,,sk,Slovensko,082 03,black,"Janovík, D1, Bretejovce, okres Prešov, Prešovský kraj, 082 03, Slovensko",21.30277,,,
,49.02264,0.0,LURA,,,cz,Česko,378 33,black,"Z-Box, Švermova, Ovčárna, Nová Bystřice, Albeř, Nová Bystřice, okres Jindřichův Hradec, 378 33, Česko",15.10621,Nová Bystřice,,
Region Hovedstaden,55.09752,0.0,Neznáma,,,dk,Danmark,3700,black,"Zahrtmannsvej, Rønne, Bornholms Regionskommune, Region Hovedstaden, 3700, Danmark",14.71221,,,
,48.98187,0.0,RoBiN OIL,,České Budějovice,cz,Česko,370 05,black,"M. Horákové, Sídliště Máj, České Budějovice 2, České Budějovice, okres České Budějovice, 370 05, Česko",14.44151,České Budějovice 2,,
Severovýchod,49.7781,0.0,AGROSERVIS,,,cz,Česko,539 43,black,"3544, Krouna, okres Chrudim, Pardubický kraj, Severovýchod, 539 43, Česko",16.0329,Krouna,,
,49.01063,0.0,MOL,,,cz,Česko,691 63,black,"598, Velké Němčice, okres Břeclav, Jihomoravský kraj, 691 63, Česko",16.6869,,,
Střední Morava,49.05003,0.0,EuroOil,,,cz,Česko,686 68,black,"ČS EuroOil, 50, Kunovice u Uherského Hradiště, Kunovice, okres Uherské Hradiště, Zlínský kraj, Střední Morava, 686 68, Česko",17.46526,Kunovice u Uherského Hradiště,,
Severozápad,50.21782,0.0,F1 (Top Tank),,,cz,Česko,352 01,black,"Selbská, Aš, okres Cheb, Karlovarský kraj, Severozápad, 352 01, Česko",12.17656,Aš,,
Jihovýchod,49.15462,0.0,Tesco,,Brno,cz,Česko,619 00,black,"Tesco Vídeňská, Vídeňská, Dolní Heršpice, Brno, okres Brno-město, Jihomoravský kraj, Jihovýchod, 619 00, Česko",16.59982,Dolní Heršpice,,
Severozápad,50.54553,0.0,MOL,,,cz,Česko,418 01,black,"380, Spojovací, Újezdské Předměstí, Bílina, okres Teplice, Ústecký kraj, Severozápad, 418 01, Česko",13.7717,Újezdské Předměstí,,
Bratislavský kraj,48.21354,0.0,Slovnaft,,,sk,Slovensko,903 01,black,"1234, Senec, okres Senec, Bratislavský kraj, 903 01, Slovensko",17.38251,,,
Severovýchod,50.76754,0.0,MOL,,,cz,Česko,473 01,black,"MOL Nový Bor, Lipová, Arnultovice, Arnultovice u Nového Boru, Nový Bor, okres Česká Lípa, Liberecký kraj, Severovýchod, 473 01, Česko",14.54063,Arnultovice,,
Severozápad,50.65168,33.9,TANK ONO,,,cz,Česko,417 31,#009900,"Tank Ono - ČS Teplice, Riegrova, Teplice-Trnovany, Teplice, okres Teplice, Ústecký kraj, Severozápad, 417 31, Česko",13.83387,Teplice-Trnovany,Dnes,
Praha,50.0707,33.9,Tank ONO,,Hlavní město Praha,cz,Česko,102 03,#009900,"Černokostelecká, Štěrboholy, Praha, obvod Praha 10, Hlavní město Praha, Praha, 102 03, Česko",14.54129,Štěrboholy,Dnes,obvod Praha 10
,49.15318,0.0,EuroOil,,,cz,Česko,377 01,black,"EuroOil Jindřichův Hradec, Pražská, Radouňka, Jindřichův Hradec, okres Jindřichův Hradec, 377 01, Česko",14.98882,,,
Střední Čechy,50.0046,0.0,PRIM,,,cz,Česko,252 43,black,"Prim Praha, Čestlice, Obchodní, Čestlice, okres Praha-východ, Střední Čechy, 252 43, Česko",14.57415,Čestlice,,
Střední Morava,49.34798,33.9,Tank ONO ,,,cz,Česko,768 23,#009900,"55, Břest, okres Kroměříž, Zlínský kraj, Střední Morava, 768 23, Česko",17.44691,Břest,Předevčírem,
,44.46209,0.0,"INA Industija nafte, d.d.",,,hr,Hrvatska,,black,"Odmorište Zir, A1, Mogarić, Grad Gospić, Općina Lovinac, Ličko-senjska županija, Hrvatska",15.60312,,,Mogarić
Severozápad,50.08618,33.9,TANK ONO,,,cz,Česko,350 02,#009900,"ONO, 23, Obilná, Odrava, okres Cheb, Karlovarský kraj, Severozápad, 350 02, Česko",12.45936,,Dnes,
Střední Čechy,50.03532,0.0,MOL,,,cz,Česko,280 00,black,"MOL, Kolín - Ke Hřbitovu, Sadová, Kolín V, Kolín, okres Kolín, Střední Čechy, 280 00, Česko",15.20793,Kolín V,,
Severozápad,50.78464,0.0,TTB s.r.o.,,,cz,Česko,403 36,black,"Tisá, okres Ústí nad Labem, Ústecký kraj, Severozápad, 403 36, Česko",14.01838,Tisá,,
Severovýchod,50.13071,36.9,KM-PRONA,,,cz,Česko,533 22,#999900,"177, Býšť, okres Pardubice, Pardubický kraj, Severovýchod, 533 22, Česko",15.91449,,před 9 dny,
Severovýchod,50.71646,0.0,Vendys Petrol,,,cz,Česko,470 01,black,"Vendys Petrol, ev.12, Častolovice, Česká Lípa, okres Česká Lípa, Liberecký kraj, Severovýchod, 470 01, Česko",14.54495,,,
,49.54558,0.0,MOL,,,cz,Česko,345 61,black,"27, Vránov, Staňkov, okres Domažlice, Plzeňský kraj, 345 61, Česko",13.04609,,,
Prešovský kraj,48.98418,0.0,OMV,,,sk,Slovensko,069 01,black,"2712/13, Stakčínska, Snina, okres Snina, Prešovský kraj, 069 01, Slovensko",22.16312,,,
,49.13475,33.9,TANK ONO,,,cz,Česko,377 01,#009900,"Tank Ono - ČS Jindřichův Hradec, 34, Jiráskovo předměstí, Jindřichův Hradec, okres Jindřichův Hradec, 377 01, Česko",15.01245,Jindřichův Hradec,Dnes,
Jihovýchod,49.18347,0.0,MOL,,Brno,cz,Česko,603 73,black,"MOL, Brno - Pisárky Bauerova, Bauerova, Pisárky, Brno, okres Brno-město, Jihomoravský kraj, Jihovýchod, 603 73, Česko",16.57964,Pisárky,,
Severozápad,50.38716,0.0,RoBiN OIL,,,cz,Česko,431 43,black,"Robin Oil, 607, Vysočany u Chomutova, Hrušovany, okres Chomutov, Ústecký kraj, Severozápad, 431 43, Česko",13.54151,,,
województwo dolnośląskie,50.43393,0.0,EUROBIT,,,pl,Polska,57-350,black,"Circle K, 131A, Słone, Kudowa-Zdrój, powiat kłodzki, województwo dolnośląskie, 57-350, Polska",16.20693,Słone,,
Praha,50.12823,0.0,Orlen,,Hlavní město Praha,cz,Česko,199 06,black,"Orlen, Kbelská, U Střížkova, Letňany, Praha, obvod Praha 9, Hlavní město Praha, Praha, 199 06, Česko",14.50527,Letňany,,obvod Praha 9
Střední Morava,49.13473,33.9,TANK ONO,,,cz,Česko,763 64,#009900,"Tank Ono - ČS Spytihněv, 55, Spytihněv, okres Zlín, Zlínský kraj, Střední Morava, 763 64, Česko",17.4879,Spytihněv,Dnes,
,49.25725,0.0,OMV,,,cz,Česko,386 01,black,"OMV, Dopravní, Strakonice II, Nové Strakonice, Strakonice, okres Strakonice, 386 01, Česko",13.91382,Strakonice II,,
Severovýchod,49.83355,0.0,ČS Janov,,,cz,Česko,569 55,black,"Oil Team Janov, 345, Janov, okres Svitavy, Pardubický kraj, Severovýchod, 569 55, Česko",16.38872,,,
Severozápad,50.87918,0.0,EuroOil,,,cz,Česko,407 17,black,"EuroOil Hřensko, Hraniční přechod, 62, Hřensko, okres Děčín, Ústecký kraj, Severozápad, 407 17, Česko",14.23795,Hřensko,,
Střední Čechy,49.90289,36.9,A+V Rauferovi,,,cz,Česko,267 27,#009900,"546, Nádražní, Liteň, Leč, Liteň, okres Beroun, Střední Čechy, 267 27, Česko",14.15377,Liteň,Předevčírem,
Moravskoslezsko,49.90107,0.0,EuroOil,,Ostrava,cz,Česko,711 00,black,"D1, Koblov, Ostrava, okres Ostrava-město, Moravskoslezský kraj, Moravskoslezsko, 711 00, Česko",18.30657,Koblov,,
Jihovýchod,49.35046,0.0,Zdar,,,cz,Česko,594 01,black,"ZDAR, K Novému nádraží, Velké Meziříčí, okres Žďár nad Sázavou, Kraj Vysočina, Jihovýchod, 594 01, Česko",16.02038,Velké Meziříčí,,
Střední Čechy,50.06852,0.0,MOL,,,cz,Česko,282 01,black,"1374, Palackého, Český Brod, okres Kolín, Střední Čechy, 282 01, Česko",14.84968,Český Brod,,
Severovýchod,50.32651,36.9,RoBiN OIL,,,cz,Česko,507 32,#009900,"662, Husova, Kopidlno, okres Jičín, Královéhradecký kraj, Severovýchod, 507 32, Česko",15.26378,Kopidlno,před 5 dny,
Praha,50.11233,37.5,RoBiN OIL,,Hlavní město Praha,cz,Česko,160 00,#009900,"1147, Jednořadá, Nový Bubeneč, Bubeneč, Praha, obvod Praha 6, Hlavní město Praha, Praha, 160 00, Česko",14.39465,Bubeneč,Dnes,obvod Praha 6
,49.27068,37.9,D-Oil,,Brno,cz,Česko,664 31,#009900,"D-Oil, 43, Ivanovice, Brno, okres Brno-město, Jihomoravský kraj, 664 31, Česko",16.57586,,Včera,
Severovýchod,50.76847,0.0,KM-PRONA,,,cz,Česko,473 01,black,"190, Okrouhlá, okres Česká Lípa, Liberecký kraj, Severovýchod, 473 01, Česko",14.53673,,,
Severozápad,50.48175,0.0,RoBiN OIL,,,cz,Česko,434 01,black,"RoBiN OIL Čepirohy, Čepirožská, Čepirohy, Most, okres Most, Ústecký kraj, Severozápad, 434 01, Česko",13.62026,Čepirohy,,
Střední Čechy,49.93264,0.0,MOL,,,cz,Česko,267 18,black,"MOL, 324, 116, Budňany, Karlštejn, okres Beroun, Střední Čechy, 267 18, Česko",14.18688,Budňany,,
Tirol,47.26327,0.0,Neznámá,,Innsbruck,at,Österreich,6020,black,"BP, 67, Hermann-Gmeiner-Straße, Amras, Innsbruck, Tirol, 6020, Österreich",11.45321,Amras,,Amras
Bratislavský kraj,48.18293,0.0,LUKOIL,,Bratislava,sk,Slovensko,841 01,black,"M. Schneidra Trnavského, Záluhy, Bratislava, okres Bratislava IV, Bratislava, Bratislavský kraj, 841 01, Slovensko",17.03968,Bratislava,,okres Bratislava IV
Jihovýchod,49.43676,0.0,EuroOil,,,cz,Česko,393 01,black,"EuroOil Pelhřimov, Pražská, Pelhřimov, Starý Pelhřimov, Pelhřimov, okres Pelhřimov, Kraj Vysočina, Jihovýchod, 393 01, Česko",15.21591,Pelhřimov,,
Severozápad,50.49675,0.0,F1,,,cz,Česko,431 91,black,"Bärensteinská, Vejprty, okres Chomutov, Ústecký kraj, Severozápad, 431 91, Česko",13.02975,Vejprty,,
Severozápad,50.72116,33.9,Tank ONO,,,cz,Česko,407 03,#009900,"Tank Ono, 62, Dobkovice, okres Děčín, Ústecký kraj, Severozápad, 407 03, Česko",14.18883,Dobkovice,Dnes,
Jihovýchod,49.19082,0.0,HUNSGAS,,,cz,Česko,674 01,black,"360, Střítež u Třebíče, Střítež, okres Třebíč, Kraj Vysočina, Jihovýchod, 674 01, Česko",15.88954,Střítež u Třebíče,,
Bratislavský kraj,48.16471,0.0,Slovnaft,,Bratislava,sk,Slovensko,832 32,black,"Bajkalská, Ľudová štvrť, Pasienky, Bratislava, okres Bratislava III, Bratislava, Bratislavský kraj, 832 32, Slovensko",17.1382,Bratislava,,okres Bratislava III
Praha,50.05719,37.9,ROBIN OIL,,Hlavní město Praha,cz,Česko,106 00,#009900,"RoBiN OIL Praha - Švehlova, Švehlova, Záběhlice, Praha, obvod Praha 10, Hlavní město Praha, Praha, 106 00, Česko",14.51213,Záběhlice,před 4 dny,obvod Praha 10
Severozápad,50.77017,0.0,PRIM,,,cz,Česko,405 02,black,"Albert, 1896/2, Uhelná, Letná, Podmokly, Děčín, okres Děčín, Ústecký kraj, Severozápad, 405 02, Česko",14.19715,Letná,,
Praha,50.01652,0.0,OMV,,Hlavní město Praha,cz,Česko,143 00,black,"OMV, Modřanská, Modřany, Praha, obvod Praha 4, Hlavní město Praha, Praha, 143 00, Česko",14.40273,Modřany,,obvod Praha 4
Severozápad,50.42944,0.0,F1,,,cz,Česko,362 35,black,"180, Potůčky, okres Karlovy Vary, Karlovarský kraj, Severozápad, 362 35, Česko",12.73588,,,
,45.16317,0.0,Unknown,,Slavonski Brod,hr,Hrvatska,35000,black,"Ulica Petra Svačića, Naselje Slavonija I, Mjesni odbor Plavo polje, Slavonski Brod, Grad Slavonski Brod, Brodsko-posavska županija, 35000, Hrvatska",18.00548,,,
Střední Morava,49.56025,0.0,AVIA,,,cz,Česko,783 72,black,"Avia Olomouc, Olympia, 90, Olomoucká, Velký Týnec, Vsisko, Velký Týnec, okres Olomouc, Olomoucký kraj, Střední Morava, 783 72, Česko",17.30946,Velký Týnec,,
Praha,50.06395,0.0,KM-PRONA,,Hlavní město Praha,cz,Česko,102 00,black,"1477/12, Průmyslová, Hostivař, Praha, obvod Praha 10, Hlavní město Praha, Praha, 102 00, Česko",14.53785,Hostivař,,obvod Praha 10
województwo śląskie,49.84671,0.0,Tesco,,Bielsko-Biała,pl,Polska,43-346,black,"Kornowa Kępa, Komorowice Śląskie, Bielsko-Biała, województwo śląskie, 43-346, Polska",19.0346,Komorowice Śląskie,,
Severozápad,50.42373,0.0,TANK ONO,,,cz,Česko,431 41,black,"607, Všehrdy, okres Chomutov, Ústecký kraj, Severozápad, 431 41, Česko",13.47107,Všehrdy,,
Střední Čechy,49.65087,0.0,Euro Tank,,,cz,Česko,262 31,black,"Euro Tank, D4, Milín, Buk, Milín, okres Příbram, Střední Čechy, 262 31, Česko",14.05345,Milín,,
Střední Čechy,50.13796,37.9,RoBiN OIL,,,cz,Česko,252 68,#009900,"RoBiN OIL Středokluky, 0078, Středokluky, okres Praha-západ, Střední Čechy, 252 68, Česko",14.24393,Středokluky,Dnes,
Střední Čechy,49.69891,0.0,KM-PRONA,,,cz,Česko,258 01,black,"KM-Prona, Vlašim, Průmyslová, Vlašim, okres Benešov, Střední Čechy, 258 01, Česko",14.90555,Vlašim,,
Oberösterreich,48.34795,0.0,OMV,,,at,Österreich,4111,black,"OMV, 3, Mühlkreisbahnstraße, Schwarzgrub, Walding, Bezirk Urfahr-Umgebung, Oberösterreich, 4111, Österreich",14.15386,,,
Severozápad,51.0334,0.0,F1,,,cz,Česko,407 77,black,"Budišínská, Rožany, Šluknov, okres Děčín, Ústecký kraj, Severozápad, 407 77, Česko",14.44803,,,
,49.34372,0.0,RoBiN OIL,,,cz,Česko,398 31,black,"RoBiN OIL Drhovle, 4, Drhovle, Drhovle Zámek, Drhovle, okres Písek, 398 31, Česko",14.04744,Drhovle,,
Moravskoslezsko,49.67193,0.0,Eurobit,,,cz,Česko,739 51,black,"307, Dobrá, okres Frýdek-Místek, Moravskoslezský kraj, Moravskoslezsko, 739 51, Česko",18.42644,,,
Severozápad,50.04824,0.0,Mavex,,,cz,Česko,121 92,black,"Mavex Cheb, Svatý Kříž, Háje u Chebu, Cheb, okres Cheb, Karlovarský kraj, Severozápad, 121 92, Česko",12.35403,Háje u Chebu,,
Jihovýchod,49.00316,34.9,Šebesta s.r.o.,,,cz,Česko,697 01,#999900,"Wiky hračky papír, 395/97, Svatoborská, Kyjov, okres Hodonín, Jihomoravský kraj, Jihovýchod, 697 01, Česko",17.11422,Kyjov,před 7 dny,
Střední Čechy,50.20209,37.2,RoBiN OIL,,,cz,Česko,250 01,#009900,"RoBiN OIL Stará Boleslav, Boleslavská, Stará Boleslav, Brandýs nad Labem-Stará Boleslav, okres Praha-východ, Střední Čechy, 250 01, Česko",14.68702,Stará Boleslav,před 4 dny,
Košický kraj,48.72618,0.0,Slovnaft,,Košice,sk,Slovensko,040 22,black,"Herlianska, Košice - mestská časť Košická Nová Ves, okres Košice III, Košice, Košický kraj, Východné Slovensko, 040 22, Slovensko",21.293,Košice - mestská časť Košická Nová Ves,,okres Košice III
Střední Čechy,49.69421,0.0,EuroOil,,,cz,Česko,261 01,black,"94, Dubenec, okres Příbram, Střední Čechy, 261 01, Česko",14.07794,,,
,49.40842,0.0,Benzina,,,cz,Česko,339 01,black,"918, Plzeňská, Klatovy II, Klatovy, okres Klatovy, Plzeňský kraj, 339 01, Česko",13.29354,Klatovy II,,
Moravskoslezsko,49.85504,0.0,EuroOil,,,cz,Česko,735 06,black,"EuroOil Karviná, Ostravská, Fryštát, Karviná-město, Karviná, okres Karviná, Moravskoslezský kraj, Moravskoslezsko, 735 06, Česko",18.53513,Fryštát,,
,49.04353,36.2,Robin oil,,,cz,Česko,373 46,#999900,"20, Pištín, Češnovice, Pištín, okres České Budějovice, 373 46, Česko",14.33468,Pištín,před 7 dny,
Severozápad,50.93089,35.9,RoBiN OIL,,,cz,Česko,407 47,#009900,"RoBiN OIL Rumburk, Pražská, Horní Jindřichov, Rumburk, okres Děčín, Ústecký kraj, Severozápad, 407 47, Česko",14.55822,Horní Jindřichov,Včera,
Bayern,49.52446,0.0,OMV,,,de,Deutschland,90562,black,"114, Hauptstraße, Heroldsberg, Landkreis Erlangen-Höchstadt, Bayern, 90562, Deutschland",11.15074,,,
województwo śląskie,49.85906,0.0,PTHU Bielaszka,,,pl,Polska,43-410,black,"Bielaszka, 32, Jagiellońska, Kończyce Małe, gmina Zebrzydowice, powiat cieszyński, województwo śląskie, 43-410, Polska",18.62848,,,
,44.46224,0.0,"INA industija nafte, d.d.",,,hr,Hrvatska,,black,"Odmorište Zir, A1, Mogarić, Grad Gospić, Općina Lovinac, Ličko-senjska županija, Hrvatska",15.60135,,,Mogarić
Severozápad,50.71845,0.0,fill,,,cz,Česko,417 81,black,"Moldava, okres Teplice, Ústecký kraj, Severozápad, 417 81, Česko",13.68635,Moldava,,
województwo dolnośląskie,50.87958,0.0,ARAL,,,pl,Polska,59-921,black,"Aleja Trzech Państw, Kopaczów, gmina Bogatynia, powiat zgorzelecki, województwo dolnośląskie, 59-921, Polska",14.8241,,,
Praha,50.02567,0.0,RoBiN OIL,,Hlavní město Praha,cz,Česko,159 00,black,"53, Strakonická, Malá Chuchle, Praha, obvod Praha 5, Hlavní město Praha, Praha, 159 00, Česko",14.39462,Malá Chuchle,,obvod Praha 5
,49.31854,36.9,RoBiN OIL,,,cz,Česko,341 01,#009900,"1057, Strakonická, Horažďovice, okres Klatovy, Plzeňský kraj, 341 01, Česko",13.71376,Horažďovice,Včera,
Střední Morava,49.46356,0.0,MOL,,,cz,Česko,750 02,black,"536, Lipnická, Výstaviště, Přerov, okres Přerov, Olomoucký kraj, Střední Morava, 750 02, Česko",17.44253,Přerov,,
Střední Čechy,50.12305,38.5,GO tank s.r.o.,,,cz,Česko,252 67,#009900,"GO tank, Ke Kopanině, Kněžívka, Tuchoměřice, okres Praha-západ, Střední Čechy, 252 67, Česko",14.28271,Kněžívka,před 3 dny,
Bratislavský kraj,48.42912,0.0,Neznámá,,,sk,Slovensko,901 01,black,"TAM Autohof, Pezinská, Malacky, okres Malacky, Bratislavský kraj, 901 01, Slovensko",17.03815,,,
,49.16821,0.0,RoBiN OIL,,Brno,cz,Česko,627 00,black,"1176/3, Řípská, Slatina, Brno, okres Brno-město, Jihomoravský kraj, 627 00, Česko",16.68826,Slatina,,
Žilinský kraj,49.09404,0.0,Slovnaft,,,sk,Slovensko,038 61,black,"Slovnaft, 18, Košúty II, Košúty, Martin, okres Martin, Žilinský kraj, Stredné Slovensko, 038 61, Slovensko",18.94271,Košúty II,,
Střední Morava,49.02346,0.0,ČSAD,,,cz,Česko,688 01,black,"ev.781, Uherský Brod, okres Uherské Hradiště, Zlínský kraj, Střední Morava, 688 01, Česko",17.66019,,,
Žilinský kraj,49.39733,0.0,Slovnaft,,Námestovo,sk,Slovensko,029 01,black,"520, Námestovo, okres Námestovo, Žilinský kraj, Stredné Slovensko, 029 01, Slovensko",19.48741,,,
Severovýchod,50.10239,36.9,Fuel,,,cz,Česko,533 22,#009900,"Fuel, 298K, Rokytno, okres Pardubice, Pardubický kraj, Severovýchod, 533 22, Česko",15.8846,Rokytno,Předevčírem,
,49.20891,36.4,ICOM Transport ,,,cz,Česko,674 01,#009900,"ICOM Transport a.s., Průmyslová, Nové Město, Třebíč, okres Třebíč, Kraj Vysočina, 674 01, Česko",15.89905,Nové Město,Dnes,
Střední Čechy,50.5163,0.0,Shell,,,cz,Česko,295 01,black,"369, Černá silnice, Mnichovo Hradiště, okres Mladá Boleslav, Střední Čechy, 295 01, Česko",14.9635,Mnichovo Hradiště,,
Severovýchod,50.37649,0.0,Shell,,,cz,Česko,507 52,black,"35, Ostroměř, okres Jičín, Královéhradecký kraj, Severovýchod, 507 52, Česko",15.53928,Ostroměř,,
Severozápad,50.33278,0.0,RoBiN OIL,,,cz,Česko,439 03,black,"172, Chlumčany, okres Louny, Ústecký kraj, Severozápad, 439 03, Česko",13.84038,,,
Severovýchod,50.30337,36.2,RoBiN OIL,,,cz,Česko,507 32,#009900,"9, Budčeves, okres Jičín, Královéhradecký kraj, Severovýchod, 507 32, Česko",15.25396,Budčeves,před 5 dny,
Jihovýchod,49.00722,0.0,EuroOil,,,cz,Česko,697 01,black,"135/1, Tyršova, Kyjov, okres Hodonín, Jihomoravský kraj, Jihovýchod, 697 01, Česko",17.13084,Kyjov,,
Severovýchod,49.92416,33.9,TANK ONO,,,cz,Česko,565 55,#009900,"35, Voštice, Vysoké Mýto, okres Ústí nad Orlicí, Pardubický kraj, Severovýchod, 565 55, Česko",16.18609,Vysoké Mýto,Dnes,
Severozápad,50.09346,36.5,RoBiN OIL,,,cz,Česko,335 02,#009900,"RoBiN OIL Cheb, 214, Cheb, okres Cheb, Karlovarský kraj, Severozápad, 335 02, Česko",12.3713,Cheb,Dnes,
Banskobystrický kraj,48.74135,0.0,Slovnaft,,Banská Bystrica,sk,Slovensko,974 05,black,"7043, Banská Bystrica, okres Banská Bystrica, Banskobystrický kraj, Stredné Slovensko, 974 05, Slovensko",19.17629,,,
Střední Morava,49.58942,37.5,EuroOil,,Olomouc,cz,Česko,779 00,#999900,"1209/92, Lipenská, Hodolany, Olomouc, okres Olomouc, Olomoucký kraj, Střední Morava, 779 00, Česko",17.29846,Hodolany,před 7 dny,
Severozápad,50.71219,0.0,MOL,,Ústí nad Labem,cz,Česko,403 38,black,"D8, Dělouš, Ústí nad Labem, okres Ústí nad Labem, Ústecký kraj, Severozápad, 403 38, Česko",13.97077,Dělouš,,
Severovýchod,50.15087,0.0,KM-PRONA,,,cz,Česko,503 32,black,"KM-Prona, Opatovice nad Labem, Hradecká, Opatovice nad Labem, Pohřebačka, Opatovice nad Labem, okres Pardubice, Pardubický kraj, Severovýchod, 503 32, Česko",15.79473,Opatovice nad Labem,,
Oberösterreich,48.01085,0.0,Agip,,,at,Österreich,4655,black,"Asamerstraße, Feldham, Vorchdorf, Bezirk Gmunden, Oberösterreich, 4655, Österreich",13.92423,,,
,49.75589,0.0,EuroOil,,Plzeň,cz,Česko,322 00,black,"Z-Box, Chebská, Křimice, Plzeň 5-Křimice, Plzeň, okres Plzeň-město, Plzeňský kraj, 322 00, Česko",13.30915,Křimice,,Plzeň 5-Křimice
