id;lat;lon;brand_name;brand_id;name;city;address;zip;phone;worktime;services;payments;foursquare_id;wikimapia_id;status;error
3967;48.602459;15.186313;AVIA;51;Eigl Tankstellen betriebsGmbH;Zwettl;Franz Eigl-Straße 7;3910;282254242;05:00 - 21:00;;;4ee9bdf2e5faa8713edbcdca;0;OK;
4010;48.760754;14.991026;AVIA;51;A.Weber GmbH;Gmünd;Prof. Krejci Graf-Str. 2;3950;02852/51400-11;05:30 - 21:00;;;4e7c962662e1e879c395628c;;OK;
4098;48.665691;15.63271;OMV;55;Frauenhofen, Wiener Straße 6;Frauenhofen;Wiener Str. 6;3580;298260162;0:00 - 24:00;;;;;OK;
4126;48.5728;16.6394;OMV;55;Hobersdorf, Wiener Straße 91;Hobersdorf;Wiener Str. 91;2193;25736010;0:00 - 24:00;;;;;OK;
4268;48.818626;15.276865;AVIA;51;Waidhofen an der Thaya/Eigl;Waidhofen an der Thaya;Heidenreichsteiner Straße 25;3830;284254180;06:00 - 21:30;;;50017a37e4b000090efede4c;0;OK;
4269;48.943123;15.043652;AVIA;51;Sazma Günter;Litschau;Bahnhofstraße 4;3874;28655003;06:30 - 19:00;;;;0;OK;
4289;48.580769;13.503581;Бензиностанция;20;TURMÖL;Freinberg;Hinding 23 a;4785;+43 7713 20754;05:00 - 23:00;;;;0;OK;
4370;48.602261;13.838922;BP;52;Kollerschlag, Falkensteinstr. 16;Kollerschlag;Falkensteinstrasse 16;4154;437287752848;05:00 - 23:00;;;;;OK;
4371;48.850166;15.096459;BP;52;Heidenreichstein, Klein Pertholz 58;Heidenreichstein;Klein Pertholz 58;3860;43286252127;06:00 - 21:00;;;;;OK;
4473;48.564186;16.576015;Eni;50;Mistelbach;Mistelbach;Mitschastr. 38;2130;4325722389;05:00 - 21:00;;;;;OK;
4522;48.679035;13.907765;BP;52;Ulrichsberg, Dreisesselbergstr. 18;Ulrichsberg;Dreisesselbergstr. 18;4161;4372882228;06:00 - 22:00;;;;;OK;
4661;48.736549;13.819277;BP;52;Schwarzenberg, Schwarzenberg 168;Schwarzenberg;Schwarzenberg 168;4164;;0:00 - 24:00;;;;;OK;
4886;48.638481;15.706599;Бензиностанция;20;TURMÖL Station;Horn;Mold 1 a;3580;+43 2982 8291;5:30-21:00;;;;0;OK;
5016;49.45536;15.59385;OMV;58;Pávov, Dálnice D1 - směr Praha;Pávov;Dalnice D 1 - smer Praha;58601;567211858;0:00 - 24:00;;;;;OK;
5017;49.453911;15.59072;OMV;58;Pávov, Dálnice D1 - 119 km směr Brno;Pávov;D1,  smer Brno;58601;567211863;0:00 - 24:00;;;;;OK;
5023;49.956749;14.06224;OMV;58;Beroun, Nájezd na dálnici D5 1621;Beroun;Nájezd na Dálnici D5 c.1621;26601;311623187;0:00 - 24:00;;;;;OK;
5026;49.95599;14.06332;OMV;58;Beroun, sjezd z dálnice D5;Beroun;Sjezd z dálnice D 5;26601;311625246;0:00 - 24:00;;;;;OK;
5037;49.174061;16.6029;OMV;58;Brno, Dálnice D1, 192 km (Brno-Praha);Brno-Stred;Dálnice D1,192 km kmsmer Brno-Praha;62500;547211776;0:00 - 24:00;;;;;OK;
5047;50.120651;15.08175;OMV;58;Vrbová Lhota, Dálnice D11, 35 km, jih 1;Vrbova Lhota;Lhota Dálnice D 11, 35 km, jih;28911;325613155;0:00 - 24:00;;;;;OK;
5048;50.146744;14.494596;OMV;58;Praha 8, Cínovecká;Praha 8;Cínovecká Ul.;18000;286584508;0:00 - 24:00;;;;;OK;
5068;49.1628;16.66066;OMV;58;Brno Tuřany, Dálnice D1 198,5 km;Brno-Turany;Dalnice D1 - 198,5 Km;62700;545229786;0:00 - 24:00;;;;;OK;
5069;50.053379;14.51913;OMV;58;Praha 10, Švehlova;Praha 10;Svehlova;10200;271750266;06-23;;;;;OK;
5085;50.388931;13.19504;OMV;58;Klášterec nad Ohří, Osvobození 691;Klásterec/Ohrí;Osvobozená 691;43151;474376905;05-23;;;;;OK;
5086;50.632019;13.83556;OMV;58;Teplice Prosetice, E55, směr Cínovec;Teplice-Prosetice;E55 smer Cí E55, smer Cínovec;41501;417577543;0:00 - 24:00;;;;;OK;
5088;50.031021;14.38046;OMV;58;Praha 5, K Barrandovu 1136/6;Praha 5;K Barrandovy 1136/6;15000;251810754;0:00 - 24:00;;;;;OK;
5093;50.093826;14.442215;OMV;58;Praha 8 - Karlín, Rohanské nábřeží;Praha;Karlín Rohanské nábrezí;18600;224813596;0:00 - 24:00;;;4d5ba992775f8cfacd19ace0;0;OK;
5095;50.033642;14.44136;OMV;58;Praha 4, Jižní spojka (směr Praha 9);Praha 4;Jizní spojka;14000;244461993;0:00 - 24:00;;;;;OK;
5103;50.040241;14.46821;OMV;58;Praha 4, Tř. 5. května;Praha 4;Tr. 5. Kvetna;14000;272770193;0:00 - 24:00;;;;;OK;
5114;49.61974;17.293909;OMV;58;Olomouc, Chvalkovická;Olomouc;Chválkovická;77100;585312429;0:00 - 24:00;;;;;OK;
5116;50.480499;14.08425;OMV;58;Siřejovice, sm. Teplice, Dálnice D8, 44. km;Sirejovice;Dalnice D8 - KM 44;41002;420416531570;0:00 - 24:00;;;4e71f43f52b16b249196e01e;;OK;
5122;49.446838;17.114691;OMV;58;Prostějov - Žešov, silnice E 462;Prostejov;Zesovsilnice E 462;79601;601505728;0:00 - 24:00;;;;;OK;
5124;50.121651;15.08232;OMV;58;Poděbrady, Dálnice D11, 35 km, sever;Podebrady;Dalnice D 11, 35 km, sever;29001;325615007;0:00 - 24:00;;;;;OK;
5138;50.086132;12.459424;Бензиностанция;20;ONO ČS Cheb;Cheb;R6 Krizovatka Y;35002;420 727 884 961;0:00 - 24:00;;;4edb790c5c5c96a2ff8858aa;;OK;
5139;49.736519;13.330956;Бензиностанция;20;ONO ČS Plzeň, Domažlická;Plzen;Domazlicka 160;31800;377381470;0:00 - 24:00;;;4e0de12f483bc2b5f47ba583;;OK;
5140;49.714031;13.183183;Бензиностанция;20;ONO ČS Nýřany;Nyrany;D5;33023;420 724 212 312;0:00 - 24:00;;;4db87182ec8e496dbbad6328;;OK;
5141;50.166866;12.664208;Бензиностанция;20;ONO ČS Sokolov;Sokolov;Stara Ovcarna;35601;420 352 627 502;0:00 - 24:00;;;4e05dbc91fc77ada5196661a;;OK;
5142;49.775131;13.36068;Бензиностанция;20;ONO ČS Plzeň, Studentská;Plzen;Studentska 57;32300;420 602 348 506;0:00 - 24:00;;;4c38de0b1e06d13ad094783e;;OK;
5143;50.651684;13.8338;Бензиностанция;20;ONO ČS Teplice;Teplice;Riegrova;41501;420 724 325 656;0:00 - 24:00;;;4e007bdc88776240d3f1d285;;OK;
5161;50.327854;15.636397;Бензиностанция;20;ONO ČS Milovice u Hořic;Milovice U Horic;88;50801;420 602 659 111;0:00 - 24:00;;;4d70dfaa419da35dcebe0bd8;;OK;
5174;49.395073;15.568287;Бензиностанция;20;ONO ČS Jihlava;Jihlava;Zizkova 110;58601;420 602 165 180;0:00 - 24:00;;;4c11600a8559ef3b76b96a53;;OK;
5175;50.694298;13.940347;Бензиностанция;20;ONO ČS Chlumec;Usti Nad Labem;Chlumec 228;40339;420 724 129 789;0:00 - 24:00;;;4e0d3f2962e1d5a30cf5f743;;OK;
5188;49.553741;17.229139;OMV;58;Olomouc, R35 odpočívka Nemilany;Olomouc-Nemilany;Rychlostni Silinice R 35;78302;383323145;0:00 - 24:00;;;;;OK;
5190;50.756329;15.05192;OMV;58;Liberec, Nákladní;Liberec;Nákladní ul.;46007;485113642;0:00 - 24:00;;;;;OK;
5191;50.52449;13.63031;OMV;58;Most, Nová Hraniční 1930;Most-Nová;Hranicní 193;43502;476100971;0:00 - 24:00;;;;;OK;
5192;50.564892;15.92309;OMV;58;Trutnov, Polská;Trutnov;Polská;54102;499814830;0:00 - 24:00;;;;;OK;
5193;49.514519;15.41713;OMV;58;Herálec, odpočívka Mikulášov;Herálec;D1 , Mikulásov;58255;569445621;0:00 - 24:00;;;4b9f3724f964a5203f1837e3;0;OK;
5194;49.117748;16.604;OMV;58;Brno - venkov, Brněnská 671;Brno;Brnenská 671;66442;547242399;0:00 - 24:00;;;;;OK;
5195;49.70192;12.98821;OMV;58;Kladruby, dálnice D5, 111 km směr Plzeň;Kladruby;D5, Km 111, Smer Plzen;34961;374631685;0:00 - 24:00;;;4defe143227193bb4668a42e;0;OK;
5196;49.45549;12.86755;OMV;58;Draženov, Draženov 117;Drazenov;Drazenov 117;34520;379725572;0:00 - 24:00;;;;;OK;
5197;50.033909;14.44;OMV;58;Praha 4, Jižní Spojka ( směr Praha 5) 42;Praha 4;Jizni Spojka (Smer Praha 5);14002;244466334;0:00 - 24:00;;;;;OK;
5199;49.153351;16.629498;OMV;58;Brno-venkov, D2, 1km vpravo;Brno;D 2, 1 Km;61900;543243643;0:00 - 24:00;;;4b053a8af964a520715722e3;0;OK;
5201;50.207722;14.43339;OMV;58;Vodochody, odpočívka Klíčany D8;Vodochody;D 8;25069;284802332;0:00 - 24:00;;;;;OK;
5202;50.233051;12.86764;OMV;58;Karlovy Vary, Pobřežní 22;Karlovy Vary;Pobrezní 22;36001;353228156;0:00 - 24:00;;;;;OK;
5203;50.069771;14.36079;OMV;58;Praha 5, Plzeňská (směr z centra);Praha;Plzenská;15000;257220404;0:00 - 24:00;;;;;OK;
5205;49.952438;12.70303;OMV;58;Mariánské Lázně, Plzeňská třída;Mariánské Lazne;Lázne Plzenská tr.;35301;354606181;0:00 - 24:00;;;;;OK;
5206;49.18449;16.758671;OMV;58;Tvarožná, Odpočívka Rohlenka, D1 směr Vyškov;Tvarozna;Odpocivka Rohlenka;66405;544243082;0:00 - 24:00;;;;;OK;
5207;48.972641;14.46599;OMV;58;České Budějovice, Dlouhá louka;Ceské Budejovice;Dlouhá louka;37001;386356926;0:00 - 24:00;;;;;OK;
5208;49.861233;14.790945;OMV;58;Chocerady, odpočívka Naháč, Chocerady;Chocerady;Hvezdonice E 50/ E 65;25724;317792228;0:00 - 24:00;;;4c684591607ad13a2d26a82b;0;OK;
5209;49.751831;16.659149;OMV;58;Moravská Třebová, Dvorní;Moravska Trebová;Dvorni 20;57001;461313004;0:00 - 24:00;;;;;OK;
5214;50.550198;15.907308;Бензиностанция;20;ONO ČS Trutnov;Trutnov;Kralovedvorska Vl.;54101;420724326732;0:00 - 24:00;;;4e4f5da5d164978659c9945f;;OK;
5215;49.134743;15.012411;Бензиностанция;20;ONO ČS Jindřichův Hradec;Jindrichuv Hradec;Bystricka Vl.;37701;420 384 321 339;0:00 - 24:00;;;4bdc76333904a59364494e9e;;OK;
5219;49.68206;18.38538;OMV;58;Frýdek Místek, silnice R48 u obce Dobrá;Frydek Mistek-Dobra;R 48 u obce Dobrá;73801;558680224;0:00 - 24:00;;;;;OK;
5225;49.924191;16.186089;Бензиностанция;20;ONO ČS Vysoké Mýto;Vysoke Myto;Vostice 85;56601;420 724 510 130;0:00 - 24:00;;;4dab4cc143a11281970cf67c;;OK;
5233;50.449829;13.597875;Бензиностанция;20;ONO ČS Havraň;Havran;Havraň 3;43401;420 602 674 332;0:00 - 24:00;;;4f353b19e4b064bef34961f3;;OK;
5234;50.683582;14.016485;Бензиностанция;20;ONO ČS Ústí n. L., Božtěšická;Usti nad Labem;Božtěšická 786;40340;420 475 200 763;0:00 - 24:00;;;4ffd9adbe4b00fe5cb914f34;;OK;
5235;50.158672;15.234642;Бензиностанция;20;ONO ČS Kolaje u Poděbrad;Kolaje u Podebrad;Kolaje;28904;420602659097;0:00 - 24:00;;;4f5a35f3e4b0aec4c6fc4988;;OK;
5236;50.051388;14.566988;Бензиностанция;20;ONO ČS Praha, Dolní Měcholupy;Praha;Kutnohorská 225;10900;+420 724305485;0:00 - 24:00;;;4bd02b53046076b0af726f71;;OK;
5237;49.292553;13.982483;Бензиностанция;20;ONO ČS Kbelnice;Kbelnice;Kbelnice U Strakonic I4;38601;420 602 662 377;0:00 - 24:00;;;4bdde2b1d640d13a08186a27;;OK;
5238;49.41869;12.874262;Бензиностанция;20;ONO ČS Havlovice u Domažlic;Domažlice;Ujezd 333;34401;420 379 725 849;0:00 - 24:00;;;b56708dc6e8f49ad4da21b35;;OK;
5331;49.639622;14.2536;Бензиностанция;20;EuroOil;Kamyk nad Vltavou;Kamyk nad Vltavou 213;26263;318677198;;;;;;OK;
5401;49.75;18.49;Бензиностанция;20;Cerpaci Stanice EuroOil;Horni Terlicko;Horni Terlicko;73542;596423141;;;;;;OK;
5409;49.860001;12.74;Бензиностанция;20;Cerpaci Stanice EuroOil;Plana u Mar.Lazni;Plana U M.L.855;34815;374798466;;;;;;OK;
5436;48.64677;14.452571;Бензиностанция;20;ONO ČS Dolní Dvořiště - ONO II;Dolni Dvoriste;Dolni Dvoriste 220;38272;420 725 148 995;0:00 - 24:00;;;;;OK;
5437;48.652248;14.452372;Бензиностанция;20;ONO ČS Dolní Dvořiště - ONO I;Dolni Dvoriste;Dolni Dvoriste 218;38272;420 380 324 187;0:00 - 24:00;;;4d8c81acca75b60cedf8d2a8;;OK;
5506;50.4319;15.041751;Бензиностанция;20;ONO ČS Sukorady u Mladé Boleslavi;Sukorady;Sukorady-Martinovice 21;29406;420 724 050 230;0:00 - 24:00;;;;;OK;
5507;49.948795;15.326064;Бензиностанция;20;ONO ČS Církvice u Kutné Hory;Církvice;Cirkvice 226;28533;420 724 050 234;0:00 - 24:00;;;4e142ceaae60fe00dfdca1ad;;OK;
5509;49.35733;14.290136;Бензиностанция;20;ONO ČS Podolí u Písku;Podolí I;I 29;39843;420 382 587 280;0:00 - 24:00;;;4e1f206e1f6ee970647a1c72;;OK;
5517;49.362041;14.700103;Бензиностанция;20;ONO ČS Planá nad Lužnicí;Plana nad Luznici;Csla 733;39111;420 736 535 332;0:00 - 24:00;;;4d7c5ea2e04d6ea8b5b9fad5;;OK;
5523;49.134686;17.487982;Бензиностанция;20;ONO ČS Spytihněv;Spytihnev;Spytihnev 572;76364;420 725 981 583;0:00 - 24:00;;;4eea39fa9adfcff6c69172a8;;OK;
5524;49.692463;18.12723;Бензиностанция;20;ONO ČS Mošnov;Mosnov;Mosnov 310;74251;420 724 093 772;0:00 - 24:00;;;50378c8ce4b00c877a220b6d;;OK;
5531;50.228146;14.494142;Бензиностанция;20;ONO ČS Kojetice-Tůmovka;Kojetice;Císlo Silnice 9, Tumovka;25072;420 602 183 823;0:00 - 24:00;;;5056c593e4b09ebc701c94fd;;OK;
5534;50.783752;14.616344;Бензиностанция;20;ONO ČS Cvikov;Cvikov;Komenskeho;47154;420487751122;0:00 - 24:00;;;50e6e575e4b0ab43a42091f4;;OK;
5541;50.423706;13.470944;Бензиностанция;20;ONO ČS Chomutov - Přečaply;Chomutov;Precaply 59;43001;420 601 557 279;0:00 - 24:00;;;510aa9cfe4b06684a88f2d9c;;OK;
5544;49.212593;17.809093;Бензиностанция;20;ONO ČS Zádveřice u Zlína;Zádveřice-Raková;Zádverice u Zlína;76312;420 725 520 044;0:00 - 24:00;;;52ac0f4b11d2696d4e299073;;OK;
5554;49.643681;12.528706;Бензиностанция;20;TOP TANK Station;Rozvadov;Rozvadov 257;34806;379482339;0:00 - 24:00;;;;;OK;
5555;49.102715;16.603287;Бензиностанция;20;ONO ČS Brno-Popovice;Popovice;Popovice 89;66461;547232152;0:00 - 24:00;;;5014fdf5e4b0f8ec78d17cd0;;OK;
5565;48.881351;16.06134;Shell;59;8504 Kuchařovice;Kuchařovice;Kucharovice 45/2;669 02;420 515 221 798;06:00 - 19:00;;;;;OK;
5567;50.425549;14.239359;Бензиностанция;20;ONO ČS Roudnice nad Labem;Roudnice nad Labem;Hornicka 2500;41301;416831912;0:00 - 24:00;;;55d77114498ef1af7f79cdd3;;OK;
5568;50.398186;16.10598;Бензиностанция;20;ONO ČS Vysokov u Náchoda;Vysokov;Vysokov 109;54912;491520456;0:00 - 24:00;;;548c12a6498e9419b90860c7;;OK;
5574;50.003712;14.570208;PapOil;145;Průhonice II.;Průhonice;D1 směr Brno - Praha;252 43;724634065;00:00-24:00;;;;;OK;
5578;50.596199;14.043644;PapOil;145;Dolní Zálezly;Dolní Zálezly;Pražská ul.;40301;724634112;00:00-24:00;;;;;OK;
5584;48.768578;16.069704;PapOil;145;Hatě;Chvalovice;Chvalovice 185;67123;724634076;05:00-22:00;;;;;OK;
5586;50.07935;14.309435;PapOil;145;Praha - Drnovská;Praha - Drnovská;Drnovská 1042/28;13000;724634052;00:00-24:00;;;;;OK;
5590;50.278637;14.830604;PapOil;145;Benátky nad Jizerou;Benátky nad Jizerou;U Dálnice;29471;724634057;00:00-24:00;;;;;OK;
5595;50.160892;13.90584;PapOil;145;Nové Strašecí;Nové Strašecí;Karlovarská dálnice;27101;724634003;00:00-24:00;;;;;OK;
5599;50.107155;15.13901;PapOil;145;Oseček u Kolína;Oseček u Kolína;Oseček 86;28941;724577581;00:00-24:00;;;4ed095b7cc219860f7ab946d;0;OK;
5636;50.403221;15.889572;PapOil;145;Kuks;Kuks;Kuks I. 45;54443;724634119;05:00-22:00;;;;;OK;
5647;49.958691;14.528118;PapOil;145;Jesenice u Prahy;Jesenice u Prahy;Budějovická;25242;724634011;00:00-24:00;;;;;OK;
5657;50.442932;15.822262;PapOil;145;Dvůr Králové;Dvur Králové;Krkonošská;54402;724634073;05:00-22:00;;;;;OK;
5691;50.039558;15.107896;PapOil;145;Zlaté Slunce - KVK;Brezany;Zlaté slunce, Březany22;28101;724634028;05:00-22:00;;;;;OK;
5697;49.921967;14.633819;PapOil;145;Velké Popovice;Velké Popovice;Ringhofferova381;25169;724634008;07:00-21:00;;;;;OK;
5701;49.661373;17.103535;PapOil;145;Unčovice;Unčovice;Unčovice 126;78331;724634084;00:00-24:00;;;;;OK;
5704;49.210274;15.858891;PapOil;145;Třebíč;Třebíč;Přažská998;67401;724634005;05:00-22:00;;;;;OK;
5706;50.26004;14.57327;PapOil;145;Tišice u Chrástu;Tisice u Chrástu;Chrást 294;27715;724634115;06:00-20:00;;;;;OK;
5715;50.227219;14.098332;PapOil;145;Slaný I.;Slany;Pražská ul.;27401;724634071;05:00-22:00;;;;;OK;
5717;49.653576;14.425457;PapOil;145;Sedlčany;Sedlčany;Sedlčany - křižovatka1167;26401;724634013;05:00-21:00;;;521a2539498e58df3282bf4a;0;OK;
5720;50.160248;14.370667;PapOil;145;Roztoky;Roztoky;Přílepská 1692;25263;724634126;06:00-22:00;;;;;OK;
12447;48.642342;13.172326;Esso;88;Vilshofen;Vilshofen;Wieshof 10;94474;85415062;06.00.00 - 22.00.00;;;;0;OK;
12458;49.120358;12.126768;Avia;85;Tankstelle;Regenstauf;Regensburger Straße 29;93128;09402/782051;Mo. - Fr. 05:00 - 23:00, Sa. 06:00 - 23:00, So. 07:00 - 22:00;;;;;OK;
12497;48.55888;12.166602;Esso;88;Ergolding;Ergolding;Neue Regensburger Str. 44;84030;87176188;06.00.00 - 23.00.00;;;;;OK;
12559;51.03632;13.748465;Total;97;Dresden-Seevorstadt;Dresden;Wiener Straße 39;1069;3514710616;0:00 - 24:00;;;4be6b6192468c928449a0143;0;OK;
12566;49.001553;12.197353;Shell;94;Barbing, Neutraublinger Str;Barbing;Neutraublinger Str. 12;93092;+49 9401 1872;06:00 - 22:00;;;;;OK;
12669;48.930981;12.70838;Esso;88;Station Bayerischer Wald Nord;Hunderdorf;A 3;94336;9422807958;0:00 - 24:00;;;;;OK;
12711;48.765888;13.046054;Esso;88;Hengersberg;Hengersberg;Donaustr. 8;94491;99013001;0:00 - 24:00;;;;;OK;
12767;48.845421;12.62316;Esso;88;Aiterhofen;Aiterhofen;Passauer Str. 10;94330;942133615;06.15.00 - 21.00.00;;;;;OK;
13111;50.864006;12.771612;Esso;88;Limbach-Oberfrohna;Limbach-Oberfrohna;Burgstädter Str. 20;9212;372292206;0:00 - 24:00;;;;;OK;
13204;50.967701;13.103889;Total;97;Hainichen;Hainichen;Frankenberger Str. 52;9661;372072588;05.00.00 - 22.00.00;;;;;OK;
13268;50.915562;13.358656;Esso;88;Freiberg;Freiberg;Dresdner Straße 42;9599;3731678290;0:00 - 24:00;;;;;OK;
13293;50.646587;12.193974;eni;83;Greiz;Greiz;Plauensche Str. 2;7973;366163521;0:00 - 24:00;;;;;OK;
13354;50.833153;12.882231;Esso;88;Chemnitz-Altendorf;Chemnitz;Limbacher Str. 145;9116;371313080;0:00 - 24:00;;;;;OK;
13360;50.617416;12.254127;Бензиностанция;20;CALPAM Station;Netzschkau;Mylauer Str. 26 b;8491;3765380966;;;;;;OK;
13361;50.857861;13.317879;Total;97;Brand-Erbisdorf;Brand-Erbisdorf;Langenauer Str. 1;9618;373222271;05.00.00 - 21.00.00;;;;;OK;
13370;51.028618;14.208717;Total;97;Neustadt in Sachsen;Neustadt in Sachsen;Wilhelm-Kaulisch-Str. 49;1844;3596604238;05.00.00 - 21.00.00;;;;;OK;
13380;51.009785;12.453668;eni;83;Altenburg;Altenburg;Leipziger Str. 112;4600;3447834332;0:00 - 24:00;;;;;OK;
13399;50.873196;12.230079;Esso;88;Löbichau-Beerwalde;Beerwalde;Alte Str. 1;4626;3660234701;0:00 - 24:00;;;;;OK;
13435;49.334133;12.101769;Esso;88;Schwandorf;Schwandorf;Nürnberger Str. 9;92421;94312480;05.30.00 - 23.00.00;;;;;OK;
13466;50.812626;12.810819;Esso;88;Chemnitz-Grüna;Grüna;An der Wiesenmühle 2;9224;371856520;0:00 - 24:00;;;;;OK;
13475;50.924217;14.13298;Aral;84;Sebastian Ertelt;Rathmannsdorf;Elbstraße 8;1814;3502243088;0:00 - 24:00;;;;;OK;
13519;51.051785;13.714924;Shell;94;Dresden, Loebtauer Str;Dresden;Loebtauer Str. 28/30;1159;+49 351 4940310;06:00 - 22:00;;;;;OK;
13545;50.879318;12.820753;Total;97;Hartmannsdorf;Hartmannsdorf;Chemnitzer Str. 38 b;9232;372296461;0:00 - 24:00;;;;;OK;
13565;50.821888;12.522536;Esso;88;Glauchau;Glauchau;Auestr. 127;8371;376315833;0:00 - 24:00;;;;;OK;
13610;51.036926;12.159537;Jet;91;Katrin Dietze;Zeitz;Geußnitzer Straße 98;6712;03441-310970;05:00-23:00;;;;;OK;
13612;50.507938;12.159001;Total;97;Plauen-Chrieschwitz;Plauen;Friedrich-Eckardt-Str. 2;8529;3741442003;0:00 - 24:00;;;;;OK;
13613;50.865067;13.178866;Total;97;Oederan;Oederan;Freiberger Str. 72;9569;3729260273;06.00.00 - 22.00.00;;;;;OK;
13614;50.906231;13.311931;Бензиностанция;20;FREIE Station;Freiberg;Kleinschirmaer Straße 1;9599;373176126;0:00 - 24:00;;;;;OK;
13615;50.795933;12.881814;Бензиностанция;20;FREIE Station;Chemnitz;Stollberger Str. 178;9122;371220039;0:00 - 24:00;;;;;OK;
13616;50.840664;12.541566;Total;97;Glauchau;Glauchau;Waldenburger Str. 115;8371;376315022;0:00 - 24:00;;;;;OK;
13619;50.497971;12.397171;eni;83;Auerbach;Auerbach;Göltzschtalstr. 75;8209;3744171150;0:00 - 24:00;;;;;OK;
13620;50.327969;12.255685;eni;83;Adorf;Adorf;Oelsnitzer Str. 49;8626;374232290;05.00.00 - 22.00.00;;;;;OK;
13621;50.485207;12.139217;eni;83;Plauen-Südvorstadt;Plauen;Oelsnitzer Str. 10;8527;3741224858;0:00 - 24:00;;;;;OK;
13643;50.740185;13.062944;Esso;88;Station;Zschopau;Neue Marienberger Straße 189;9405;3725290426;0:00 - 24:00;;;;;OK;
13644;50.634712;12.793915;Total;97;Zwönitz;Zwönitz;Hartensteiner Str. 11;8297;377545536;05.00.00 - 22.00.00;;;;;OK;
13649;50.818081;13.101219;Total;97;Augustusburg;Augustusburg;Untere Schloßstr. 37;9573;372916567;06.00.00 - 22.00.00;;;;;OK;
13651;50.662098;13.330077;Total;97;Olbernhau;Olbernhau;Blumenauer Str. 9;9526;3736074280;05.30.00 - 22.00.00;;;;;OK;
13734;50.907063;12.977784;HEM;90;Station;Lichtenau-Oberlichtenau;Sachsenstr. 9;9244;09244 Lichtenau-Ob;0:00 - 24:00;;;4ce2cf1b41ed224bf9d1f13c;0;OK;
13760;51.050156;12.709164;Total;97;Geithain;Geithain;Peniger Str. 1;4643;3434143567;0:00 - 24:00;;;;;OK;
13802;50.898609;12.438907;Star;95;832 Gößnitz;Gößnitz;Altenburger Straße 146A;4639;+49 34493 31515;06:00 - 22:00;;;4ef864350aafbcb31d2c8d48;0;OK;
13854;50.566654;12.99822;Esso;88;Annaberg-Buchholz;Annaberg-Buchholz;Talstr. 18;9456;373364205;0:00 - 24:00;;;;;OK;
13858;48.971592;12.174558;eni;83;Obertraubling;Obertraubling;Am Schwindgraben 2;93083;940151026;05.30.00 - 23.00.00;;;;;OK;
13861;50.395023;12.340026;Total;97;Schöneck;Schöneck;Klingenthaler Str. 3;8261;3746488307825;06.00.00 - 22.00.00;;;;;OK;
13910;49.388439;12.145668;Shell;94;Schwarzenfeld, Hammer;Schwarzenfeld;Hammer. 30;92521;+49 9435 2201;0:00 - 24:00;;;;;OK;
13937;49.152916;12.646011;eni;83;Traitsching;Traitsching;Bachstr. 1;93455;9974395;07.00.00 - 21.00.00;;;;;OK;
13943;51.055035;13.538827;Total;97;Wilsdruff;Wilsdruff;Umgehungsstr. 18;1723;3520426670;0:00 - 24:00;;;;;OK;
13979;50.783447;12.870125;Shell;94;Neukirchen, Chemnitzer Str;Neukirchen;Chemnitzer Str. 36;9221;+49 371 217162;0:00 - 24:00;;;;;OK;
13982;50.75914;12.370245;Бензиностанция;20;SB Station;Langenhessen;Crimmitschauer Straße 116;8412;376175059;0:00 - 24:00;;;;;OK;
13987;50.881184;12.119916;Shell;94;Gera, Ronneburger Str;Gera;Ronneburger Str. 59;7546;+49 365 8321393;0:00 - 24:00;;;4df0eaad227193bb466d6a88;0;OK;
13989;50.898609;13.035746;Бензиностанция;20;SB Station;Frankenberg;Altenhainer Str. 101;9669;3720675543;0:00 - 24:00;;;;;OK;
14003;49.222733;12.670628;eni;83;Cham;Cham;Further Str. 8;93413;99719270;0:00 - 24:00;;;;;OK;
14033;51.005383;13.806776;Esso;88;Dresden-Reick;Dresden;Langer Weg 22;1239;3512880151;0:00 - 24:00;;;4c713ba29c6d6dcb9cbcd47a;0;OK;
14040;50.525654;12.789295;Бензиностанция;20;FREIE Station;Schwarzenberg;Karlsbader Str. 53;8340;3774570;;;;;;OK;
14050;50.907692;13.025472;Бензиностанция;20;ELAN Station;Frankenberg;Äußere Chemnitzer Str. 17;9669;3720681070;0:00 - 24:00;;;;;OK;
14057;50.746639;12.742327;Total;97;Lugau;Lugau;Hohensteiner Str. 44;9385;3729541978;06.00.00 - 22.00.00;;;;;OK;
14059;50.987133;13.857988;Бензиностанция;20;MINOL Station;Heidenau;Dresdner Str. 103 a;1809;3529512353;0:00 - 24:00;;;;;OK;
14060;51.049534;12.556219;Total;97;Frohburg;Frohburg;Peniger Str. 40;4654;3434851177;0:00 - 24:00;;;;;OK;
14062;50.996201;13.652442;Total;97;Freital;Freital;Poisentalstraße 18;1705;3516491861;0:00 - 24:00;;;;;OK;
14063;50.699604;12.939647;Total;97;Gelenau;Gelenau;Fritz-Reuter-Straße 21;9423;372975055;0:00 - 24:00;;;;;OK;
14064;51.029549;13.7906;Total;97;Dresden-Seidnitz-Dobritz;Dresden;Bodenbacher Str. 64;1277;3512561098;0:00 - 24:00;;;;;OK;
14078;51.00811;12.453486;Total;97;Altenburg;Altenburg;Leipziger Str. 87;4600;3447836804;0:00 - 24:00;;;;;OK;
14111;50.708813;12.464507;Total;97;Zwickau;Zwickau;Reichenbacher Str. 115;8056;375216851;0:00 - 24:00;;;;;OK;
14133;50.884754;13.955087;Esso;88;Bad Gottleuba-Berggießhübel;Bad Gottleuba-Berggießhüb;Oberer Ladenberg 4 b;1819;35023519192;0:00 - 24:00;;;;;OK;
14143;48.716679;13.531457;Бензиностанция;20;BFT Station;Röhrnbach;Außernbrünst 22;94133;8582961451;0:00 - 24:00;;;;;OK;
14167;50.987396;13.111977;Esso;88;Station;Hainichen;Ahornstr. 5;9661;3720755305;0:00 - 24:00;;;;;OK;
14276;50.841675;12.935251;eni;83;Chemnitz-Sonnenberg;Chemnitz;Dresdner Str. 84;9130;371404501;0:00 - 24:00;;;;;OK;
14333;50.81002;12.965101;Total;97;Chemnitz-Adelsberg;Chemnitz;Zschopauer Str. 319;9127;3717253452;0:00 - 24:00;;;;;OK;
14413;48.833241;12.149573;Бензиностанция;20;FREIE Station;Schierling;Eggmühler Str. 43;84069;9451941213;;;;;;OK;
14437;50.97731;12.981252;Total;97;Mittweida;Mittweida;Chemnitzer Str. 28 F;9648;372792955;05.00.00 - 20.00.00;;;;;OK;
14459;49.537865;12.155844;Aral;84;Karl-Heinz Kraus;Wernberg-Köblitz;Nürnbergerstraße 35;92533;96042272;06.30.00 - 21.00.00;;;;;OK;
14465;51.049133;13.793127;Total;97;Dresden-Striesen Ost;Dresden;Hüblerstr. 36;1309;3513100672;06.00.00 - 20.00.00;;;;;OK;
14506;49.002953;12.123168;Avia;85;Armin Mayer;Regensburg;Landshuter Straße 110;93053;94171160;0:00 - 24:00;;;;;OK;
14532;50.074238;12.098674;Shell;94;Thiersheim, Wampenerstr. 1;Thiersheim;Wampenerstr. 1;95707;+49 9235 98100;0:00 - 24:00;;;;;OK;
14569;48.890675;12.5773;eni;83;Straubing;Straubing;Chamer Str. 48;94315;942112367;06.00.00 - 22.00.00;;;;;OK;
14581;48.972019;13.137607;eni;83;Regen;Regen;Zwieseler Str. 44;94209;99211852;05.30.00 - 23.30.00;;;;;OK;
14592;48.91396;13.088884;Avia;85;Tankstelle;Bischofsmais;Regener Straße 2;94253;09920/383;Mo. - Fr. 06:00 - 20:00, Sa. 07:00 - 20:00, So. 08:30 - 20:00, 24h Tankautomat;;;;;OK;
14604;51.054638;14.400294;Esso;88;Sohland an der Spree;Wehrsdorf;Oppacher Str. 47;2689;3593630073;06.00.00 - 19.00.00;;;;;OK;
14622;49.654476;12.142779;Esso;88;Weiden;Weiden;Regensburger Str. 91;92637;9614161980;0:00 - 24:00;;;;;OK;
14665;49.717644;12.157901;Jet;91;Gwendolyn Huebner;Altenstadt;Hauptstraße 1;92665;09602-639849;0:00 - 24:00;;;;;OK;
14698;48.689358;13.212963;Aral;84;Diermeier Top Tank Gmbh&cie. Kg;Eging am See;Rannetsreit 4;94535;854491141;0:00 - 24:00;;;;;OK;
14732;51.037048;13.2966;Shell;94;Autohof Nossen;Nossen;Augustusberg 72;1683;+49 35242 67238;0:00 - 24:00;;;;;OK;
14845;48.909698;12.69043;eni;83;Bogen;Bogen;Bahnhofstr. 8;94327;94221864;0:00 - 24:00;;;;;OK;
14851;49.533005;12.135991;Shell;94;Wernberg, Keplerstraße;Wernberg;Keplerstr. 1;92533;+49 9604 914780;0:00 - 24:00;;;;;OK;
15094;49.208256;12.667495;Jet;91;Philipp Steinhauser;Cham;Werner-Von-Siemens- Straße 4;93413;09971-862691;05:00-24:00;;;4c121b53a9c220a16b52539d;;OK;
15103;50.573986;12.373251;eni;83;Lengenfeld;Lengenfeld;Zwickauer Str. 16;8485;3760637867;05.00.00 - 21.00.00;;;;;OK;
15184;50.751549;12.618794;eni;83;Lichtenstein;Lichtenstein;Äußere Zwickauer Str. 16;9350;372042134;06.00.00 - 20.00.00;;;;;OK;
15232;49.039928;12.095412;eni;83;Regensburg-Steinweg;Regensburg;Lappersdorfer Str. 110;93059;94182903;0:00 - 24:00;;;;;OK;
15241;48.999859;12.111154;eni;83;Regensburg-Kasernenviertel;Regensburg;Unterislinger Weg 13;93053;94172181;06.00.00 - 22.00.00;;;;;OK;
15298;48.859379;13.398238;eni;83;Grafenau;Grafenau;Rosenauer Str.;94481;85523488;06.00.00 - 22.00.00;;;;;OK;
15299;49.077744;12.883063;eni;83;Viechtach;Viechtach;Schmidstr. 2;94234;9942904212;06.00.00 - 22.00.00;;;;;OK;
15305;48.883282;12.587563;eni;83;Straubing;Straubing;Heerstr. 106;94315;942121144;05.30.00 - 22.00.00;;;;;OK;
15306;48.570309;13.427377;eni;83;Passau-Haidenhof Nord;Passau;Spitalhofstr. 84;94032;85170166;06.00.00 - 22.00.00;;;;;OK;
15311;48.627125;13.18974;eni;83;Vilshofen;Vilshofen;Ortenburger Str. 40;94474;85418595;06.00.00 - 22.00.00;;;;0;OK;
15487;48.985916;12.980934;Aral;84;Max Ellmann;Ruhmannsfelden;Viechtacher Straße 4;94239;99291041;06.00.00 - 20.00.00;;;;;OK;
15586;50.796497;13.22845;OIL!;229;Eppendorf;Eppendorf;Borstendorfer Straße 14;9575;4937293303;07:00 - 16:00;;;;;OK;
15628;49.028961;12.121657;Jet;91;Dieter Meinrad Sawatzky;Regensburg;Donaustaufer Straße 128;93059;0941 400498;0:00 - 24:00;;;50558f52e4b0d505c35051ac;;OK;
15728;50.791039;12.697234;HEM;90;Station;Oberlungwitz;Goldbachstr. 19c;9353;03723/ 6289704;05:00 - 22:00;;;;;OK;
15847;50.893559;12.94537;Aral;84;Bat Auerswalder Blick Südauerswalde Süd Gmbh&co. Kg;Oberlichtenau;A4;9244;3720883523;0:00 - 24:00;;;;;OK;
15877;49.028118;12.094584;HEM;90;Station;Regensburg;Frankenstr. 11;93059;0941 / 8500746;0:00 - 24:00;;;;;OK;
15914;51.039577;13.656966;Total;97;Dresden-Gorbitz Süd;Dresden;Kesselsdorfer Str. 214;1169;3514126824;06.00.00 - 22.00.00;;;;;OK;
15918;50.649872;13.156383;Total;97;Marienberg;Marienberg;Äuß. Wolkensteiner Straße 3;9496;373522485;05.00.00 - 21.00.00;;;;;OK;
15982;50.533169;12.403453;Бензиностанция;20;ELAN Station;Rodewisch;Lengenfelder Str. 4 a;8228;374432200;;;;;;OK;
15983;50.708546;12.735521;Бензиностанция;20;ELF Station;Oelsnitz/Erzgeb.;Oberwürschnitzer Str. 8 - 10;9376;3729693472;;;;;;OK;
15984;50.695091;12.479182;Total;97;Zwickau;Zwickau;Innere Zwickauer Straße 29;8062;375787047;05.00.00 - 21.00.00;;;;;OK;
15985;50.832787;12.873344;Total;97;Chemnitz-Altendorf;Chemnitz;Limbacher Str. 218;9116;371364046;06.00.00 - 21.00.00;;;;;OK;
15986;50.838867;12.903624;Total;97;Station;Chemnitz;Limbacher Str. 58;9113;3713363873;;;;;;OK;
15987;50.807961;12.38817;Бензиностанция;20;FREIE Station;Crimmitschau;Werdauer Str. 35;8451;37626093;0:00 - 24:00;;;;;OK;
15988;50.544243;12.299104;Total;97;Treuen;Treuen;Innere Herlasgrüner Str. 17;8233;374682639;06.00.00 - 21.00.00;;;;;OK;
16000;50.656631;12.184589;Бензиностанция;20;ELAN Station;Greiz;Zeulenrodaer Str. 31;7973;36612591;0:00 - 24:00;;;;;OK;
16010;51.032291;13.711079;Total;97;Dresden-Plauen;Dresden;Würzburger Str. 26;1187;3514717777;06.00.00 - 21.30.00;;;;;OK;
16011;51.058052;13.824645;Total;97;Dresden-Loschwitz;Dresden;Grundstr. 99;1326;3512683294;05.00.00 - 22.00.00;;;;;OK;
16122;49.501099;12.183154;Total;97;Station;Pfreimd;Wernberger Str. 34;92536;960691277;;;;;;OK;
16285;48.92429;12.207975;Бензиностанция;20;TOP 1 Station;Alteglofsheim;Regensburger Str. 16;93087;9453999666;;;;;;OK;
16347;49.36628;12.701797;Avia;85;Station;Waldmünchen;Am Lerchenfeld 22;93449;9972678;;;;;;OK;
16432;48.590069;13.092727;Avia;85;Tankstelle;Aldersbach;Ritter-Tuschl-Straße 39;94501;08543/916298;Mo. - Fr. 06:00 - 20:30, Sa. 06:00 - 20:30, So. 06:00 - 20:30;;;;;OK;
16435;49.447838;12.175672;Бензиностанция;20;TEAM Station;Nabburg;Regensburger Str. 41;92507;9433201045;;;;;;OK;
16453;50.957256;13.916652;HEM;90;Station;Pirna;Dresdner Str. 49;1796;03501 / 585901;05:30 - 22:30;;;;;OK;
16501;50.9981;12.407759;Shell;94;Oberloedla/, Loedlaer Chauss;Oberlödla/ Altenburg;Loedlaer Chaussee 4;4617;+49 3447 82070;05:00 - 22:00;;;;;OK;
16502;50.772163;12.622837;Shell;94;St.egigien, Platanenstr. 2;St. Egigien;Platanenstr. 2;9356;+49 37204 83320;0:00 - 24:00;;;;;OK;
16505;48.785221;12.529287;Бензиностанция;20;AHR Station;Leiblfing;Am Gewerbepark 1;94339;9427959907;;;;;;OK;
16507;50.657841;12.969007;Shell;94;Ehrenfriedersdorf, Chemnitzstr. 79;Ehrenfriedersdorf;Chemnitzstr. 79;9427;+49 37341 2056;05:00 - 21:00;;;;;OK;
16811;48.558556;13.420233;Aral;84;Vewag Verwaltungsgesellschaft Mbh;Passau;Neuburger Straße 141;94036;85153174;06.30.00 - 21.00.00;;;;;OK;
16934;48.976299;12.68017;Avia;85;Tankstelle;Mitterfels;Bayerwaldstraße 3;94360;09961/910226;Mo. - Fr. 06:00 - 20:00, Sa. 07:00 - 20:00, So. 07:30 - 19:00;;;;;OK;
16950;50.650639;13.365611;Shell;94;Olbernhau, Gruenthaler Str.1;Olbernhau;Grünthaler Str. 109;9526;+49 37360 72378;05:00 - 21:00;;;;;OK;
16953;50.993286;13.80556;Бензиностанция;20;DYNAMO DRESDEN Station;Dresden;Dohnaer Str. 280;1257;3512882328;;;;;;OK;
17004;49.119122;12.12603;OMV;92;Regenstauf, Regensburger Str. 30;Regenstauf;Regensburger Str. 30;93128;94021369;0:00 - 24:00;;;;;OK;
17022;48.88311;12.57426;OMV;92;Straubing, Stadtgraben 104;Straubing;Stadtgraben 51;94315;94211380;Mo-So 06:00-23:00;;;;;OK;
17026;49.680012;12.1529;OMV;92;Weiden, Christian-Seltmann-Str. 36;Weiden;Christian-Seltmann-Str. 36;92637;96122329;0:00 - 24:00;;;;;OK;
17045;49.013142;12.14015;OMV;92;Regensburg, Straubinger Str. 73;Regensburg;Straubinger Str. 73;93055;9417994512;Mo- Fr 06:00-22:00, Sa 7:00 - 22:00 So 7:00 - 22:00;;;;;OK;
17063;48.867222;12.57413;OMV;92;Straubing, Landshuter Str. 101;Straubing;Landshuter Str. 101;94315;9421530190;Mo-Sa 06:00-22:00, So 07:00-22:00;;;;;OK;
17064;49.202061;12.27998;OMV;92;Nittenau, Brucker Str. 16;Nittenau;Brucker Str. 16;93149;9436903231;0:00 - 24:00;;;;;OK;
17072;49.322639;12.12156;OMV;92;Schwandorf, Wackersdorfer Str. 52;Schwandorf;Wackersdorfer Str. 52;92421;94312521;0:00 - 24:00;;;;;OK;
17111;48.563038;13.428779;eni;83;Passau-Haidenhof Nord;Passau;Neuburger Str. 104;94036;85158991;06.00.00 - 23.59.00;;;;;OK;
17174;49.009857;12.09401;HEM;90;Station;Regensburg;Friedenstr. 12a;93053;0941 - 7059830;0:00 - 24:00;;;4e020295d22db37fb029e087;;OK;
17192;50.716354;12.782958;Jet;91;Thomas Ulbricht;Stollberg;Zu den Teichen 2;9366;037296-83994;06:00-22:00;;;4df378de22718759f81fd06d;0;OK;
17286;49.037708;12.104635;Avia;85;Tankstelle;Regensburg;Nordgaustraße 36;93059;0941/4092880;Mo. - Fr. 05:30 - 22:00, Sa. 07:00 - 22:00, So. 07:00 - 22:00;;;;;OK;
17405;50.69857;12.846813;Avia;85;Tankstelle;Thalheim;Hauptstraße 43C;9380;03721 / 2687365;Mo. - Fr. 06:00 - 20:00, Sa. 07:30 - 18:00, So. 08:00 - 18:00;;;;;OK;
17407;50.724293;12.709495;Avia;85;Tankstelle;Oelsnitz;Dr.-Otto-Nuschke-Straße 12a;9376;037298/14898;Mo. - Fr. 06:00 - 20:00, Sa. 08:00 - 18:00, So. 08:00 - 18:00, 24h Tankautomat;;;;;OK;
17436;50.842178;12.44537;Shell;94;Meerane Äussere Crimmitschauer Str;Meerane;Äußere Crimmitschauer Str. 125;8393;+49 3764 4610;05:00 - 22:00;;;;;OK;
17467;49.346069;12.373819;Total;97;Neunburg vorm Wald;Neunburg vorm Wald;Amberger Straße 37;92431;96723493;05.30.00 - 23.00.00;;;;;OK;
17506;51.036381;14.54408;Бензиностанция;20;GO Station;Neusalza-Spremberg;Zittauer Str. 58;2742;3587235438;;;;;;OK;
17507;50.983925;13.034321;Бензиностанция;20;SPRINT Station;Seifersbach;Rossauer Str. 44 a;9661;3727640427;;;;;;OK;
17538;50.812813;12.841511;Shell;94;Chemnitz, Jagdschänkenstr. 17;Chemnitz;Jagdschänkenstr. 17;9117;+49 371 8577946;05:00 - 21:30;;;;;OK;
17612;48.782681;12.8805;Total;97;Plattling;Plattling;Deggendorfer Str. 61 a;94447;99314362;06.00.00 - 22.00.00;;;;;OK;
17613;50.898766;13.695913;Бензиностанция;20;EPT Station;Reinholdshain;Industriering 4;1744;3504690090;0:00 - 24:00;;;;;OK;
17701;50.562733;12.733565;Бензиностанция;20;Morgenstern;Lauter;Sachsenstr. 16;8315;493771256515;0:00 - 24:00;;;;;OK;
17769;49.388046;12.134559;Aral;84;Katrin Schuhmacher;Schwarzenfeld;Amberger Straße 31;92521;9435501210;06.00.00 - 23.00.00;;;5031bda0e4b01a9d9fd49411;0;OK;
17780;48.9673;13.12666;OMV;92;Regen, Ruselstr. 9;Regen;Ruselstr. 9;94209;9921904015;Mo-So 05:30-22:00;;;;;OK;
17808;48.70533;13.013676;Avia;85;Osterhofen/Bauer;Osterhofen;Plattlinger Str. 50;94486;99321431;06.00.00 - 22.00.00;;;;;OK;
17814;49.04282;12.100892;Avia;85;Tankstelle;Regensburg;Amberger Straße 101;93057;0941/6400760;Mo. - Fr. 06:00 - 22:00, Sa. 07:00 - 22:00, So. 08:00 - 22:00;;;;;OK;
17889;48.879749;12.55314;OMV;92;Straubing, Regensburgerstr. 91;Straubing;Regensburger Straße 35 c;94315;942122302;Mo-Sa 06:00-21:00, So 08:00-21:00;;;;;OK;
17893;48.911678;12.69595;OMV;92;Bogen, Bayerwaldstr. 12;Bogen;Bayerwaldstr. 12;94327;9422805096;Mo-So 07:00-21:00;;;;;OK;
17919;48.707569;12.19369;OMV;92;Ergoldsbach, Regensburger Str. 68;Ergoldsbach;Regensburger Str. 68;84061;87711329;Mo-Fr 05:00-22:00, Sa 06:00-22:00, So u. Feiertag 07:00-22:00;;;;;OK;
17938;48.645229;12.48435;OMV;92;Dingolfing, Gewerbehof 11;Dingolfing;Gewerbehof 11;84130;873173034;0:00 - 24:00;;;;;OK;
17939;49.07074;12.18456;OMV;92;Wenzenbach, Raiffeisenstr. 1;Wenzenbach;Raiffeisenstr. 1;93173;940790367;Mo-Sa 06:00-22:00, So 07:00-22:00;;;;;OK;
18003;50.597797;12.659475;Jet;91;Ralf Rapsky;Aue - Bad Schlema;Auer Straße 50 A;8280;03772-25585;05:00-21:00;;;7a2fae42a88f4901869e9eee;;OK;
18007;49.63958;12.489607;Бензиностанция;20;LINDNER Station;Waidhaus;Vohenstraussstraße 16;92726;9652315;;;;;;OK;
18024;50.557205;12.779192;Star;95;37 Schwarzenberg;Schwarzenberg;Sachsenfelder Straße 1a;8340;+49 3774 35550;06:00 - 22:00;;;;;OK;
18098;48.887409;12.79777;OMV;92;Niederwinkling, Bayerwaldstr. 10;Niederwinkling;Bayerwaldstr. 10;94559;9962487;Mo-Fr 06:00-19:00, Sa 07:00-16:00,;;;;;OK;
18126;50.871876;12.909255;Shell;94;Chemnitz, Chemnitztalstr. 170;Chemnitz;Chemnitztalstr. 170;9114;+49 371 411525;05:00 - 20:00;;;;;OK;
18130;50.85487;13.321194;Shell;94;Brand-Erbisdorf, Gewerbegeb.s;Brand-Erbisdorf;Gewerbegebiet Süd 2;9618;+49 37322 33214;0:00 - 24:00;;;;;OK;
18136;50.862881;13.008434;Shell;94;Niederwiesa, Chemnitzer Str. 23;Niederwiesa;Chemnitzer Str. 23;9577;+49 3726 6469;06:00 - 20:00;;;;;OK;
18137;50.885273;12.349403;Shell;94;Schmölln, Am Kemnitzgrund 1;Schmölln;Am Kemnitzgrund 1;4626;+49 34491 83167;0:00 - 24:00;;;;;OK;
18150;50.548801;12.772236;Shell;94;Schwarzenberg, Str. Der Einh;Schwarzenberg;Strasse Der Einheit 59;8340;+49 3774 25423;05:00 - 21:00;;;;;OK;
18151;48.842453;12.96164;Shell;94;Deggendorf, Ruselstr.8;Deggendorf;Ruselstr. 8;94469;+49 991 5472;05:00 - 20:00;;;;;OK;
18298;50.893734;12.942377;Shell;94;Lichtenau, Bat A4 Auerswalde N;Lichtenau;An Der Autobahn 99B;9244;+49 37208 83815;0:00 - 24:00;;;;;OK;
18340;48.705086;13.483332;Shell;94;Station;Hutthurm;Passauer Str. 3;94116;8505939801;;;;;;OK;
18341;49.106625;13.006161;Shell;94;Drachselsried, Pointwiese;Drachselsried;Pointwiese 1;94256;+49 9945 905171;07:00 - 19:30;;;;;OK;
18344;48.630375;13.19285;Shell;94;Vilshofen, Passauer Str;Vilshofen;Passauer Str. 27;94474;+49 8541 911582;05:00 - 22:00;;;;;OK;
18347;48.582382;13.40893;Shell;94;Passau, Kachletstr;Passau;Kachletstr. 28;94034;+49 851 53745;05:00 - 22:00;;;;;OK;
18370;48.716194;13.329356;Shell;94;Fürstenstein, Vilshofener Str;Fürstenstein;Vilshofener Str. 6;94538;+49 8504 916060;06:00 - 20:00;;;;;OK;
18392;50.980202;12.425417;Shell;94;Altenburg, Schmöllnsche Land;Altenburg;Schmöllnsche Land 7;4600;+49 3447 505984;05:00 - 21:00;;;;;OK;
18416;50.843124;12.943522;Star;95;41 Chemnitz;Chemnitz;Zietenstraße 121;9130;+49 371 404547;05:00 - 22:00;;;;;OK;
18424;50.581223;13.014878;Бензиностанция;20;SB Station;Annaberg-Buchholz;Robert-Blum-Str. 33;9456;373327020;0:00 - 24:00;;;;;OK;
18425;50.747662;13.491017;Бензиностанция;20;RHEINLAND Station;Clausnitz;Hauptstr. 13 a;9623;373277222;;;;;;OK;
18441;50.957653;13.923891;Бензиностанция;20;FREIE Station;Pirna;Dresdner Str. 8 e;1796;3501446903;0:00 - 24:00;;;;;OK;
18442;50.629257;12.289388;Бензиностанция;20;SB Station;Reichenbach;Friedensstr. 21;8468;376512610;;;;;;OK;
18465;48.714581;13.266411;Aral;84;Autohaus Osterer/inh. Aschenbrenner;Eging;Deggendorfer Straße 21;94535;8544327;06.00.00 - 19.00.00;;;;;OK;
18543;50.731777;12.508245;HEM;90;Station;Zwickau;Sternenstr. 6;8066;0375 / 450631;06:00 - 22:00;;;;;OK;
18563;50.710796;12.995656;Esso;88;Gelenau;Gelenau;Herolder Str. 1;9423;372977036;06.00.00 - 21.00.00;;;;;OK;
18651;50.821651;12.88531;Бензиностанция;20;GO Station;Chemnitz;Zwickauer Str. 184;9116;3713346363;;;;;;OK;
18779;51.046677;13.708572;Jet;91;Andreas Krjukow;Dresden;Löbtauer Straße 51;1159;0351-4904555;0:00 - 24:00;;;4cb5d57655af224b7c5d957e;;OK;
18781;50.735088;12.373464;Jet;91;Thomas Lindauer;Werdau;Uferstraße 11;8412;03761-2004;05:00-22:00;;;4f4913fce4b07d0dde65ffb3;;OK;
18796;48.844086;12.960241;Jet;91;Dieter Meinrad Sawatzky;Deggendorf;Graflinger Straße 94;94469;0991-2500942;06:00-22:00;;;;;OK;
18806;48.996769;12.119637;Jet;91;Bastian Semmler;Regensburg;Bajuwarenstraße 5;93053;0941-7054926;05:00-24:00;;;4bfd01d44cf820a113c4ebf4;;OK;
18819;49.025761;12.113364;Jet;91;Oliver Voest;Regensburg;Nordgaustraße 1;93055;0941-4099672;05:00-23:00;;;4c0f32207189c928e3c7d9b6;;OK;
18868;51.039093;13.637981;Jet;91;Jaqueline Boenicke;Dresden Gompitz;Kesselsdorfer Straße 336;1156;0351-4115092;06:00-22:00;;;;;OK;
18871;50.818298;12.886705;Jet;91;Stefan Thorandt;Chemnitz;Neefestraße 88;9116;0371-306327;05:00-22:00;;;;;OK;
18905;50.62862;12.29946;Jet;91;Tobias Rene Lauterbach;Reichenbach;Friedensstraße 69;8468;03765-21174;05:00-22:00;;;;;OK;
18942;50.857109;12.873825;Jet;91;Diana Heubner;Chemnitz;Leipziger Straße 210;9114;0371-3300552;05:00-22:00;;;;;OK;
18945;50.998566;12.410141;Jet;91;Ronny Claus;Altenburg;Zeitzer Straße 97;4600;03447-836241;05:00-22:00;;;;;OK;
18986;48.884033;12.609274;Jet;91;Oliver Voest;Straubing;Ittlinger Straße 196;94315;09421-740372;0:00 - 24:00;;;;;OK;
19011;48.854485;12.994099;Бензиностанция;20;Q1 Tankstelle;Deggendorf;Ruselbergstraße 31;94469;0991 99132121;05:30 - 22:00;;;;;OK;
19047;50.558582;12.96012;Бензиностанция;20;Q1 Station;Schlettau;Buchholzer Straße 36 a;9487;373365250;;;;;;OK;
19048;51.050865;14.087852;Бензиностанция;20;SMILEY Station;Stolpen;Schützenhausstr. 7;1833;359732310;;;;;;OK;
19052;50.532349;12.431137;Бензиностанция;20;Q1 Station;Rodewisch;Wernesgruener Str. 39c;8228;374448122;0:00 - 24:00;;;;;OK;
19062;50.729961;12.749558;Бензиностанция;20;Q1 Station;Niederwürschnitz;Hohensteiner Str. 73;9399;372952255;;;;;;OK;
19064;50.6297;12.519741;Бензиностанция;20;Q1 Station;Kirchberg;Bahnhofstr. 38;8107;3760266325;;;;;;OK;
19072;50.901733;14.817654;Бензиностанция;20;Q1 Station;Zittau;Leipziger Str. 41;2763;+49 3583 7954183;05:00 - 23:00;;;;;OK;
19110;50.517868;12.993793;Бензиностанция;20;Q1 Station;Cranzahl;Karlsbader Str. 18;9465;3734214290;;;;;;OK;
19151;50.869312;13.189452;Бензиностанция;20;BFT Station;Oederan;Ringstr. 2;9569;3729269224;;;;;;OK;
19186;50.853683;12.784683;Jet;91;Stefan Thorandt;Limbach-Oberfrohna;Chemnitzer Straße 89;9212;03722-403221;05:00-22:00;;;;;OK;
19244;50.790047;12.739103;Бензиностанция;20;SPRINT Station;Oberlungwitz;Hofer Str. 76;9353;37233332;;;;;;OK;
19370;50.600262;13.062657;Бензиностанция;20;GO Station;Mildenau;Gewerbegebiet Nord 1;9456;3733555520;;;;;;OK;
19416;49.618923;12.349089;Бензиностанция;20;FREIE Station;Vohenstrauß;Waidhauser Str. 35;92648;96512214;;;;;;OK;
19418;49.693882;12.162165;Бензиностанция;20;FREIE Station;Weiden;Neustädter Str. 22;92637;9613814902;;;;;;OK;
19471;50.79586;12.243377;Бензиностанция;20;BFT Station;Braunichswalde;Gewerbegebiet Morgensonne 2;7580;3660821665;;;;;;OK;
19490;50.82692;12.529612;Бензиностанция;20;GO Station;Glauchau;Hochuferstr. 10;8371;3763404570;;;;;;OK;
19501;48.645191;12.486523;Avia;85;Tankstelle;Dingolfing;Landshuter Straße 5;84130;873173133;Mo. 07:00 - 18:00, Di. 07:00 - 18:00, Mi. 07:00 - 18:00, Do. 7:00 - 18:00, Fr. 7:00 - 18:00, Sa. 9:00 - 12:00,;;;;;OK;
19505;48.837994;13.344655;Avia;85;Station;Schönberg;Passauer Str. 2;94513;855496050;;;;;;OK;
19509;48.722107;12.444384;Esso;88;Mengkofen;Mengkofen;Hauptstr. 7;84152;8733938233;06.00.00 - 22.30.00;;;;;OK;
19512;49.335014;12.100717;Бензиностанция;20;SB Station;Schwandorf;Nürnberger Str. 6;92421;94314435;;;;;;OK;
19557;48.589722;13.36611;OMV;92;Passau, Donautal West A 3;Passau;A 3;94036;85183580;0:00 - 24:00;;;;;OK;
19578;50.365452;12.468425;Star;95;669 Klingenthal;Klingenthal;Auerbacher Straße 91;8248;+49 37467 22483;05:00 - 21:00;;;5363d262498eaaa5d0dd049a;0;OK;
19642;48.946304;12.730158;Avia;85;Station;Hunderdorf;Breitfeld 1;94336;9422805500;;;;;;OK;
19678;48.780197;13.052708;Aral;84;Autohaus Krammer Gmbh;Hengersberg;Deggendorfer Straße 48;94491;990193470;06.30.00 - 20.00.00;;;;;OK;
19943;49.069878;13.099366;Avia;85;Tankstelle;Bodenmais;Bahnhofstraße 62;94249;09924/414;Mo. - Fr. 07:30 - 19:00, Sa. 07:30 - 18:00, So. 09:00 - 18:00;;;;;OK;
19996;48.586586;12.189345;Shell;94;Essenbach/Altheim,Daimlerstr.2;Essenbach/Altheim;Daimlerstr. 2;84051;+49 8703 907766;0:00 - 24:00;;;;;OK;
20043;50.673134;12.527349;Aral;84;Präg Mineralöl Gmbh;Wilkau-Haßlau;Schneeberger Straße 83 a;8112;375661660;05.00.00 - 22.00.00;;;;;OK;
20044;50.722969;12.374348;Aral;84;Präg Mineralöl Gmbh;Werdau;Greizer Straße 1;8412;37615209;0:00 - 24:00;;;;;OK;
20051;50.501617;12.603107;Aral;84;Präg Mineralöl Gmbh;Eibenstock;Schneeberger Straße 30;8309;377523145;05.00.00 - 22.00.00;;;;;OK;
20060;50.864044;12.907596;Бензиностанция;20;PINOIL Station;Chemnitz;Blankenburgstr. 112;9114;3713379026;;;;;;OK;
20061;50.575336;12.386427;Бензиностанция;20;PINOIL Station;Lengenfeld;Plohnbachstr. 2;8485;3760633663;;;;;;OK;
20089;48.805347;13.542073;Бензиностанция;20;BFT Hauer;Freyung;Passauer Str. 33;94078;4985514046;5:00–22:00;;;60b52c4e9adc6d3e435eba60;;OK;
20093;50.611481;12.72023;Бензиностанция;20;PINOIL Station;Lößnitz;Lessingstr. 2a;8294;377133411;;;;;;OK;
20096;50.707142;12.501335;Бензиностанция;20;ARAL Station;Zwickau;Oskar-Arnold-Str. 14;8056;3752040053;;;;;;OK;
20206;51.036308;14.221411;Бензиностанция;20;FREIE Station;Neustadt;Andreas-Schubert-Str. 2;1844;3596604200;0:00 - 24:00;;;;;OK;
20418;48.618553;13.483004;Aral;84;Vewag Verwaltungsgesellschaft Mbh;Salzweg;Passauer Straße 18;94121;85142693;06.00.00 - 21.00.00;;;;;OK;
20457;50.850906;12.952355;HEM;90;Station;Chemnitz;Dresdner Str. 119;9131;0371 / 4500831;05:30 - 22:30;;;;;OK;
20518;51.035877;13.704263;HEM;90;Tankstelle;Dresden;Tharandter Str. 48;1159;0351 / 4241548;0:00 - 24:00;;;4de7c18845dda9e8a333db57;0;OK;
20618;50.859749;12.760014;Shell;94;Limbach-Oberfrohna, Strasse;Limbach-Oberfrohna;Straße Des Friedens 4;9212;+49 3722 6170;0:00 - 24:00;;;;;OK;
20744;50.503181;12.932168;Бензиностанция;20;Q1 Station;Crottendorf;Scheibenberger Str. 33;9474;3734413286;;;;;;OK;
20789;50.853031;12.090197;HEM;90;Station;Gera;Straße der Völkerfreundschaft 2;7551;0365 / 5516137;06:00 - 22:00;;;;;OK;
20793;50.714504;12.48172;Jet;91;Ronny Claus;Zwickau;Reichenbacher Straße 53;8056;0375 2737572;05:00-23:00;;;;;OK;
20837;50.819973;12.407314;Бензиностанция;20;SUN Station;Crimmitschau;Glauchauer Landstr. 95;8451;376291101;0:00 - 24:00;;;;;OK;
20898;50.907097;13.336285;Jet;91;Mike Poetschke;Freiberg;Olbernhauser Straße 46;9599;03731-203185;05:00-22:00;;;4eef59029adf257d68ed6af3;;OK;
20923;50.967178;14.71043;Бензиностанция;20;SPRINT Station;Oberoderwitz;Hauptstr. 94 a;2791;3584227778;;;;;;OK;
21035;48.682106;12.689748;Бензиностанция;20;AHR Station;Landau;Straubinger Str. 46;94405;99511717;;;;;;OK;
21156;50.814091;12.388919;Бензиностанция;20;BFT Station;Crimmitschau;Friedrich-August-Str. 2c;8451;37629410633;;;;;;OK;
21175;50.866783;12.859792;Бензиностанция;20;SB Station Metro C&C;Röhrsdorf;Röhrsdorfer Allee 2;9247;3722505592;;;;;;OK;
21312;50.71172;12.416929;Бензиностанция;20;SB Station Kaufmarkt;Werdau;Stiftstr. 6 - 8;8412;375523731;;;;;;OK;
21320;50.82;12.514722;Бензиностанция;20;SB Station Kaufland;Glauchau;Grenayer Str. 2 A;8371;3763788810;;;;;;OK;
21469;48.770729;12.23397;Avia;85;Tankstelle;Mallersdorf-Pfaffenberg;Straubinger Straße 35;84066;087728/029926;Mo. - Fr. 06:30 - 21:30, Sa. 06:30 - 21:30, So. 07:00 - 21:30;;;;;OK;
21496;50.859333;12.306319;Total;97;Station Altenburger Land Süd;Schmölln;A 4;4626;34491554813;0:00 - 24:00;;;;;OK;
21536;48.565819;12.10093;OMV;92;Altdorf, Am Aicher Feld 1;Altdorf;Am Aicher Feld 1;84032;+49(871)95389336;0:00 - 24:00;;;;;OK;
21537;49.31377;12.15885;OMV;92;Wackersdorf, Richtfeld 1;Wackersdorf;Richtfeld, Alberndorf;92442;+49(9431)7979145;0:00 - 24:00;;;;;OK;
21556;50.749966;13.062165;Star;95;769 Zschopau;Zschopau;Chemnitzer Str. 91;9405;+49 3725 22244;05:00 - 23:00;;;;;OK;
21569;50.852146;12.88776;Star;95;744 Chemnitz;Chemnitz;Leipziger Straße 124;9114;+49 371 372872;05:00 - 23:00;;;4dc8178552b1e8f9f812ee58;;OK;
21571;51.004978;13.78852;Star;95;760 Dresden;Dresden;Dohnaer Straße 184;1239;+49 351 2845561;00:00 - 23:59;;;4f6c9c48e4b058b4bfddc49f;0;OK;
21572;50.729542;12.697065;Star;95;764 Oelsnitz;Oelsnitz;Bahnhofstraße 64;9376;+49 37298 2421;05:00 - 23:00;;;;0;OK;
21585;50.600018;12.624171;Star;95;756 Schneeberg;Schneeberg;Bruno-Dost-Straße 31;8289;+49 3772 28636;00:00 - 23:59;;;5282490711d2cf5a3ac8ce95;;OK;
21586;50.579758;12.71344;Star;95;766 Aue;Aue;Schwarzenberger Straße 89;8280;+49 3771 257239;05:00 - 23:00;;;;0;OK;
21587;50.713646;12.371828;Star;95;762 Fraureuth;Fraureuth;Werdauer Straße 26;8427;+49 3761 2652;05:00 - 23:00;;;;;OK;
21592;50.492851;12.128616;Star;95;749 Plauen;Plauen;Trockentalstraße 37;8523;+49 3741 708157;00:00 - 23:59;;;;;OK;
21595;50.907864;13.054327;Star;95;729 Frankenberg;Frankenberg;Äußere Freiberger Straße 29a;9669;+49 37206 4157;05:00 - 22:00;;;50e40d3ce4b083ca8e8ae51f;0;OK;
21599;51.050095;13.670007;Star;95;774 Dresden;Dresden;Coventrystraße 10;1169;+49 351 4161540;00:00 - 23:59;;;4e804fba9adff098b9ff58c7;0;OK;
21600;51.023811;13.772607;Star;95;743 Dresden;Dresden;Reicker Straße 35;1219;+49 351 2880114;05:00 - 23:00;;;;;OK;
21605;51.016052;13.770919;Orlen;93;726 Dresden;Dresden;Dohnaer Straße 90;1219;+49 351 4723559;05:00 - 23:00;;;5314d675498e32f2d6e5efd2;;OK;
21607;49.343643;12.537007;Бензиностанция;20;FREIE Station;Rötz;Ostmarkstr. 10;92444;997694070;;;;;;OK;
21624;50.893406;12.334887;Star;95;752 Schmölln;Schmölln;Ronneburger Straße 116;4626;+49 34491 23684;06:00 - 22:00;;;;;OK;
21670;50.792694;12.905639;Star;95;739 Chemnitz;Chemnitz;Wolgograder Allee 2a;9123;+49 371 2820764;06:00 - 22:00;;;52c92dbe498e34826ff5a564;;OK;
21675;50.8009;12.899124;Star;95;724 Chemnitz;Chemnitz;Helbersdorfer Straße 95;9120;+49 371 2806840;05:00 - 22:00;;;;;OK;
21676;50.829296;12.940323;Star;95;723 Chemnitz;Chemnitz;Clausstraße 7;9126;+49 371 5702161;06:00 - 23:00;;;;;OK;
21677;50.969364;14.251574;Star;95;772 Sebnitz;Sebnitz;Hohnsteiner Straße 2;1855;+49 35971 52660;05:00 - 22:00;;;;;OK;
21722;50.602486;12.319708;Бензиностанция;20;FREIE Station;Unterheinsdorf;Gewerbering 9;8468;3765717373;;;;;;OK;
21729;49.805359;12.18751;Бензиностанция;20;FREIE Station;Windischeschenbach;Am Gewerbepark 2a;92670;961390070;0:00 - 24:00;;;;;OK;
21754;50.864296;13.057561;Star;95;728 Flöha;Flöha;Chemnitzer Straße 14B;9557;+49 3726 704750;05:00 - 22:00;;;4ed3ba456c2510ace4ce1408;0;OK;
21771;49.882359;12.3264;OMV;92;Tirschenreuth, Mitterteicher Strasse 11;Tirschenreuth;Mitterteicher Straße 11;95643;96311706;Okt.-April: Mo-So 06:00-22:00, Mai-Sept.: Mo-So 06:00 -24:00;;;;;OK;
21773;48.58712;13.48166;OMV;92;Passau, Alte Str. 37;Passau;Alte Straße 39;94034;85142985;Mo-So 06:00-22:00;;;;;OK;
21776;50.871929;12.969541;Star;95;742 Chemnitz;Chemnitz;Frankenberger Straße 283;9131;+49 371 419685;05:00 - 22:00;;;4e99bf78b8f77b7a995213a8;;OK;
21780;50.830635;12.957711;Star;95;722 Chemnitz;Chemnitz;Augustusburger Straße 224;9127;+49 371 729117;05:00 - 23:00;;;4f9ea7d5e4b030992bdb15c1;;OK;
21795;50.981342;13.926429;Jet;91;Marcus Schulze;Pirna;Äußere Pillnitzer Straße 18 B;1796;03501-5850151;04:30-22:00;;;4fcb606ee4b0e33fd4bf8164;;OK;
21869;49.122993;12.127821;Avia;85;Station;Regenstauf;An der Hasler Zell 3;93128;;0:00 - 24:00;;;;;OK;
21877;50.730057;12.910271;Бензиностанция;20;ELAN Station;Burkhardtsdorf;Obere Hauptstr. 44;9235;3721268370;;;;;;OK;
22018;48.842388;13.07117;OMV;92;Schaufling, Hauptstr. 19;Schaufling;Hauptstr. 19;94571;9904503;"Mo-Fr 07:30-19:00; Sa 08:00-19:00; So 09:00-18:00";;;;;OK;
22037;49.728168;12.16576;OMV;92;Neustadt, Bahnhofstr. 6;Neustadt an der Waldnaab;Bahnhofstr. 6;92660;96021496;Mo-So 06:00-23:00;;;;;OK;
22040;48.676979;12.68942;OMV;92;Landau, Straubinger Str. 9;Landau;Straubinger Str. 9;94405;9951590121;Mo-So 06:00-22:00;;;;;OK;
22101;48.974281;12.75479;OMV;92;Neukirchen, Bayerwaldstr. 2;Neukirchen;Bayerwaldstr. 2;94362;996194090;Mo-Sa 07:00-19:00, So 08:00-19:00;;;;;OK;
22102;51.028419;13.801006;eni;83;Dresden-Seidnitz-Dobritz;Dresden;Enderstr. 92 e;1277;35125020192;05.00.00 - 23.00.00;;;;;OK;
22123;50.59671;12.647588;Star;95;717 Schneeberg;Schneeberg;Auerstr. 10;8289;3772350625;06.00.00 - 20.00.00;;;;;OK;
22142;48.783905;12.859899;Бензиностанция;20;BILLMEIER Station;Platting;Straubinger Str. 64;94447;99316555;;;;;;OK;
22154;50.787552;12.875322;Бензиностанция;20;BFT Station;Chemnitz;Stollberger Str. 265;9122;;;;;;;OK;
22183;48.555901;13.63169;Shell;94;Obernzell, Passauer Str;Obernzell;Passauer Str. 5;94130;+49 8591 9398050;06:00 - 19:45;;;;;OK;
22185;48.734787;12.967644;Бензиностанция;20;AHR Station;Moos;Bundesstr. 46;94554;9938919595;;;;;;OK;
22208;50.542957;12.915756;Бензиностанция;20;FREIE Station;Scheibenberg;Silberstr. 2 a;9481;373496590;0:00 - 24:00;;;;;OK;
22300;50.851845;12.775052;Бензиностанция;20;ELAN Station;Limbach-Oberfrohna;Hohensteiner Str. 72;9212;372296346;0:00 - 24:00;;;;;OK;
22581;50.924965;12.813781;Avia;85;-Tankstelle;Burgstädt;Mohsdorfer Straße 75;9217;03724/3025;Mo. - Fr. 06:00 - 20:30, Sa. 07:00 - 20:30, So. 08:00 - 20:30;;;;;OK;
22794;49.057129;12.127919;eni;83;Regensburg-Sallern;Regensburg;Coburger Str. 21;93057;941;0:00 - 24:00;;;;;OK;
22949;48.995396;12.233567;Total;97;Rosenhof;Barbing;Fraunhoferstraße 1-3;93092;94015278911;0:00 - 24:00;;;;;OK;
22975;50.84594;12.94071;Бензиностанция;20;BFT Station;Chemnitz;Dresdener Str. 116;9130;3514019637;;;;;;OK;
22981;50.625393;12.937136;Бензиностанция;20;BAYWA Station;Geyer;An der Morgensonne 24;9468;373466134;0:00 - 24:00;;;;;OK;
22988;50.776947;12.926268;Бензиностанция;20;BAYWA Station;Chemnitz;Annaberger Str. 489;9125;3715308895;;;;;;OK;
23011;49.842781;12.16821;Esso;88;Station Waldnaabtal West;Windischeschenbach;A 93;92670;;0:00 - 24:00;;;;;OK;
23018;51.012882;13.798968;Бензиностанция;20;SB TANK Station;Dresden;Seidnitzer Weg 2;1237;3512848608;0:00 - 24:00;;;;;OK;
23156;50.886642;12.136935;Бензиностанция;20;GLOBUS Station;Gera;An der Beerweinschänke 2;7554;0365 4340-255;0:00 - 24:00;;;;;OK;
23171;50.438511;12.090958;Бензиностанция;20;GLOBUS Station;Weischlitz;Taltitzer Str. 80;8538;;0:00 - 24:00;;;;;OK;
23194;49.203133;12.739526;Бензиностанция;20;FREIE Station;Chamerau;In der Grube 4;93466;9944340815;;;;;;OK;
23641;50.59594;12.707318;Total;97;Aue;Aue;Lößnitzer Str. 87;8280;1629641510;05.00.00 - 22.00.00;;;;;OK;
23736;50.717239;12.112031;Esso;88;Langenwetzendorf-Wildetaube;Langenwetzendorf-Wildetau;An der B 92 2;7957;3662531320;05.00.00 - 21.00.00;;;;;OK;
23760;51.058617;12.12311;Бензиностанция;20;BFT Station;Zeitz;Naumburger Str. 46;6712;34412757330;;;;;;OK;
23805;50.872692;12.908223;Jet;91;Diana Heubner;Chemnitz;Chemnitztalstr. 197;9114;0371 45845751;05:00-22:00;;;;;OK;
23837;48.641209;12.463314;Total;97;Dingolfing;Dingolfing;Alemannenstr. 1;84130;87313099830;06.00.00 - 22.00.00;;;;;OK;
23927;48.613937;12.21921;Shell;94;Essenbach, Regensburger Str. 4;Essenbach;Regensburger Str. 4;84051;+49 8703 91447;05:00 - 21:00;;;;;OK;
23978;48.681892;13.295139;Бензиностанция;20;Freie Station;Aicha vorm Wald;Sommerweide 2;94529;8544916501;;;;;;OK;
32725;50.978977;17.070641;Бензиностанция;20;DOMAGALA;Zorawina;Wojkowice;55-020;713165909;0:00 - 24:00;;;62a1cbc5cd834350d76fa74a;;OK;
32978;50.827854;16.305229;Lotos;116;Walbrzych;Walbrzych;Wroclawska 144;58-309;748408365;0:00 - 24:00;;;;;OK;
33131;50.090878;18.575794;Lotos;116;Station;Rybnik;Zorska 83;44-203;324237443;0:00 - 24:00;;;;;OK;
33331;50.093487;18.765368;Lotos;116;Station;Woszczyce;Woszczyce;43-188;322215601;0:00 - 24:00;;;;;OK;
33805;50.446602;16.8675;Bliska;180;Złoty Stok;Złoty Stok;Sudecka 22;57-250;+48 24 256 1523;;;;;;OK;
34483;50.885124;17.198063;MOYA;181;Brzezimierz;Brzezimierz;Brzezimierz 15;55-216;+48 71 301 66 00;0:00 - 24:00;;;;0;OK;
34488;50.844273;17.253448;Lotos;116;Kalinowa;Witowice;A4 181Km Mop Witowice;55-200;505192803;0:00 - 24:00;;;;;OK;
34489;50.845776;17.254446;Lotos;116;Olesnica;Olesnica;A4 181Km Mop Olesnica;55-200;;0:00 - 24:00;;;;;OK;
34490;50.31142;18.549622;Lotos;116;Rachowice;Rachowice;A4 300Km Mop Rachowice;44-156;;0:00 - 24:00;;;;;OK;
34491;50.311512;18.551966;Lotos;116;Kozlow;Kozlow;A4 300Km Mop Kozlów;44-156;;0:00 - 24:00;;;;;OK;
34572;50.890198;14.831349;Бензиностанция;20;KDM Station;Sieniawka;Mostowa 1;59-921;757738131;0:00 - 24:00;;;;;OK;
35048;50.142906;18.632778;Circle K;120;Express Aut Czerwionka Leszcz.;Czerwionka Leszczyny;ul. Księdza Pojdy 35B;44-238;48222552255;00.00-24.00;;;;;OK;
35050;50.052258;18.469912;Circle K;120;Express Aut Radlin, Hallera;Radlin;ul. Hallera 17;44-310;48222552255;00.00-24.00;;;;;OK;
35052;50.270706;18.831615;Circle K;120;Express Ruda Slaska, Ks. Niedz.;Ruda Śląska;ul. Księdza Niedzieli/Na Piaski;41-710;48222552255;00.00-24.00;;;;;OK;
35059;50.012642;18.435726;Circle K;120;Express Wodzislaw Sl., Pszowska;Wodzisław Śląski;ul. Pszowska 162;44-373;48222552255;00.00-24.00;;;;;OK;
35138;50.323322;18.771242;AMIC Energy;117;Zabrze Korfantego;Zabrze;Korfantego 15;41-800;32 721 28 68;0:00 - 24:00;;;;0;OK;
35158;50.28368;18.679043;AMIC Energy;117;Gliwice;Gliwice;Pszczyńska 100A;44-100;32 721 28 76;0:00 - 24:00;;;;;OK;
35171;50.916618;15.754339;AMIC Energy;117;Jelenia Góra Jana Pawła;Jelenia Góra;Jana Pawła II 22;58-506;75 613 16 03;0:00 - 24:00;;;5d0f4148a7edf800234d4a46;;OK;
35173;51.046848;16.959721;AMIC Energy;117;Wrocław Ikea;Kobierzyce;Bielany Wrocławskie Czekoladowa 16;55-040;71 722 44 98;0:00 - 24:00;;;5107f10c7e2745d3c7c5be1c;0;OK;
35189;50.089012;18.532768;AMIC Energy;117;Rybnik Wodzisławska;Rybnik;Wodzisławska/Reymonta;44-200;32 721 28 90;0:00 - 24:00;;;4fb635ece4b039c1e7433823;0;OK;
35191;50.880497;16.5854;AMIC Energy;117;Marcinowice;Marcinowice;Wrocławska 12;58-124;74 632 11 12;0:00 - 24:00;;;;;OK;
35317;50.319412;17.387653;MOYA;181;Głuchołazy;Głuchołazy;Grunwaldzka 3A;48-340;77 43 91 366;0:00 - 24:00;;;;;OK;
35319;50.408123;16.432522;MOYA;181;Szczytna;Szczytna;Robotnicza 13;57-330;74 868 32 27;7:00-20:00;;;;0;OK;
35452;49.76646;18.652859;Бензиностанция;20;ARGE Station;Cieszyn;Graniczna 50;43-400;;0:00 - 24:00;;;;;OK;
35457;50.72047;18.44772;MOYA;181;Dobrodzień;Dobrodzień;ul. Piastowska 39B;46-380;726 338 659;0:00 - 24:00;;;;;OK;
35522;49.958549;18.665922;MOYA;181;Jastrzębie Zdrój;Jastrzębie Zdrój;Świerczewskiego 1;44-336;32 47 57 818, fax;0:00 - 24:00;;;;;OK;
35570;50.074108;18.66221;Lotos;116;Station MOP A1;Rowien;MOP A1 Rowien;44-240;519075859;0:00 - 24:00;;;;;OK;
35643;50.464104;17.972887;Lotos;116;Krapkowice;Krapkowice;ul. Kozielska 17;47-300;;0:00 - 24:00;;;555746cb498ebc6387d0cb13;0;OK;
35811;50.953632;16.776293;Total;121;Sobotka;Sobotka;ul. Lotnicza 6;55-050;71317180;0:00 - 24:00;;;;;OK;
35833;51.039627;17.062069;Lotos;116;Station;Zerniki Wroclawskie;ul. Zasluczanska 2;55-010;;0:00 - 24:00;;;;;OK;
35888;48.613655;17.013952;Slovnaft;144;Sekule I.;Sekule;Diaľnica D2 - smer Bratislava;908 80;421347770500;00:00-24:00;;;4c5bccdf2815c928505ab067;0;OK;
35889;48.895008;18.008232;Slovnaft;144;Trenčín - Záblatie;Trenčín - Záblatie;Bratislavská 57/135;911 05;421326522587;05:00-23:00;;;;0;OK;
35892;49.211357;18.780146;Slovnaft;144;Žilina - Šibenice;Žilina;Košická 20;010 01;421415650116;0:00-24:00;;;;;OK;
35896;48.583675;17.814857;Slovnaft;144;Piešťany - Bratislavská;Piešťany;Bratislavská 6650/136;921 01;421337729397;6:00-22:00;;;4f5b28ede4b0a4baa23b6eb7;0;OK;
35905;49.227482;18.724297;Slovnaft;144;Žilina - Montáža;Žilina;Kragujevská 19;010 01;421415653123;6:00-22:00;;;534efb7c11d2cbbde21bda4d;0;OK;
35914;48.724148;18.554012;Slovnaft;144;Nováky;Nováky;Trenčianska;972 71;421465462725;00:00-24:00;;;;;OK;
35923;48.648853;17.01198;Slovnaft;144;Kúty;Kúty;Bratislavská;908 01;421346597477;6:00-22:00;;;507ce027e4b0a1047f9d7074;;OK;
35932;48.674328;17.368641;Slovnaft;144;Senica;Senica;Vajanského 25;905 01;421346514043;0:00-24:00;;;;;OK;
35935;48.616051;17.011618;Slovnaft;144;Sekule II.;Sekule II.;Diaľnica D2 - smer Brno;908 80;421347770118;00:00-24:00;;;5269134e11d2b12c4ecad08f;;OK;
35939;48.913788;18.054699;Slovnaft;144;Trenčín - Zamarovce;Trenčín;Zamarovská - Diaľnica D1 smer Bratislava;911 05;421327430179;0:00-24:00;;;4dc02e534df0f8fd6b96d63f;;OK;
35941;48.713348;18.255285;Slovnaft;144;Bánovce nad Bebravou;Bánovce nad Bebravou;Trenčianska 1232/2;957 01;421387602726;0:00-24:00;;;507575e4498eefbc153a535a;0;OK;
35952;48.629028;18.377256;Slovnaft;144;Partizánske;Partizánske;Nitrianska 1548/106;958 01;421387497281;5:00-23:00;;;4e074314315117c55a20ab17;0;OK;
35954;49.114914;18.311325;Slovnaft;144;Púchov - Streženická;Púchov;Streženická cesta 1023/3;020 01;421424642920;6:00-22:00;;;;;OK;
35962;48.614506;17.835085;Slovnaft;144;Piešťany - Letisko;Piešťany;Žilinská cesta 601/114;921 01;421337744864;06:00-21:00;;;;;OK;
35986;49.111969;18.437756;Slovnaft;144;Považská Bystrica;Považská Bystrica;Sládkovičova;017 01;421424340358;6:00-22:00;;;;;OK;
35987;48.993443;18.225756;Slovnaft;144;Ilava - Štúrova;Ilava;Štúrova;019 01;421424443811;05:00-23:00;;;;;OK;
35990;48.785774;18.628941;Slovnaft;144;Prievidza - Necpaly;Prievidza;Nedožerská;971 01;421465418702;0:00-24:00;;;;;OK;
35991;49.129875;18.331535;Slovnaft;144;Púchov - Sedlište;Púchov;Nimnická;020 61;421424633714;06:00-22:00;;;;;OK;
36002;48.841084;17.218107;Slovnaft;144;Skalica;Skalica;Mallého 944/54;909 01;421346644452;00:00-24:00;;;;;OK;
36057;48.742256;17.559942;Slovnaft;144;Myjava;Myjava;Brezovská 14;907 01;421346212005;05:00-21:00;;;;;OK;
36091;48.653282;17.535442;Slovnaft;144;Brezová pod Bradlom;Brezová pod Bradlom;Staničná 158;906 13;421346242385;5:00-21:00;;;4dfde0e581dccc7b739ea59d;0;OK;
36093;48.964176;18.179701;Slovnaft;144;Dubnica nad Váhom;Dubnica nad Váhom;Továrenská 18;018 41;421424421342;05:00-23:00;;;;;OK;
36095;48.897007;18.032473;Slovnaft;144;Trenčín - Za mostami;Trenčín;Bratislavská;911 01;421327434176;06:00-22:00;;;;;OK;
36096;48.894588;18.064465;Slovnaft;144;Trenčín - Žemberov dom;Trenčín;Gen. M. R. Štefánika;911 01;421327440184;0:00-24:00;;;;;OK;
36103;48.61401;17.735826;Slovnaft;144;Vrbové;Vrbové;Piešťanská 50;922 03;421337791720;6:00-22:00;;;;;OK;
36110;48.601616;18.841631;Slovnaft;144;Žiar nad Hronom - SNP;Žiar nad Hronom;ul. SNP 616;965 01;421456734254;05:00-23:00;;;4f7f37f0e4b0c2f76448d46a;0;OK;
36112;49.212776;18.750713;Slovnaft;144;Žilina - Vysokoškolákov;Žilina;Vysokoškolákov 58;010 01;421415653988;0:00-24:00;;;;;OK;
36115;48.760983;18.61657;Slovnaft;144;Prievidza - Moštenica;Prievidza;Moštěnická 2586/1;971 01;421465422415;6:00-20:00;;;;;OK;
36167;49.069889;18.399483;Slovnaft;144;Sverepec;Sverepec;Diaľnica D1 - smer Žilina;017 01;421424320067;0:00-24:00;;;;;OK;
36206;48.590118;17.80184;Slovnaft;144;Piešťany - Vrbovská;Piešťany;Vrbovská cesta;921 01;421333219930;05:00-23:00;;;;;OK;
36221;48.876106;18.02482;Slovnaft;144;Trenčín - Električná;Trenčín;Električná 3041;911 01;421323219930;0:00-24:00;;;56d55b30498e6fce5bb567d8;0;OK;
38939;50.070011;14.53104;OMV;58;Praha 10, Štěrboholská radiála;Praha 10;Sterboholská radiála-smer Cerny Mos;10000;272700331;0:00 - 24:00;;;;;OK;
38941;49.73571;13.32817;OMV;58;Plzeň, Domažlická 168;Plzen;Domazlická 168;30117;377322763;0:00 - 24:00;;;;;OK;
41988;49.01289;12.13944;Total;97;Regensburg-Ostenviertel;Regensburg-Ostenviertel;Osterhofener Strasse 1;93055;(09 41) 59 87 45 6;06.00.00 - 22.00.00;;;;;OK;
42016;50.444294;12.727814;Star;95;23 Johanngeorgenstadt;Johanngeorgenstadt;Schwarzenberger Straße 81;8349;+49 3773 50488;05:00 - 21:00;;;;;OK;
42017;50.712841;12.76417;Star;95;736 Stollberg;Stollberg;Hohensteiner Straße 58;9366;+49 37296 83958;05:00 - 23:00;;;577f434e498ecca449349b69;;OK;
42024;50.837688;12.89694;Total;97;Chemnitz-Kaßberg;Chemnitz-Altendorf;Limbacher Strasse 58;9113;(03 71) 3 36 38 73;05.30.00 - 21.00.00;;;;;OK;
42030;50.589748;13.01363;Total;97;Annaberg-Buchholz;Annaberg-Buchholz;Dresdner Strasse 5;9456;(0 37 33) 5 34 17;05.00.00 - 23.00.00;;;;;OK;
42079;50.764248;13.757479;Star;95;770 Altenberg;Altenberg;Dresdner Straße 15;1773;+49 35056 35800;05:00 - 22:00;;;5586efdd498e3b3826cec034;0;OK;
42081;51.006962;13.809877;Total;97;Dresden-Niedersedlitz;Dresden;Langer Weg 17;1257;0351 2753023;05:00 - 21:00;;;4ede005b30f83fb7a0d79714;0;OK;
42083;50.972397;13.863728;Star;95;661 Heidenau;Heidenau;Hauptstraße 7;1809;+49 3529 517565;05:00 - 22:00;;;;0;OK;
42194;50.68055;12.59272;Total;97;Wildenfels-Härtensdorf;Wildenfels;Arno-Schmidt-Strasse 28 a;8134;(03 76 03) 55 07 1;0:00 - 24:00;;;57ddc88a498e3037b401ad62;9880076;OK;
42384;50.005222;14.563279;Бензиностанция;20;Pumpa Průhonice;Průhonice;D1 směr Praha - Brno;252 43;420 222 976 750;00:00-24:00;;;61b34e4b8b999d32238b539f;;OK;
42500;48.728924;18.246107;Slovnaft;144;Bánovce nad Bebravou - Trenčianska II.;Bánovce nad Bebravou;Trenčianska cesta 1512/2;957 01;421383219930;05:00-23:00;;;56d55da5498e30f575331243;0;OK;
42502;49.231075;18.739992;Slovnaft;144;Žilina - Kysucká;Žilina;Kysucká cesta 19;010 01;421413219960;0:00-24:00;;;56d55c63498eae82c1dde23f;;OK;
42507;49.112499;18.448244;Slovnaft;144;Považská Bystrica - Slovenských partizánov;Povazská Bystrica;Partizánska 517;017 01;421423219930;0:00-24:00;;;56d5591c498e1cb0262b2811;;OK;
42522;48.800728;17.161737;Slovnaft;144;Holíč - Bratislavská;Holíč;Bratislavská 3076;908 51;421343219930;0:00-24:00;;;4e4a07b6fa76a0c058cb8332;0;OK;
49018;48.558926;12.16548;Бензиностанция;20;SPRINT Station;Ergolding;Neue Regensburger Str. 27;84030;0871 71130;;;;;;OK;
49083;49.206566;12.66675;Avia;85;Tankstelle;Cham;Werner-von-Siemens-Straße 12;93413;09971/3687;Mo. - Fr. 05:00 - 21:30, Sa. 07:00 - 21:30, So. 08:00 - 21:30, 24h Tankautomat;;;;;OK;
49125;50.709209;12.464836;HEM;90;Station;Zwickau;Reichenbacher Str. 142a;8056;0375 / 215050;05:00 - 23:00;;;;;OK;
49151;48.87001;12.573579;Jet;91;Oliver Voest;Straubing;Landshuter Straße 82;94315;09421 913127;06:00-23:00;;;50793298e4b0753d595518bc;;OK;
49160;50.548065;12.772808;Бензиностанция;20;Q1 Station;Schwarzenberg;Straße der Einheit 126;8340;03774 15940;;;;;;OK;
49166;51.00626;13.819978;Бензиностанция;20;SPRINT;Dresden;Straße des 17. Juni 11;1257;0351 2025317;0:00 - 24:00;;;4fc8b9b8e4b0efc1d5607f82;;OK;
49222;49.227795;18.722759;Slovnaft;144;Žilina - Kragujevská (Komsomolcov);Žilina;Kragujevská;010 01;421415640674;0:00-24:00;;;4c4c92839e6dbe9a022fb20d;0;OK;
49459;48.689686;13.212997;Avia;85;Diermeier Top Tank;Eging am See;Rannetsreit 4;94535;+49 8544 91141;;;;55e4a000498eb05c65b84e47;;OK;
49482;50.845718;17.474638;Circle K;120;Statoil 1-2-3 Brzeg, Starobrzeska;Brzeg;ul. Starobrzeska 28A;49-305;48222552255;00.00-24.00;;;;;OK;
51006;51.0238;17.152765;Бензиностанция;20; Dyskont Paliwowy Siechnice;Siechnice;ul. Opolska 30;55-011;560 452175;0:00 - 24:00;;;;;OK;
51068;50.819881;12.407282;Star;95;824 Crimmitschau;Crimmitschau;Glauchauer Landstraße 95;8451;+49 3762 91101;00:00 - 23:59;;;;;OK;
51454;50.22736;12.745115;Бензиностанция;20;KM-PRONA Station;Chodov;Horni 1071;357 35;420354422158;0:00 - 24:00;;;55e85933498ebb47a41a6da3;;OK;
51469;50.070545;14.541362;Бензиностанция;20;ONO ČS Praha -  Štěrboholy;Praha 10;Cernokostelecka 327;102 00;724305485;0:00 - 24:00;;;57020bf7498ee224512c31da;;OK;
51914;48.844685;18.033487;Slovnaft;144;Trenčianska Turná;Trenčianska Turná;Trenčianska Turná 973;913 21;421323219950;0:00-24:00;;;56d55a6fcd1035fe78940fcf;0;OK;
51916;48.780479;18.621061;Slovnaft;144;Prievidza - Rad L.N.Tolstého;Prievidza;Rad L. N. Tolstého 811/18;971 01;421463219930;6:00-22:00;;;507183eae4b09a19d7fc48a0;0;OK;
51944;49.028416;12.107615;Avia;85;Tankstelle;Regensburg;Frankenstraße 4;93059;0941/464320;Mo. - Fr. 05:00 - 24:00, Sa. 05:00 - 24:00, So. 05:00 - 24:00;;;4ddca90422713339cd1b309e;0;OK;
51994;49.116173;12.113014;Avia;85;Tankstelle;Regenstauf;An der Hasler Zell 3;93128;09402/9480810;Mo. 05:00 - 23:00, Di. 05:00 - 23:00, Mi. 05:00 - 23:00, Do. 05:00 - 22:00, Fr. 05:00 - 23:00, Sa. 06:00 - 22:00, So. 07:00 - 22:00, 24h Tankautomat;;;;;OK;
52502;48.602169;16.90004;OMV;55;Hohenau an der March, Bernsteinstraße 6;Hohenau an der March;Bernsteinstraße 6;2273;+43(2535)2130;Mo-So 06:00-22:00;;;;;OK;
52503;48.6437;15.82231;OMV;55;Eggenburg, Grafenberger Straße 8;Eggenburg;Grafenberger Straße 8;3730;+43(2984)3367;Mo-So 06:00-22:00;;;;;OK;
52606;50.061161;14.42774;OMV;58;Praha 4, tř. 5. května 65;Praha;tř. 5. května 65;140 00;+420-261219789;00:00 - 24:00;;;4de39cad52b1d38d29893faa;0;OK;
52607;50.111649;14.44554;OMV;58;Praha 7, Argentinská 42;Praha 7;Argentinská 42;170 00;+420-283870609;00:00 - 24:00;;;;;OK;
52608;50.082809;14.47165;OMV;58;Praha 3, Jana Želivského 113;Praha 3;Jana Želivského 113;130 00;+420-222591764;00:00 - 24:00;;;;;OK;
52609;50.051071;14.446582;OMV;58;Praha 4, 5. května (směr do centra);Praha;5. května (směr do centra);140 00;+420-241481104;00:00 - 24:00;;;4c402d9bcc410f47de36a961;0;OK;
52610;50.112591;14.47907;OMV;58;Praha 8 - Prosek, Prosecká 674;Praha 8 - Prosek;Prosecká 674;190 00;+420-284842983;00:00 - 24:00;;;;;OK;
52611;50.05547;14.47139;OMV;58;Praha 4, Chodovská;Praha 4;Chodovská;141 00;+420-272760441;00:00 - 24:00;;;;;OK;
52614;50.054901;14.34162;OMV;58;Praha 5, Bucharova 1093/20;Praha 5;Bucharova 1093/20;155 00;+420-235510716;00:00 - 24:00;;;;;OK;
52615;50.103699;14.51695;OMV;58;Praha 9, Poděbradská 29;Praha 9;Poděbradská 29;190 00;+420-284818701;06-22;;;;;OK;
52616;50.024551;14.44172;OMV;58;Praha 4-Lhotka, Zálesí 100;Praha 4-Lhotka;Zálesí 100;142 00;+420-241495002;00:00 - 24:00;;;;;OK;
52617;50.022308;14.39347;OMV;58;Praha 5, Strakonická;Praha 5;Strakonická;150 00;+420-251681685;00:00 - 24:00;;;;;OK;
52618;50.07547;14.31286;OMV;58;Praha 6 Řepy, Karlovarská 47;Praha 6 Řepy;Karlovarská 47;163 00;+420-235319252;00:00 - 24:00;;;;;OK;
52619;50.026661;14.36505;OMV;58;Praha 5, K Barrandovu 1053/10;Praha 5;K Barrandovu 1053/10;152 00;+420-251810754;00:00 - 24:00;;;;;OK;
52620;50.016491;14.40267;OMV;58;Praha 4, Čs. exilu 1912/2;Praha 4;Čs. exilu 1912/2;143 00;774988989;00:00 - 24:00;;;;;OK;
52621;50.014542;14.42536;OMV;58;Ptaha 4, Lhotecká;Praha 4;Lhotecká;143 00;+420-241770065;00:00 - 24:00;;;4ce9038b8f8b2d4325600e83;0;OK;
52622;50.066441;14.30901;OMV;58;Praha 6, Slánská;Praha 6;Slánská;163 00;+420-235302326;00:00 - 24:00;;;;;OK;
52623;50.040031;14.51128;OMV;58;Praha 4, K Horkám 924/2;Praha 4;K Horkám 924/2;149 00;+420-272940816;00:00 - 24:00;;;;;OK;
52624;50.07756;14.53894;OMV;58;Praha, Průmyslová 614;Praha;Průmyslová 614;108 00;+420-272701874;00:00 - 24:00;;;;;OK;
52625;50.12899;14.54423;OMV;58;Praha 9 - Kbely, Mladoboleslavská;Praha 9 - Kbely;Mladoboleslavská;197 21;+420-286580411;00:00 - 24:00;;;;;OK;
52626;50.07814;14.64814;OMV;58;Praha 9- Újezd nad Lesy, Starokolínská;Praha 9- Újezd nad Lesy;Starokolínská;190 16;+420-281971711;00:00 - 24:00;;;;;OK;
52627;50.126369;14.12027;OMV;58;Kladno, Americká;Kladno;Americká;272 01;+420-312684059;00:00 - 24:00;;;;;OK;
52628;50.14389;14.12473;OMV;58;Kladno, Kročehlavská;Kladno;Kročehlavská;272 03;+420-312680358;00:00 - 24:00;;;;;OK;
;;;;;;;;;;;;;;;ERROR;missing_id
52630;49.952099;14.04749;OMV;58;Beroun, Plzeňská;Beroun;Plzeňská;266 04;+420-311626651;00:00 - 24:00;;;;;OK;
52631;49.793449;14.68102;OMV;58;Benešov, Červené vršky 2113;Benešov;Červené vršky 2113;256 01;+420-317727796;00:00 - 24:00;;;;;OK;
52632;49.777431;14.68502;OMV;58;Benešov u Prahy, Nádražní 2105;Benesov;Nádražní 2105;256 01;+420-317726651;05-23;;;;;OK;
52633;50.409969;14.93064;OMV;58;Mladá Boleslav, Jičínská;Mladá Boleslav;Jičínská;293 01;+420-326330073;05-23;;;;;OK;
52634;50.410919;14.93544;OMV;58;Mladá Boleslav, Jičínská;Mladá Boleslav;Jičínská;293 01;+420-734491935;00:00 - 24:00;;;;;OK;
52635;50.517799;14.1374;OMV;58;Litoměřice, dálnice D8 - příjezd do Litoměřic;Litoměřice;dálnice D8 - příjezd do Litoměřic;412 01;+420-416739164;00:00 - 24:00;;;;;OK;
52637;50.434326;14.91766;OMV;58;Mladá Boleslav, Havlíčkova;Mladá Boleslav;Havlíčkova;293 01;+420-326721647;5-23;;;4ed22fc5775bbb5f35029210;;OK;
52638;49.695389;14.00691;OMV;58;Příbram, Evropská ul. (směr Praha - Příbram);Příbram;Evropská ul. (směr Praha - Příbram);262 01;+420-318628767;Gastro opening 05-22;;;;;OK;
52639;50.032581;15.17906;OMV;58;Kolín, Pražská;Kolín;Pražská;280 00;+420-321729861;5 a.m.-22 p.m.;;;;;OK;
52640;49.675381;13.98406;OMV;58;Příbram 7, Jana Drdy 528;Příbram 7;Jana Drdy 528;261 02;+420-318631738;6,00-21,00;;;;;OK;
52641;50.040211;15.21321;OMV;58;Kolín 5, Ovčárecká;Kolín 5;Ovčárecká;280 00;+420-321671816;00:00 - 24:00;;;;;OK;
52642;50.31361;13.53278;OMV;58;Žatec, Husova 2921;Žatec;Husova 2921;438 01;+420-415749644;00:00 - 24:00;;;;;OK;
52644;50.765511;14.54174;OMV;58;Nový Bor, B. Egermanna 1003;Nový Bor;B. Egermanna 1003;473 01;+420-487722420;00:00 - 24:00;;;;;OK;
52645;50.65453;13.80682;OMV;58;Dubí, Ruská 277;Dubí;Ruská 277;417 03;+420-774888043;00:00 - 24:00;;;;;OK;
52646;50.434261;15.36393;OMV;58;Jičín, Husova 1094;Jičín;Husova 1094;506 01;+420-493523961;6,00-22,00;;;;;OK;
52647;50.662998;13.7989;OMV;58;Dubí, Ruská;Dubí;Ruská;417 01;+420-417578486;00:00 - 24:00;;;;;OK;
52648;50.775021;14.21351;OMV;58;Děčín, Litoměřická;Děčín;Litoměřická;405 01;+420-412514233;00:00 - 24:00;;;;;OK;
52649;50.785061;14.24055;OMV;58;Děčín, Kamenická 1009;Děčín;Kamenická 1009;405 02;+420-412523560;00:00 - 24:00;;;;;OK;
52650;50.797539;14.40444;OMV;58;Česká Kamenice, Děčínská;Česká Kamenice;Děčínská;407 21;+420-412582032;00:00 - 24:00;;;;;OK;
52651;50.594929;13.60608;OMV;58;Litvínov, Bílý Sloup;Litvínov;Bílý Sloup;436 01;+420-737519380;5:00 - 23:00;;;511b955ce4b06e7c27f813b3;0;OK;
52653;49.766479;13.37416;OMV;58;Plzeň, Lidická;Plzeň;Lidická;323 22;+420-377259451;00:00 - 24:00;;;;;OK;
52654;50.459961;13.40332;OMV;58;Chomutov, V alejích 5381;Chomutov;V alejích 5381;430 03;+420-474686020;00:00 - 24:00;;;;;OK;
52655;50.72871;13.76958;OMV;58;Cínovec, Hraniční přechod;Cínovec;Hraniční přechod;417 32;+420-417888066;7,00-23,00;;;;;OK;
52656;50.811611;13.982462;OMV;58;Petrovice, Petrovice 575;Petrovice;Petrovice 575;403 34;+420-475226130;7:00 - 22:00;;;;0;OK;
52658;50.50861;13.25284;OMV;58;Hora Sv. Šebestiána, Hraniční přechod 68;Hora Sv. Šebestiána;Hraniční přechod 68;431 82;+420-474695200;00:00 - 24:00;;;;;OK;
52659;50.046909;15.76581;OMV;58;Pardubice, Hradecká;Pardubice;Hradecká;530 09;+420-466412595;00:00 - 24:00;;;;;OK;
52660;50.044731;15.76764;OMV;58;Pardubice, Hradecká;Pardubice;Hradecká;530 12;+420-466415450;00:00 - 24:00;;;;;OK;
52661;49.567242;13.32525;OMV;58;Přeštice, Hlávkova 1133;Přeštice;Hlávkova 1133;334 01;+420-377982525;00:00 - 24:00;;;;;OK;
52662;49.602871;15.5766;OMV;58;Havlíčkův Brod, Humpolecká 20;Havlíčkův Brod;Humpolecká 20;580 01;+420-569431130;00:00 - 24:00;;;;;OK;
52663;49.257229;13.91376;OMV;58;Strakonice, Písecká;Strakonice;Písecká;386 01;+420-607065692;Gastro opening 05-22;;;;;OK;
52664;49.93726;15.79562;OMV;58;Chrudim, ul. obce Ležáků;Chrudim;ul. obce Ležáků;537 01;+420-469689115;00:00 - 24:00;;;;;OK;
52665;50.200466;15.83576;OMV;58;Hradec Králové, Sokolská;Hradec Králové;Sokolská;500 12;+420-495264367;00:00 - 24:00;;;4c0a9aaaa1b32d7f479e99f0;;OK;
52666;50.21788;15.83364;OMV;58;Hradec Králové, Okružní;Hradec Králové;Okružní;500 02;+420-495220032;00:00 - 24:00;;;;;OK;
52667;50.42664;15.81574;OMV;58;Dvůr Králové, 17.listopadu;Dvůr Králové;17.listopadu;544 01;+420-499321584;00:00 - 24:00;;;;;OK;
52669;49.769821;15.91968;OMV;58;Hlinsko, Poličská 1365;Hlinsko;Poličská 1365;539 01;+420-469315200;05-23;;;;;OK;
52670;49.406281;15.59162;OMV;58;Jihlava, Okružní;Jihlava;Okružní;586 01;+420-567312750;05-23;;;;;OK;
52671;50.227158;12.846241;OMV;58;Karlovy Vary, Západní;Karlovy Vary;Západní;360 02;+420-353222270;00:00 - 24:00;;;4c9fa6d1e9a7ef3b635c4a16;;OK;
52672;49.135738;15.01886;OMV;58;Jindřichův Hradec, Řečička 870/III;Jindřichův Hradec;Řečička 870/III;377 01;+420-601327703;00:00 - 24:00;;;;;OK;
52673;49.385651;15.59364;OMV;58;Jihlava, Znojemská 4655;Jihlava;Znojemská 4655;586 01;+420-567311216;00:00 - 24:00;;;;;OK;
52675;49.565411;15.91954;OMV;58;Žďár nad Sázavou, Hamry nad Sázavou 366;Žďár nad Sázavou;Hamry nad Sázavou 366;591 01;+420-566628752;05-23;;;;;OK;
52677;50.17625;12.67825;OMV;58;Sokolov, K.H.Borovského 2070;Sokolov;K.H.Borovského 2070;356 05;+420-352627471;00:00 - 24:00;;;;;OK;
52678;48.963772;14.45793;OMV;58;České Budějovice, Pod Stromovkou;České Budějovice;Pod Stromovkou;370 01;+420-387203169;00:00 - 24:00;;;;;OK;
52680;49.297459;13.14874;OMV;58;Nýrsko, U nádraží;Nýrsko;U nádraží;340 22;+420-376571358;00:00 - 24:00;;;;;OK;
52681;48.824772;14.3347;OMV;58;Český Krumlov, Domoradická;Český Krumlov;Domoradická;380 01;+420-380727011;05:00-23:00;;;;;OK;
52682;49.674194;12.561603;OMV;58;Rozvadov, Rozvadov 102;Rozvadov;Rozvadov 102;348 07;374295022;00:00 - 24:00;;;4e32802be4cd6025018cad08;;OK;
52683;49.92889;16.4356;OMV;58;Česká Třebová, Lhotka 215;Česká Třebová;Lhotka 215;560 03;+420-465532714;00:00 - 24:00;;;;;OK;
52685;49.744419;16.478716;OMV;58;Svitavy, kpt. Jaroše 64;Svitavy;kpt. Jaroše 64;568 01;+420-461532888;00:00 - 24:00;;;4d84d56461676dcb61577be4;;OK;
52686;50.21785;12.17671;OMV;58;Aš, Selbská 2732/15;Aš;Selbská 2732/15;352 01;+420-354527000;00:00 - 24:00;;;;;OK;
52687;48.86834;16.033449;OMV;58;Znojmo, Pražská;Znojmo;Pražská;669 02;+420-515244834;00:00 - 24:00;;;;;OK;
52688;48.792271;15.98502;OMV;58;Hnanice, Hnanice 101;Hnanice;Hnanice 101;669 02;+420-515232651;6,00-22,00;;;;;OK;
52689;49.221371;16.58297;OMV;58;Brno, Hradecká;Brno;Hradecká;615 00;+420-541218012;00:00 - 24:00;;;;;OK;
52690;49.215778;16.605141;OMV;58;Brno, Cimburkova 8;Brno;Cimburkova 8;612 00;+420-541218677;00:00 - 24:00;;;;;OK;
52691;49.220692;16.61581;OMV;58;Brno, Porgesova 1;Brno;Porgesova 1;600 10;+420-532045516;00:00 - 24:00;;;;;OK;
52692;49.187939;16.622841;OMV;58;Brno - město, Masná 20;Brno - město;Masná 20;602 00;+420-543256040;00:00 - 24:00;;;;;OK;
52693;49.18988;16.63743;OMV;58;Brno, Olomoucká 19;Brno;Olomoucká 19;618 00;+420-548539192;06-23;;;;;OK;
52694;49.184689;16.64852;OMV;58;Brno, Černovická 1167/36;Brno;Černovická 1167/36;618 00;+420-548530863;5:00-22:00;;;;;OK;
52695;49.199692;16.665091;OMV;58;Brno - město, Jedovnická 2514/15;Brno-Vinorady;Jedovnická 2514/15;628 00;+420-544210497;00:00 - 24:00;;;;;OK;
52696;49.763962;17.111441;OMV;58;Uničov, Litovelská 1170;Uničov;Litovelská 1170;783 91;+420-585051272;6,00-21,00;;;;;OK;
52697;49.47258;17.09169;OMV;58;Prostějov, Plumlovská;Prostějov;Plumlovská;796 01;+420-778059200;00:00 - 24:00;;;;;OK;
52699;49.28421;16.989889;OMV;58;Vyškov, Dědičská 696;Vyškov;Dědičská 696;682 01;+420-517343880;00:00 - 24:00;;;;;OK;
52700;49.267921;16.983219;OMV;58;Vyškov, Brněnská 214;Vyškov;Brněnská 214;682 01;+420-774420779;05:00-22:00;;;;;OK;
52701;49.601822;17.24349;OMV;58;Olomouc, Dolní Hejčínská 30;Olomouc;Dolní Hejčínská 30;772 00;+420-585204090;00:00 - 24:00;;;;;OK;
52702;49.573189;17.23247;OMV;58;Olomouc, Brněnská;Olomouc;Brněnská;779 00;+420-585417954;00:00 - 24:00;;;;;OK;
52703;48.800152;16.785009;OMV;58;Lednice, Nejdecká 608;Lednice;Nejdecká 608;691 44;+420-519340089;00:00 - 24:00;;;;;OK;
52704;49.306068;17.4055;OMV;58;Kroměříž, Hulínská 2353/22;Kroměříž;Hulínská 2353/22;767 01;+420-608173000;00:00 - 24:00;;;;;OK;
52705;48.73502;16.85836;OMV;58;Silnice č.55, Hraniční;Silnice č.55;Hraniční;691 41;+420-519322226;6,00-22,00;;;;;OK;
52706;48.847519;17.072001;OMV;58;Lužice, Lužice, silnice 55;Lužice;Lužice, silnice 55;696 18;+420-518357046;00:00 - 24:00;;;;;OK;
52707;48.851639;17.12118;OMV;58;Hodonín, Velkomoravská;Hodonín;Velkomoravská;695 00;+420-518344855;00:00 - 24:00;;;;;OK;
52709;49.18861;17.52401;OMV;58;Napajedla, Kvítkovická 1569;Napajedla;Kvítkovická 1569;763 61;+420-577923532;00:00 - 24:00;;;;;OK;
52711;49.056351;17.46726;OMV;58;Uherské Hradiště, Tř. mrš. Malinovského 393;Uherské Hradiště;Tř. mrš. Malinovského 393;686 01;+420-572554192;05-23;;;;;OK;
52712;49.215912;17.62298;OMV;58;Zlín - Louky, Tř. Tomáše Bati;Zlin-Louky;Tř. Tomáše Bati;760 01;+420-577102793;00:00 - 24:00;;;;;OK;
52714;49.227661;17.657061;OMV;58;Zlín, Gahurova 5176;Zlín;Gahurova 5176;760 01;+420-577438361;00:00 - 24:00;;;;;OK;
52715;49.018188;17.660231;OMV;58;Uherský Brod, U Korečnice;Uherský Brod;U Korečnice;686 01;+420-572631020;00:00 - 24:00;;;;;OK;
52716;49.794731;18.144785;OMV;58;Klimkovice, Václavovice 93;Klimkovice;Václavovice 93;742 83;+420-556420539;5:00 - 23:00;;;4eaa95f899116a4249e4fd86;7069634;OK;
52718;49.604939;18.135969;OMV;58;Kopřivnice, Obránců míru;Kopřivnice;Obránců míru;742 21;+420-556811405;05-23;;;;;OK;
52719;49.46003;18.128799;OMV;58;Rožnov pod Radhoštěm, Meziříčská;Rožnov pod Radhoštěm;Meziříčská;756 61;+420-571626019;00:00 - 24:00;;;;;OK;
52720;49.840641;18.260429;OMV;58;Ostrava, Mariánskohorská 312;Ostrava;Mariánskohorská 312;709 00;+420-596621290;00:00 - 24:00;;;;;OK;
52723;49.804062;18.287161;OMV;58;Ostrava Kunčice, Rudná;Ostrava-Kuncice;Rudná;719 00;+420-596237015;00:00 - 24:00;;;;;OK;
52725;49.676189;18.328051;OMV;58;Frýdek-Místek, Beskydská;Frýdek-Místek;Beskydská;738 01;+420-558648045;00:00 - 24:00;;;4e6d0ce6091aad548a34a1e6;0;OK;
52726;49.78664;18.4396;OMV;58;Havířov, Moskevská 1480;Havířov;Moskevská 1480;736 01;+420-596811502;00:00 - 24:00;;;;;OK;
52739;48.558632;12.15328;OMV;92;Landshut, Siemensstr. 19;Landshut;Siemensstr. 19;84030;+49(871)140007;Mo-So 00:00-24:00;;;;;OK;
52748;48.82951;12.40066;OMV;92;Geiselhöring, Straubinger Str. 47;Geiselhöring;Straubinger Str. 47;94333;+49(9423)903997;Mo-Sa 07:00-21:30, So 08:00-21:30;;;;;OK;
52749;48.608719;12.71751;OMV;92;Haunersdorf / Simbach, Hauptstr. 4;Haunersdorf-Simbach;Hauptstr. 4;94436;+49(9956)323;Mo-Sa 06:00-21:00, So u. Feiertag 08:00-21:00;;;;;OK;
52750;48.873428;12.57565;OMV;92;Straubing, Industriestr. 16;Straubing;Industriestr. 16;94315;+49(9421)55270;Mo-So 00:00-24:00;;;;;OK;
52755;49.002579;12.82268;OMV;92;St. Englmar, Bayerweg 39;St. Englmar;Bayerweg 39;94379;+49(9965)268;Mo-So 00:00-24:00;;;;;OK;
52762;48.7244;13.38222;OMV;92;Tittling, Passauer Str. 31;Tittling;Passauer Str. 31;94104;+49(8504)1648;Mo-Sa 06:30-20:00, So u. Feiertag 07:00-20:00;;;;;OK;
52763;48.816448;13.3575;OMV;92;Schönberg-Eberhardsreuth, Schönberger Straße 8;Schönberg;Schönberger Straße 8;94513;+49(8554)941013;Mo-Fr 06:00-21:00, Sa 07:00-21:00, So+Feiertag 08:00-21:00;;;;;OK;
52764;48.884548;13.58249;OMV;92;Mauth, Freyunger Str. 11;Mauth;Freyunger Str. 11;94151;+49(8557)448;Mo-Fr 07:30-19:30, Sa 07:30-19:00, So u. Feiertag 09:00-19:00;;;;;OK;
52905;49.173889;16.602737;OMV;58;Brno, Heršpická 11a;Brno;Heršpická 11a;639 00;+420-773013195;00:00 - 24:00;;;51acf2317dd2690e49a010e1;;OK;
52906;49.174728;16.601879;OMV;58;Brno, Heršpická;Brno;Heršpická;639 00;+420-773013189;00:00 - 24:00;;;;;OK;
52910;50.06897;14.3589;OMV;58;Praha 5, Plzeňská - směr do centra;Praha 5;Plzeňská - směr do centra;150 00;+420-257223961;00:00 - 24:00;;;;;OK;
54129;50.575256;12.386935;Aral;84;Präg Mineralöl Gmbh;Lengenfeld;Plohnbachstraße 2;8485;+49 37606 33663;5:00–21:00;;;;;OK;
58772;48.981319;12.149584;HEM;90;Tankstelle;Regensburg;Obertraublinger Str. 101;93055;93055 Regensburg;05:00 - 24:00;;;51360c98e4b05e24f4db985d;0;OK;
59485;50.680019;17.879715;AMIC Energy;117;Opole;Opole;Wrocławska;45-836;77 543 01 17;0:00 - 24:00;;;;0;OK;
59550;50.036667;18.701517;AMIC Energy;117;Żory;Żory;Tadeusza Kościuszki 57;44-240;32 721 28 64;0:00 - 24:00;;;;0;OK;
59551;50.091454;18.573286;AMIC Energy;117;Rybnik Żorska;Rybnik;Żorska 60;44-200;32 721 28 66;0:00 - 24:00;;;4fa2457ae4b0668cabfa5195;0;OK;
59554;49.88023;18.74404;Бензиностанция;20;Dyskont Paliwowy Drogomysl;Drogomysl;ul. Wislanska 41;43-424;48 453 676 023;0:00 - 24:00;;;;;OK;
59890;50.697655;16.638597;MOYA;181;Bielawa;Bielawa;ul. Żeromskiego 5;58-260;;0:00 - 24:00;;;;0;OK;
59908;50.019581;18.579433;MOYA;181;Świerklany;Świerklany;ul. Kościelna 8;44-266;48 785 009 655;0:00 - 24:00;;;;0;OK;
60035;48.789616;15.403272;AVIA;51;Hager René;Groß-Siegharts;Waidhofnerstraße 3a;3812;02847/2065;;;;;0;OK;
62827;50.840946;12.447049;HEM;90;Tankstelle;Meerane;Guteborner Allee 7;8393;03764 / 1859456;05:00 - 23:00;;;;;OK;
63797;51.022919;16.760288;Бензиностанция;20;Dyskont Paliwowy Kąty Wrocławskie;Kąty Wrocławskie;ul. Handlowa 4;55-080;;00:00 - 24:00;;;;;OK;
64583;48.885193;12.614551;HEM;90;Tankstelle;Straubing;Ittlinger Str. 201;94315;09421 / 1857833;05:00 - 22:00;;;;;OK;
65324;49.2388;17.879101;Shell;59;8508 Lutonina;Vizovice;Lutonina;763 12;420 577 456 206;05:00 - 22:00;;;4d28673febacb1f7cbb0f04f;;OK;
81214;51.053902;16.976999;Бензиностанция;20;Auchan Wrocław Kobierzyce;Bielany Wrocławskie;Francuska 6;55-040;48717988615;07:30 - 22:00;;;5006a90ce4b07ec2c1b76915;;OK;
82474;50.55035;16.549044;Бензиностанция;20;Dyskont Paliwowy Nowa Ruda;Nowa Ruda;Slupiecka 9 b;57-402;48 573 866 432;0:00 - 24:00;;;;;OK;
85174;49.117699;18.3148;Shell;64;8230 Puchov;Púchov;Púchov;020 01;+421 42/463 30 15;0:00 - 24:00;;;;;OK;
86832;49.3922;13.2765;Shell;59;8546 Klatovy;Klatovy;Domažlická 846;339 01;420 774 454 148;0:00 - 24:00;;;;;OK;
87009;49.943802;18.4361;Бензиностанция;20;Dyskont Paliwowy Gorzyczki;Łaziska;Powstańców Śląskich 239a;44-340;48 573 866 427;0:00 - 24:00;;;;;OK;
87037;50.163006;12.318368;Бензиностанция;20;ONO ČS Vojtanov;Vojtanov;Horní Vojtanov 39;351 34;420 353 999 654;0:00 - 24:00;;;;;OK;
87301;51.016258;13.80873;Jet;91;Franziska Derkow;Dresden;Breitscheidstr. 34;1237;0351 21666057;06:00-22:00;;;5ac12bfead17896eda25c608;;OK;
87347;48.87616;12.554366;Jet;91;Nicole Wartner;Straubing;Geiselhöringer Str 65;94315;94211857507;06:00-22:00;;;5c54432b121384002c22830b;;OK;
87388;49.742901;12.1787;Jet;91;Gwendolyn Huebner;Neustadt an der Waldnaab;Tirschenreuther Straße 60;92660;09602 9201963;05:00-22:00;;;;;OK;
87395;48.6688;13.4866;Jet;91;Fabian Sawatzky;Hutthurm;Goldener Steig 57;94116;85059163030;05:00-24:00;;;;;OK;
87396;51.016998;13.6709;Jet;91;Bernd Wellnitz;Dresden;Tharandter Straße 200 B;1187;35120501190;05:00-23:00;;;;;OK;
84895;50.987202;13.2747;Shell;94;Grossschirma, Leipziger Str;Grossschirma;Leipziger Str. 5B;9603;+49 37328 16580;05:30 - 22:00;;;;;OK;
84898;48.55014;12.544964;Shell;94;Frontenhausen, Am Kreisverkehr;Frontenhausen;Am Kreisverkehr 1;84160;+49 8732 938892;0:00 - 24:00;;;56461b1e498e1b84698c7647;;OK;
84905;48.621399;13.4778;Shell;94;Salzweg Jaegerroed 2;Salzweg;Jaegerroed 2;94121;+49 851 96689915;05:00 - 21:00;;;59202fa2bfc6d007422a5185;;OK;
84913;48.555698;12.1376;Shell;94;Landshut, Altdorfer;Landshut;Altdorfer Str 34;84030;+49 871 9753550;06:00 - 22:00;;;;;OK;
85149;48.5592;18.167601;Shell;64;8217 Topoľčany;Topoľčany;Martina Rázusa Ul. 50;955 01;+421 38/532 12 76;0:00 - 24:00;;;;;OK;
85157;49.2155;18.745001;Shell;64;8269 Žilina-Vysokoškolákov (I);Žilina;Vysokoškolákov 26;010 01;+421 41/500 38 73;0:00 - 24:00;;;;;OK;
85162;48.7463;17.3405;Shell;64;8608 Castkov Do;Častkov;Castkov 230;906 01;421 908 414 832;05:00 - 22:00;;;;;OK;
85170;48.9515;18.1506;Shell;64;8221 Dubnica Nad Váhom (I);Dubnica Nad Váhom;Priemyselná 4605/5;018 41;421 903 416 177;0:00 - 24:00;;;;;OK;
85172;49.114601;18.4328;Shell;64;8227 Povazska Bystrica (Ii);Považská Bystrica;Dialnica D1 Km 168;017 01;+421 42/444 36 55;0:00 - 24:00;;;;;OK;
85174;49.117699;18.3148;Shell;64;8230 Puchov;Púchov;Púchov;020 01;+421 42/463 30 15;0:00 - 24:00;;;;;OK;
85176;48.869099;18.022301;Shell;64;8264 Trencin 2;Trencin;Belá 7789;911 01;+421 32/640 25 02;0:00 - 24:00;;;;;OK;
85178;48.7477;18.7637;Shell;64;8247 Handlová;Handlova;Prievidzská 2001/61;972 51;+421 46/545 34 12;0:00 - 24:00;;;;;OK;
85213;48.620567;13.885327;BP;52;Peilstein, Hanriederstr. 43;Peilstein;Hanriederstr. 43;4153;+43 7287 752848;;;;;;OK;
85387;50.319447;12.519175;Orlen;56;Kraslice;Kraslice;Československé armády 1883;;;05:00 - 22:00;;;4db44eeff7b121c29f48d8d5;;OK;
85422;50.316471;12.752101;Orlen;56;Nejdek;Pozorka;č.p. 119;362 21;420353925957;05:00 - 22:00;;;4c9fa3d8e9a7ef3bcc4b4a16;;OK;
85423;50.316647;12.945468;Orlen;56;Ostrov Nad Ohří;Ostrov;Jáchymovská 1478;363 01;420353843363;05:00 - 22:00;;;4c73fb51ff1fb60c8032f2a7;;OK;
85426;50.072918;12.361326;Orlen;56;Cheb, Klášterní;Cheb;Skalka, Klášterní 2363/8;350 02;420354433771;05:00 - 22:00;;;522c3f6211d20dc0c039a6eb;;OK;
85440;49.7505;13.404155;Orlen;56;Plzeň, Letná;Plzeň;Jateční 2471/6a;301 00;420377220354;0:00 - 24:00;;;4cefe32db80da093b2e82e00;;OK;
85447;49.807053;12.643319;Orlen;56;Tachov Sokolovská;Tachov;Sokolovská 1986;;;06:00 - 20:00;;;;;OK;
85450;48.619114;14.324707;Orlen;56;Vyšší Brod;Vyšší Brod;Těchoraz č.p. 44;;;05:00 - 22:00;;;;;OK;
85451;49.32478;13.68737;Orlen;56;Horažďovice;Horažďovice;Komenského 1134;;;05:00 - 23:00;;;;;OK;
85453;49.438919;12.828981;Orlen;56;Klenčí Pod Čerchovem;Klenčí pod Čerchovem;č.silnice 189, č.p. 341;;;06:00 - 20:00;;;;;OK;
85454;49.274807;13.068622;Orlen;56;Svatá Kateřina;Svatá Kateřina;č.ev. 4, p. Nýrsko;;;06:00 - 21:00;;;;;OK;
85455;49.645393;13.509299;Orlen;56;Nezvěstice;Nezvěstice;č.p. 344;;;05:00 - 20:00;;;;;OK;
85457;48.996254;14.490061;Orlen;56;Expres Budějovice;České Budějovice;Retail park Okružní, Za Otýlií;;;0:00 - 24:00;;;;;OK;
85458;49.052643;14.189672;Orlen;56;Netolice;Netolice;;;;0:00 - 24:00;;;;;OK;
85459;48.951702;14.465997;Orlen;56;České Budějovice, Rožnov;České Budějovice;Lidická tř. 2177;;;05:00 - 23:00;;;;;OK;
85460;49.001358;14.011693;Orlen;56;Prachatice, Krumlovská;Prachatice;Krumlovská 1125;;;06:00 - 22:00;;;;;OK;
85461;48.770504;14.958014;Orlen;56;České Velenice;České Velenice;Revoluční 207;;;05:00 - 22:00;;;;;OK;
85462;49.316124;14.136162;Orlen;56;Písek;Písek;Pražská 441;;;05:00 - 22:00;;;;;OK;
85464;50.021488;14.404355;Orlen;56;Praha, Modřany;Praha, Hodkovičky;V Mokřinách 283/8;;;05:00 - 23:00;;;;;OK;
85465;49.668404;13.994986;Orlen;56;Příbram, Brodská;Příbram;Brodská 653;;;05:00 - 23:00;;;;;OK;
85467;49.926453;14.269283;Orlen;56;Dobřichovice;Dobřichovice;Pražská;;;05:00 - 23:00;;;;;OK;
85469;50.086987;14.141702;Orlen;56;Unhošť;Unhošť;Pražská 1544;;;0:00 - 24:00;;;;;OK;
85471;50.064091;14.504086;Orlen;56;Praha, Průběžná;Praha 10 - Strašnice;Průběžná 1545;;;0:00 - 24:00;;;;;OK;
85472;50.138069;14.366595;Orlen;56;Praha, Suchdol;Praha 6;Suchdol, Kamýcká;;;05:00 - 22:00;;;;;OK;
85473;50.087376;14.350153;Orlen;56;Praha, Ankarská;Praha 6;Ankarská 2380/20;;;0:00 - 24:00;;;;;OK;
85477;49.947258;15.255083;Orlen;56;Kutná Hora;Kutná Hora;Kouřimská 939;;;05:00 - 22:00;;;;;OK;
85478;50.19088;14.646694;Orlen;56;Brandýs Nad Labem;Brandýs nad Labem;Kostelecká;250 01;420 326 723 502;05:00 - 23:00;;;4c39a2931e06d13a3cea793e;;OK;
85480;49.992626;14.844058;Orlen;56;Kostelec Nad Černými Lesy;Kostelec nad Černými Lesy;Pražská 857;;;05:00 - 22:00;;;;;OK;
85481;50.022423;15.184159;Orlen;56;Kolín;Kolín;Benešova 1073;;;05:00 - 22:00;;;;;OK;
85484;50.076767;14.305774;Orlen;56;Praha, Karlovarská;Praha 17 - Řepy;Karlovarská;;;0:00 - 24:00;;;;;OK;
85485;50.049191;14.40992;Orlen;56;Praha, Strakonická;Praha, Hlubočepy;Strakonická;;;0:00 - 24:00;;;;;OK;
85487;50.498611;13.444444;Orlen;56;Jirkov;Jirkov;Dvořákova 1777;;;0:00 - 24:00;;;;;OK;
85489;50.484692;13.632699;Orlen;56;Most, Velebudice;Most;Velebudice 38;;;06:00 - 21:00;;;;;OK;
85490;50.333206;13.538986;Orlen;56;Žatec;Žatec;Plzeňská;;;0:00 - 24:00;;;;;OK;
85491;50.350166;13.816236;Orlen;56;Louny;Louny;Václava Majera 2672;;;05:00 - 22:00;;;;;OK;
85493;50.665798;14.0657;Orlen;56;Ústí N.l., Neštěmická;Ústí nad Labem;Neštěmická 813/65;;;0:00 - 24:00;;;;;OK;
85497;50.670341;13.794271;Orlen;56;Dubí, Ruská;Dubí;Ruská 303;;;0:00 - 24:00;;;;;OK;
85498;50.515759;14.97225;Orlen;56;Mnichovo Hradiště;Mnichovo Hradiště;Víta Nejedlého;;;05:00 - 22:00;;;;;OK;
85499;50.733788;15.183687;Orlen;56;Jablonec Nad Nisou;Jablonec nad Nisou;Březová 4525/33;;;0:00 - 24:00;;;;;OK;
85500;50.709068;15.315789;Orlen;56;Plavy;Plavy;E65, č.p. 2;;;05:00 - 21:00;;;;;OK;
85501;50.668152;14.7265;Orlen;56;Mimoň;Mimoň;Žitavská;;;05:00 - 22:00;;;;;OK;
85502;50.698879;14.541458;Orlen;56;Česká Lípa Ls;Česká Lípa;Pražská 4;;;0:00 - 24:00;;;;;OK;
85506;50.483311;15.505815;Orlen;56;Nová Paka Ps;Nová Paka;Pražská;;;05:00 - 23:00;;;;;OK;
85510;50.240849;15.500558;Orlen;56;Nový Bydžov;Nový Bydžov;Dukelská tř. 979;;;05:00 - 23:00;;;;;OK;
85511;50.571774;15.894138;Orlen;56;Trutnov, Krkonošská;Trutnov;Krkonošská 567;;;05:00 - 22:00;;;;;OK;
85512;49.905376;15.922778;Orlen;56;Chrast U Chrudimě;Chrast u Chrudimě;Tyršova 778;;;05:00 - 22:00;;;;;OK;
85513;50.037449;15.564653;Orlen;56;Přelouč;Přelouč;Pardubická 1523;;;05:00 - 23:00;;;;;OK;
85517;50.3606;16.148031;Orlen;56;Nové Město Nad Metují;Nové Město nad Metují;T.G.Masaryka 1425;;;05:00 - 22:00;;;;;OK;
85518;50.295856;16.168362;Orlen;56;Dobruška;Dobruška;Provozská;;;05:00 - 23:59;;;;;OK;
85519;50.41531;16.168453;Orlen;56;Náchod;Náchod;Pražská 603;;;0:00 - 24:00;;;;;OK;
85520;49.558525;16.074453;Orlen;56;Nové Město Na Moravě;Nové Město na Moravě;Brněnská 255;;;05:00 - 23:00;;;;;OK;
85523;49.966015;16.405008;Orlen;56;Ústí Nad Orlicí, Moravská;Ústí nad Orlicí;Moravská 1401;;;05:00 - 22:00;;;;;OK;
85524;49.548653;15.9562;Orlen;56;Žďár Nad Sázavou, Brněnská;Žďár nad Sázavou;Brněnská 2207/46;;;05:00 - 22:00;;;;;OK;
85525;49.981438;16.394579;Orlen;56;Ústí Nad Orlicí, Královéhradecká;Ústí nad Orlicí;Královéhradecká 1395;;;0:00 - 24:00;;;;;OK;
85527;49.359085;15.995266;Orlen;56;Velké Meziříčí;Velké Meziříčí;Fr.Stránecké 1701/4;;;05:00 - 22:00;;;;;OK;
85529;49.056908;15.803924;Orlen;56;Moravské Budějovice;Moravské Budějovice;Pražská 1039;;;05:00 - 23:00;;;;;OK;
85530;48.906532;15.974285;Orlen;56;Mramotice;Znojmo;Mramotice 145;;;0:00 - 24:00;;;;;OK;
85532;49.187363;15.449041;Orlen;56;Telč, Slavatovská;Telč;Slavatovská 451;;;05:00 - 22:00;;;;;OK;
85534;49.491005;16.649864;Orlen;56;Boskovice;Boskovice;Chrudichromská 2445/1;;;0:00 - 24:00;;;;;OK;
85535;49.327286;16.553938;Orlen;56;Lipůvka;Lipůvka;Lipůvka 364;;;0:00 - 24:00;;;;;OK;
85536;49.342049;16.418131;Orlen;56;Tišnov;Tišnov;Za Mlýnem;;;0:00 - 24:00;;;;;OK;
85537;49.312168;16.486418;Orlen;56;Čebín;Čebín;Čebín;;;05:00 - 22:00;;;;;OK;
85538;49.184799;16.403118;Orlen;56;Rosice;Rosice;Brněnská;;;0:00 - 24:00;;;;;OK;
85539;49.20525;16.44376;Orlen;56;Brno, Automotodrom;Brno;automotodrom;;;0:00 - 24:00;;;;;OK;
85540;49.223114;16.537371;Orlen;56;Brno, Bystrcká;Brno;Bystrcká 1276/36b;;;0:00 - 24:00;;;;;OK;
85541;49.218929;16.575445;Orlen;56;Brno, Královopolská;Brno;Královopolská 3197/90;;;0:00 - 24:00;;;;;OK;
85542;48.825863;16.399008;Orlen;56;Hrušovany Nad Jevišovkou;Hrušovany nad Jevišovkou;Nádražní 159;;;05:00 - 22:00;;;;;OK;
85543;49.359428;16.642414;Orlen;56;Blansko;Blansko;Svitavská 2482/14a;;;0:00 - 24:00;;;;;OK;
85544;49.135162;16.632351;Orlen;56;Brno, Olympia;Modřice;U Dálnice 744;;;0:00 - 24:00;;;;;OK;
85548;49.093582;17.743513;Orlen;56;Luhačovice;Luhačovice;Uherskobrodská 981;;;05:00 - 22:00;;;;;OK;
85550;49.32542;17.552139;Orlen;56;Holešov, Palackého;Holešov;Palackého 226;;;05:00 - 22:00;;;;;OK;
85551;49.277721;17.401258;Orlen;56;Kroměříž;Kroměříž;Kotojedy 58;;;05:00 - 22:00;;;;;OK;
85552;49.07428;17.421635;Orlen;56;Staré Město;Staré Město;Nádražní 1944;;;0:00 - 24:00;;;;;OK;
85554;49.475368;17.131098;Orlen;56;Prostějov;Prostějov;Vrahovická 4482;;;05:00 - 22:00;;;;;OK;
85555;49.338234;17.313629;Orlen;56;Kojetín;Kojetín;Padlých hrdinů 1416;;;06:00 - 21:00;;;;;OK;
85556;49.454857;17.1117;Orlen;56;Prostějov Brněnská;Prostějov-Žešov;silnice E462;;;05:00 - 21:00;;;;;OK;
85559;49.876316;16.885597;Orlen;56;Zábřeh Na Moravě;Zábřeh;Československé armády 883/43;;;05:00 - 22:00;;;;;OK;
85560;49.722389;17.285797;Orlen;56;Šternberk;Šternberk;Nádražní 2156/56;;;05:00 - 22:00;;;;;OK;
85561;50.113777;17.391958;Orlen;56;Vrbno Pod Pradědem;Vrbno pod Pradědem;Nádražní 150;;;05:00 - 21:00;;;;;OK;
85562;50.246532;17.213833;Orlen;56;Česká Ves U Jeseníku;Česká Ves;Jesenická;;;05:00 - 22:00;;;;;OK;
85563;50.220078;17.191086;Orlen;56;Jeseník;Bukovice u Jeseníku;Bukovice u Jeseníku;;;05:00 - 22:00;;;;;OK;
85564;49.776127;16.931896;Orlen;56;Mohelnice, 1. Máje;Mohelnice;1. máje 180/16;;;06:00 - 20:00;;;;;OK;
85566;49.585213;17.226625;Orlen;56;Olomouc, Hněvotínská;Olomouc;Hněvotínská 701/54;;;0:00 - 24:00;;;;;OK;
85568;49.947212;17.884212;Orlen;56;Opava Krnovská;Opava;Krnovská;;;0:00 - 24:00;;;;;OK;
85572;50.087772;17.693811;Orlen;56;Krnov, Čsl. Armády;Krnov;Čsl. armády 2243/5;;;0:00 - 24:00;;;;;OK;
85573;49.479156;17.818344;Orlen;56;Kelč;Kelč;č.p.271;;;05:00 - 21:00;;;;;OK;
85574;49.112228;16.376652;Orlen;56;Ivančice;Ivančice;Na Brněnce 1380;;;05:00 - 22:00;;;;;OK;
85575;49.647465;17.989206;Orlen;56;Kunín;Kunín;Kunín 472;;;05:00 - 22:00;;;;;OK;
85576;49.707615;18.048412;Orlen;56;Studénka;Studénka;Butovická 840;;;06:00 - 21:00;;;;;OK;
85577;49.46228;18.128578;Orlen;56;Rožnov Pod Radhoštěm, 1. Máje;Rožnov pod Radhoštěm;1. máje 2637;;;05:00 - 21:00;;;;;OK;
85580;49.781254;18.270441;Orlen;56;Ostrava, Krmelínská;Ostrava;Krmelínská 971/2A;;;05:00 - 21:00;;;;;OK;
85582;49.856377;18.288462;Orlen;56;Ostrava, Muglinovská;Ostrava;Muglinovská 901/69;;;05:00 - 22:00;;;;;OK;
85583;49.579681;18.352688;Orlen;56;Frýdlant Nad Ostravicí Ps;Frýdlant nad Ostravicí;R56, č.p. 36;;;05:00 - 22:00;;;;;OK;
85585;49.829746;18.385326;Orlen;56;Petřvald, Ostravská Ls;Petřvald;Ostravská 547;;;05:00 - 22:00;;;;;OK;
85586;49.845592;18.554556;Orlen;56;Karviná, 17. Listopadu;Karviná;tř. 17. listopadu;;;0:00 - 24:00;;;;;OK;
85589;49.185566;18.848038;Orlen;231;Strečno;Strečno;E50;;;0:00 - 24:00;;;;;OK;
85597;49.19141;18.733982;Orlen;231;Žilina - Bytčica;Žilina;Dlhá 563;;;05:00 - 23:00;;;;;OK;
85599;48.592319;17.747841;Orlen;231;Trebatice;Trebatice;Trebatice;;;05:00 - 23:00;;;;;OK;
85601;49.306694;18.785515;Orlen;231;Kysucké Nové Mesto ;Kysucké Nové Mesto;ul. SNP;;;05:00 - 23:00;;;;;OK;
85632;50.519844;13.609661;Orlen;56;Autodrom Most;Most;Tvrzova 5;;;0:00 - 24:00;;;;;OK;
85633;48.942715;16.986105;Orlen;56;Hovorany;Hovorany;č.p. 791;;;06:00 - 21:00;;;;;OK;
85635;49.076324;17.48304;Orlen;56;Uherské Hradiště;Uherské Hradiště;Sokolovská 1395;;;0:00 - 24:00;;;;;OK;
85636;49.315254;15.668473;Orlen;56;Brtnice;Brtnice;Jihlavská 800;;;06:00 - 20:00;;;;;OK;
85639;48.866428;16.178938;Orlen;56;Bantice;Bantice;Bantice;;;0:00 - 24:00;;;;;OK;
85640;49.218201;17.847164;Orlen;56;Vizovice;Vizovice;Zlínská 1363;763 12;;05:30 - 22:30;;;50178f8be4b0781bc12b4962;;OK;
85642;49.693394;15.28803;Orlen;56;Ledeč Nad Sázavou;Ledeč nad Sázavou;Slunečná 590;;;0:00 - 24:00;;;;;OK;
85643;48.842419;16.902836;Orlen;56;Velké Bílovice;Velké Bílovice;Žižkovská 1344;691 02;420 725 518 269;0:00 - 24:00;;;;;OK;
85644;48.890022;17.293661;Orlen;56;Strážnice;Strážnice;Skalická 730;;;0:00 - 24:00;;;;;OK;
85645;50.402283;14.308715;Orlen;56;Krabčice;Krabčice;Rovné 144;;;06:00 - 20:00;;;;;OK;
85648;50.19714;14.496938;Orlen;56;Líbeznice;Líbeznice;Mělnická 433;;;0:00 - 24:00;;;;;OK;
86604;48.727901;18.250401;Shell;64;8243 Banovce Nad Bebravou;Banovce Nad Bebravou;Svätoplukova 7;957 04;421 903 379 362;0:00 - 24:00;;;;;OK;
86608;49.096802;18.6446;Shell;64;8242 Rajec;Rajec;Hollého 54;015 01;421 918 983 584;0:00 - 24:00;;;;;OK;
86750;49.660965;18.661379;Shell;59;8501 Oldřichovice;Třínec 9;Oldrichovice 254;739 58;420 730 871 664;0:00 - 24:00;;;4f5f6744e4b0a76b7114711e;;OK;
86751;49.204601;15.8913;Shell;59;8001 Třebíč;Třebíč;Spojovací 1329;674 01;420 568 843 254;06:00 - 22:00;;;;;OK;
86752;50.1409;14.0805;Shell;59;8002 Kladno-Vítězná;Kladno;Vítezná;272 04;420 312 267 800;0:00 - 24:00;;;;;OK;
86753;50.0513;14.4109;Shell;59;8013 Praha-Strakonická;Praha 5;Strakonická 1032;150 00;420 257 320 518;06:00 - 22:00;;;;;OK;
86754;50.471001;13.4148;Shell;59;8112 Chomutov-Březenecká;Chomutov;Brezenecká 5366;430 04;420 474 655 241;0:00 - 24:00;;;;;OK;
86755;50.516399;13.6398;Shell;59;8018 Most-Chomutovská;Most;Chomutovská 1197;434 01;420 476 704 097;0:00 - 24:00;;;;;OK;
86756;49.1735;16.582199;Shell;59;8120 Brno-Jihlavska P;Brno;Jihlavska Ul. Ii Prava;625 00;420 547 211 261;0:00 - 24:00;;;;;OK;
86757;50.7197;15.1626;Shell;59;8021 Jablonec Nad Nisou-Nákladní;Jablonec Nad Nisou;Nákladní 11;466 01;420 483 322 322;06:00 - 22:00;;;;;OK;
86758;50.034599;14.4553;Shell;59;8022 Praha-Vídeňská;Praha 4;U Krčského Nádraží 46;140 00;420 244 470 004;0:00 - 24:00;;;;;OK;
86759;49.743698;18.6215;Shell;59;8025 Český Těšín;Cesky Tesin;Jablunkovská 10;737 01;420 558 731 091;0:00 - 24:00;;;;;OK;
86760;49.410801;14.6835;Shell;59;8026 Tábor;Tábor;Chýnovská 2953;390 02;420 381 282 098;0:00 - 24:00;;;;;OK;
86761;50.069401;14.3814;Shell;59;8027 Praha-Vrchlického;Praha 5;Vrchlického 19;150 00;420 257 216 163;0:00 - 24:00;;;;;OK;
86762;49.866199;18.422701;Shell;59;8028 Orlová;Orlová - Lutyně;Na Stuchlíkovci 1347;735 53;420 596 512 603;06:00 - 22:00;;;;;OK;
86763;50.7593;15.0532;Shell;59;8030 Liberec-Košická;Liberec 1;Košická 13;460 01;420 485 146 315;0:00 - 24:00;;;;;OK;
86764;49.185299;16.612101;Shell;59;8032 Brno-Opuštěná;Brno;Opuštená Sever 6;602 00;420 543 212 140;06:00 - 18:00;;;;;OK;
86765;49.899101;18.2057;Shell;59;8033 Hlučín;Hlučín;Markvartovická 7;748 01;420 595 046 747;0:00 - 24:00;;;;;OK;
86766;49.601002;17.2729;Shell;59;8034 Olomouc-Pasteurova;Olomouc;Pasteurova 16;772 00;420 737 172 442;05:30 - 22:00;;;;;OK;
86767;50.060398;14.4702;Shell;59;8036 Praha-Bohdalecka;Praha 10;Bohdalecka 14;101 00;420 272 774 137;0:00 - 24:00;;;;;OK;
86768;49.303699;14.1381;Shell;59;8037 Písek;Písek;Hradištská 2479;397 01;420 382 214 620;0:00 - 24:00;;;;;OK;
86769;50.499001;13.6616;Shell;59;8038 Most-Pod Lajsníkem;Most;Pod Lajsníkem 1270;434 01;420 476 121 260;07:00 - 19:00;;;;;OK;
86770;49.222;16.6269;Shell;59;8040 Brno-Okružní;Brno;Okružní 3B;602 00;420 545 213 344;0:00 - 24:00;;;;;OK;
86771;49.9342;17.9161;Shell;59;8041 Opava-Těšínská;Opava;Tešínská 35;747 05;420 553 627 668;06:00 - 22:00;;;;;OK;
86772;49.005901;14.7474;Shell;59;8044 Třeboň;Třeboň;Budejovická 15;397 01;420 384 724 911;0:00 - 24:00;;;;;OK;
86773;50.103699;14.5034;Shell;59;8047 Praha-Freyova;Praha 9;Freyova 4;190 00;420 284 685 065;06:00 - 22:00;;;;;OK;
86774;49.2188;14.4198;Shell;59;8051 Týn Nad Vltavou;Týn Nad Vltavou;Budejovická 9;375 01;420 385 724 189;0:00 - 24:00;;;;;OK;
86775;48.997501;14.481;Shell;59;8052 České Budějovice-Pražská;České Budějovice;Pražská;370 01;420 387 314 250;0:00 - 24:00;;;;;OK;
86776;49.580502;17.461;Shell;59;8053 Velký Újezd;Daskabát;Daskabát 183;772 00;420 737 258 466;0:00 - 24:00;;;;;OK;
86777;49.9599;16.975901;Shell;59;8054 Šumperk;Šumperk;Jesenická 1C;787 01;420 730 895 431;0:00 - 24:00;;;;;OK;
86778;50.0839;12.3703;Shell;59;8055 Cheb-Ašská;Cheb;Ašská 9;350 02;420 354 424 307;0:00 - 24:00;;;;;OK;
86779;49.7724;18.298;Shell;59;8059 Ostrava-Frýdecká;Ostrava - Vratimov;Frýdecká 724/.;720 00;420 596 732 109;05:00 - 22:00;;;;;OK;
86780;49.075699;17.453899;Shell;59;8062 Staré Město;Staré Město;Hradištská 1947;686 03;420 571 422 777;0:00 - 24:00;;;;;OK;
86781;49.562901;16.5728;Shell;59;8063 Letovice;Letovice;Pražská 1050;679 61;420 727 816 907;0:00 - 24:00;;;;;OK;
86782;49.727798;13.378;Shell;59;8064 Plzeň-E. Beneše;Plzeň;E. Beneše;301 00;420 377 421 426;06:00 - 22:00;;;;;OK;
86783;49.167999;16.7145;Shell;59;8067 Šlapanice;Šlapanice;Brnenská 1659;664 51;420 544 228 702;06:00 - 22:00;;;;;OK;
86784;50.046902;14.5525;Shell;59;8068 Praha-Hornoměcholupská;Praha 10;Hornomecholupská 487;109 00;420 773 647 510;0:00 - 24:00;;;;;OK;
86785;50.0345;14.5362;Shell;59;8070 Praha-Výstavní;Praha 4;Výstavní 2;149 00;420 773 303 507;0:00 - 24:00;;;;;OK;
86786;49.208698;16.664;Shell;59;8073 Brno-Žarošická;Brno - Vinohrady;Žarošická;628 00;420 544 217 953;0:00 - 24:00;;;;;OK;
86787;49.353802;16.0331;Shell;59;8074 Velké Meziříčí;Velké Meziříčí;Dálnice D1,145 Km, Smer;594 01;420 566 524 153;0:00 - 24:00;;;;;OK;
86788;49.679199;18.3685;Shell;59;8075 Frýdek-Místek;Frýdek - Místek;Hlavní 3246;738 01;420 558 621 357;0:00 - 24:00;;;;;OK;
86789;50.385601;13.26;Shell;59;8078 Kadaň;Kadaň;Klášterecká 1688;432 01;420 474 343 377;0:00 - 24:00;;;;;OK;
86790;49.483898;17.966801;Shell;59;8083 Valašské Meziříčí;Valašské Meziříčí;Hulince;757 01;420 571 611 343;0:00 - 24:00;;;;;OK;
86791;49.835201;18.2621;Shell;59;8084 Ostrava-Novinářská;Ostrava 1;Novinárská 533;702 00;420 596 619 872;0:00 - 24:00;;;;;OK;
86792;49.8354;18.301201;Shell;59;8085 Ostrava-Tešínská;Ostrava - Slezská;Tešínská 1999/58;710 00;420 596 245 410;0:00 - 24:00;;;;;OK;
86793;50.027199;15.7624;Shell;59;8086 Pardubice-Teplého;Pardubice;Teplého;530 02;420 466 310 538;0:00 - 24:00;;;;;OK;
86794;49.7579;13.3727;Shell;59;8087 Plzeň-Karlovarská;Plzeň;Karlovarská 26;301 00;420 377 259 396;0:00 - 24:00;;;;;OK;
86795;50.056999;14.5138;Shell;59;8090 Praha-Švehlova L;Praha 10;Švehlova 2078;100 00;420 271 750 011;0:00 - 24:00;;;;;OK;
86796;49.239201;13.5208;Shell;59;8091 Sušice;Sušice;Hradecká 379;342 01;420 376 528 019;05:00 - 23:00;;;;;OK;
86797;50.086899;14.4836;Shell;59;8093 Praha-Malešická;Praha 3;U Staré Cihelny 2808/8;130 00;420 284 860 133;0:00 - 24:00;;;;;OK;
86798;50.0256;14.4981;Shell;59;8095 Praha-Roztylská;Praha 4;Roztylská;148 00;420 220 873 873;06:00 - 22:00;;;;;OK;
86799;50.1064;14.5448;Shell;59;8096 Praha-Poděbradská;Praha 14;Podebradská;198 00;420 266 610 311;0:00 - 24:00;;;;;OK;
86800;50.240101;14.2936;Shell;59;8103 Kralupy Nad Vltavou;Kralupy Nad Vltavou;Premyslova 537;278 01;420 315 722 499;06:00 - 22:00;;;;;OK;
86801;50.645901;13.8215;Shell;59;8105 Teplice-Nákladní;Teplice;Nákladní;415 02;420 417 579 826;06:00 - 19:00;;;;;OK;
86802;49.7533;13.5884;Shell;59;8108 Rokycany L;Rokycany;Dalnice D5, Smer Praha;337 01;420 371 722 255;0:00 - 24:00;;;;;OK;
86803;50.138901;14.1004;Shell;59;8110 Kladno - Cyrila Boudy;Kladno;Cyrila Boudy 2783;272 01;420 312 248 746;06:00 - 22:00;;;;;OK;
86804;50.692699;14.542;Shell;59;8113 Česká Lípa;Česká Lípa;Žitavská;470 01;420 487 523 186;0:00 - 24:00;;;;;OK;
86805;49.583;17.2444;Shell;59;8114 Olomouc-Velkomoravská Ii;Olomouc;Velkomoravská 487/17;779 00;420 585 420 888;0:00 - 24:00;;;;;OK;
86806;50.104698;14.481;Shell;59;8115 Praha-Čuprova (Balabenka);Praha 9;Cuprova;190 00;420 284 810 381;0:00 - 24:00;;;;;OK;
86807;49.469799;17.1187;Shell;59;8116 Prostějov;Prostějov;Petrské Náměstí 209;796 01;420 582 333 901;06:00 - 22:00;;;;;OK;
86808;50.0812;14.5086;Shell;59;8119 Praha-Limuzská;Praha 10;Limuzská;100 00;420 274 776 955;06:00 - 22:00;;;;;OK;
86809;50.211399;15.8495;Shell;59;8121 Hradec Králové-Nejedlého;Hradec Králové;V. Nejedlého 1004;500 89;420 491 435 600;06:00 - 22:00;;;;;OK;
86810;49.5924;18.0137;Shell;59;8126 Nový Jičín;Nový Jičín;Karla Kryla 2089/.;741 01;420 556 704 932;05:00 - 22:00;;;;;OK;
86811;50.734001;15.158;Shell;59;8129 Jablonec Nad Nisou-Želivského;Jablonec Nad Nisou;Želivského 1C;466 02;420 483 705 858;0:00 - 24:00;;;;;OK;
86812;48.966499;14.488;Shell;59;8132 Česke Budejovice-Novohradska;České Budějovice;Novohradská;370 01;420 386 353 504;0:00 - 24:00;;;;;OK;
86813;49.334702;17.987301;Shell;59;8133 Vsetín;Vsetín;Mostecká;755 01;420 571 420 698;0:00 - 24:00;;;;;OK;
86814;49.780499;14.9324;Shell;59;8141 Všechlapy;Všechlapy;Dálnice D1, Smer Brno.;257 26;420 317 855 760;0:00 - 24:00;;;;;OK;
86815;49.189701;16.6343;Shell;59;8143 Brno-Olomoucká;Brno;Olomoucká 38;618 00;420 548 226 435;06:00 - 22:00;;;;;OK;
86816;50.022499;15.2079;Shell;59;8139 Kolín;Kolín;Jaselská 880;280 02;420 321 671 551;0:00 - 24:00;;;;;OK;
86817;49.5583;18.346201;Shell;59;8530 Čeladná;Čeladná;Celadná 807;739 12;420 731 756 633;05:30 - 21:30;;;;;OK;
86818;49.248199;17.689699;Shell;59;8515 Zlín - Vršava;Zlín;Vršava 470;760 01;420 577 211 778;05:30 - 21:30;;;;;OK;
86820;49.998299;14.6555;Shell;59;8502 Říčany;Říčany;Rícanská 1818;251 01;420 323 666 127;05:00 - 23:00;;;;;OK;
86821;48.867298;17.1141;Shell;59;8520 Hodonin - Brnenska;Hodonin;Brnenska 3540;695 01;420 518 346 945;0:00 - 24:00;;;;;OK;
86822;49.715401;16.255699;Shell;59;8525 Polička;Polička;Starohradská 316;572 01;420 461 755 252;05:30 - 21:00;;;;;OK;
86823;50.033001;15.2254;Shell;59;8505 Kolin-Tridvorska;Kolin;Tridvorska 1415;280 02;420 321 742 095;06:00 - 19:00;;;;;OK;
86824;48.907501;16.843599;Shell;59;8509 Bořetice;Bořetice;Boretice;691 08;420 519 430 278;06:00 - 20:00;;;;;OK;
86825;50.543598;15.5623;Shell;59;8524 Studenec;Studenec U Horek;Studenec U Horek 391;512 33;420 481 595 304;06:00 - 20:00;;;;;OK;
86826;50.5541;15.9038;Shell;59;8534 Trutnov;Trutnov;Kralovédvorská 505;541 01;420 721 957 763;05:00 - 23:00;;;;;OK;
86827;48.991199;17.417801;Shell;59;8532 Ostrožská Nová Ves;Ostrožská Nová Ves;Osvobození 268;687 22;420 572 591 517;0:00 - 24:00;;;;;OK;
86828;49.217201;16.5201;Shell;59;8156 Brno Štouračova;Brno;Štouracova 1A;635 00;420 777 794 672;0:00 - 24:00;;;;;OK;
86829;49.514702;17.347799;Shell;59;8538 Krčmaň;Krčmaň;Krčmaň;772 00;420 585 393 098;06:00 - 21:00;;;;;OK;
86830;50.121201;15.2815;Shell;59;8157 Dobšice;Dobšice;1;289 05;420 325 546 645;0:00 - 24:00;;;;;OK;
86831;49.7896;16.4828;Shell;59;8158 Svitavy;Svitavy - Lačnov;Hlavní 393/139;568 02;420 734 571 817;0:00 - 24:00;;;;;OK;
86832;49.3922;13.2765;Shell;59;8546 Klatovy;Klatovy;Domažlická 846;339 01;420 774 454 148;0:00 - 24:00;;;;;OK;
86833;49.7164;17.076799;Shell;59;8548 Litovel;Litovel;Uničovská 371;784 01;420 585 343 529;06:00 - 20:00;;;;;OK;
86834;48.932301;16.748501;Shell;59;8547 Hustopeče;Hustopeče;Bratislavská 15;693 01;420 519 411 278;0:00 - 24:00;;;;;OK;
86835;48.922501;14.442;Shell;59;8549 Boršov Nad Vltavou;Boršov Nad Vltavou;Na Planýrce 602/.;373 82;420 725 035 903;06:00 - 20:00;;;;;OK;
86836;50.311501;12.9418;Shell;59;8160 Ostrov;Ostrov;Obchodní;363 01;420 352 609 509;0:00 - 24:00;;;;;OK;
86837;50.241199;12.8721;Shell;59;8161 Karlovy Vary;Karlovy Vary;Jachymovská;360 01;420 352 609 444;06:00 - 22:00;;;;;OK;
86838;49.407101;17.6796;Shell;59;8550 Bystřice Pod Hostýnem;Bystřice Pod Hostýnem;Meziříčská 1614;768 61;420 573 381 533;0:00 - 24:00;;;;;OK;
86839;49.7579;18.0322;Shell;59;8552 Bílovec;Velké Albrechtice;Velké Albrechtice 260;742 91;420 556 411 788;0:00 - 24:00;;;;;OK;
86840;49.992802;14.4896;Shell;59;8162 Vestec;Praha;Vídeňská 343;252 42;420 777 179 919;0:00 - 24:00;;;;;OK;
86841;49.447102;15.2322;Shell;59;8163 Pelhřimov;Pelhřimov;Humpolecká 1995;393 01;420 566 663 270;0:00 - 24:00;;;;;OK;
86843;50.607498;15.3231;Shell;59;8554 Semily;Semily;Brodská 517;513 01;420 481 622 414;06:00 - 20:00;;;;;OK;
86844;49.150501;16.865299;Shell;59;8555 Slavkov U Brna;Slavkov;Špitálská Ulice 1540;684 01;420 544 212 924;0:00 - 24:00;;;;;OK;
86845;49.8456;14.6748;Shell;59;8556 Poříčí Nad Sázavou;Poříčí Nad Sázavou;Pražská 376;257 21;420 602 502 161;06:00 - 22:00;;;;;OK;
86846;50.131302;15.0819;Shell;59;8558 Poděbrady;Písková Lhota;Poděbradská 4;290 01;420 325 610 949;06:00 - 21:00;;;;;OK;
86847;49.124199;16.6143;Shell;59;8559 Modřice;Modřice;Hřbitovní 670;664 42;420 602 542 530;05:30 - 21:00;;;;;OK;
86848;50.4338;15.3749;Shell;59;8166 Jičín;Jičín;Hradecká 805;506 01;420 495 542 277;06:00 - 22:00;;;;;OK;
86849;49.290298;17.0966;Shell;59;8165 Ivanovice Na Hané;Ivanovice Na Hané;D1, Sjezd 236;683 23;420 737 243 029;0:00 - 24:00;;;;;OK;
86850;50.017899;15.9751;Shell;59;8167 Dolní Roveň P;Dolní Roveň;Mw D35 352;533 71;420 602 250 468;0:00 - 24:00;;;;;OK;
86851;49.9758;16.3895;Shell;59;8560 Ústí Nad Orlicí;Ústí Nad Orlicí;Královéhradecká 1404;562 01;420 731 390 393;06:00 - 22:00;;;;;OK;