id,lat,lon,brand_name,brand_id,name,city,address,zip,phone,worktime,services,payments,foursquare_id,wikimapia_id,status,error
4486,48.754025,15.952062,Shell,54,Retz Kremserstrasse,Retz,Kremserstrasse 24 A,2070,+43 2942 20253,06:00 - 21:00,,,,,OK,
4487,48.572365,15.829765,Shell,54,Maissau Wienerstrasse,Maissau,Wienerstrasse 6,3712,+43 2958 82253,06:00 - 21:00,,,,,OK,
4994,50.009109,14.542353,Orlen,56,Průhonice Ps,Ujezd u Pruhonic,D1 - 5.km PS,14900,272690104,0:00 - 24:00,,,,,OK,
4995,50.010445,14.54301,Orlen,56,Průhonice Ls,Ujezd u Pruhonic,D1 - 5.km LS,14900,272690055,0:00 - 24:00,,,,,OK,
4996,49.741066,18.621393,Orlen,56,Český Těšín,Ceský Tesín,Jablunkovská 1967,73701,558746422,05:00 - 22:00,,,,,OK,
4997,50.630329,13.843177,Orlen,56,Teplice,Teplice,Prosetice,41501,417531006,0:00 - 24:00,,,,,OK,
4998,48.846592,16.057146,Orlen,56,Znojmo,Znojmo,Vídeňská tř. 52,66902,515224286,0:00 - 24:00,,,,,OK,
4999,49.270554,16.279215,Orlen,56,Devět Křížů Ls,Velka Bites,"D1 - 166,5km",59501,5464402591,0:00 - 24:00,,,,,OK,
5000,49.269634,16.277651,Orlen,56,Devět Křížů Ps,Velka Bites,dálnice PS,59501,546440250,0:00 - 24:00,,,,,OK,
5001,49.746403,13.441607,Orlen,56,"Plzeň, Rokycanská",Plzen,Rokycanská 1354/160,31216,377260730,0:00 - 24:00,,,,,OK,
5002,50.96817,14.56367,Orlen,56,Rumburk,Rumburk,Východní 636/2,40801,412333202,05:00 - 22:00,,,,,OK,
5003,49.27013,14.715018,Orlen,56,Soběslav,Sobeslav,Wilsonova 736/III,39201,381521028,05:00 - 22:00,,,,,OK,
5004,50.405514,14.932383,Orlen,56,Mladá Boleslav Ps,Mladá Boleslav,Na obchvatu PS,29301,326723501,0:00 - 24:00,,,,,OK,
5005,50.033615,14.214373,Orlen,56,Drahelčice,Rudna,"D5 - 6.km PS, č.p. 1431",25219,311670407,0:00 - 24:00,,,,,OK,
5006,49.752991,15.018547,Orlen,56,Střechov Ps,Benesov,D1 - 62.km PS,25771,317851452,0:00 - 24:00,,,,,OK,
5007,49.165543,16.629747,Orlen,56,"Brno, Kaštanová",Brno-Jih,Kaštanová,61700,543250343,0:00 - 24:00,,,,,OK,
5009,50.221165,15.807108,Orlen,56,"Hradec Králové, Koutníkova",Hradec Králové,"Koutníkova, 605",50301,495611054,0:00 - 24:00,,,,,OK,
5010,49.674877,12.674272,Orlen,56,Přimda,Primda,Borská,34806,374722305,05:00 - 22:00,,,5325ded1498e57fd4ef9ae13,,OK,
5011,49.437172,12.911881,Orlen,56,Domažlice,Domazlice,Kozinova 158,34401,379724661,05:00 - 23:00,,,,,OK,
5012,49.754848,13.310461,Orlen,56,"Plzeň, Křimice",Plzen,Chebská 522,32200,377822405,05:00 - 23:00,,,,,OK,
5013,49.753048,15.0223,Orlen,56,Střechov Ls,Střechov nad Sázavou,D1 - 62.km LS,25771,317851454,0:00 - 24:00,,,505df57ee4b071a17f947c02,0,OK,
5018,50.648075,13.815066,Orlen,56,"Teplice, Dubská",Teplice,Dubská 3095,41501,417536172,0:00 - 24:00,,,,0,OK,
5019,49.61816,15.574586,Orlen,56,Havlíčkův Brod,Havlíckuv Brod,Pražská 3565,58002,569427052,0:00 - 24:00,,,,,OK,
5020,48.812954,16.629864,Orlen,56,"Mikulov, Brněnská",Mikulov,Brněnská 1532/76,69202,519510112,05:00 - 22:00,,,,,OK,
5022,50.122517,12.368485,Orlen,56,Františkovy Lázně,Frantiskovy Lazne,Aleje-Zátiší 53,35101,354542271,0:00 - 24:00,,,,,OK,
5024,50.108082,14.63842,Orlen,56,"Praha, Hradecká",Praha-9,D11 - 4km směr HK,19300,281923212,0:00 - 24:00,,,,,OK,
5027,48.873333,17.117147,Orlen,56,Hodonín,Hodonin,Brněnská 3541,69502,+420 518 341 383,05:00 - 22:00,,,574e690e498eb982d74ad366,,OK,
5028,50.103596,14.527134,Orlen,56,"Praha, Poděbradská",Praha-9,Poděbradská 1139/66,19000,281861368,05:00 - 23:59,,,,,OK,
5033,50.082787,14.462129,Orlen,56,"Praha, Olšanská",Praha,Olšanská 2643/1a,13000,222581028,0:00 - 24:00,,,4e23f317d1647406321f2ccf,0,OK,
5034,49.607407,18.029984,Orlen,56,Nový Jičín,Nový Jícín,Suvorovova 664,74101,556703808,0:00 - 24:00,,,,,OK,
5036,50.503551,13.674052,Orlen,56,"Most, Chánov Ps",Most,"Chánov PS, Teplická 1771/2",43401,576118501,0:00 - 24:00,,,,,OK,
5038,49.2523,13.912984,Orlen,56,"Strakonice, Volyňská",Strakonice,Volyňská 194,38601,383327852,05:00 - 23:00,,,,,OK,
5039,50.088787,16.456322,Orlen,56,Žamberk,Zamberk,Čs. armády 1506,56401,465631416,0:00 - 24:00,,,,,OK,
5040,50.158962,15.446442,Orlen,56,Chlumec Nad Cidlinou,Chlumec Nad Cidlinou,Pražská 802/IV,50351,495485503,0:00 - 24:00,,,,,OK,
5041,50.124737,14.614445,Orlen,56,"Praha, Boleslavská",Praha-9 Horni Pocernice,"směr Boleslav, Novopacká 65",19000,601229627,0:00 - 24:00,,,,,OK,
5042,49.140862,14.183335,Orlen,56,Vodňany,Vodnany,Budějovická 885,38901,383383650,05:00 - 21:00,,,,,OK,
5043,49.148525,16.921888,Orlen,56,Hodějice,Hodejice,č.p. 347,68401,544220800,0:00 - 24:00,,,,,OK,
5044,48.777596,16.898363,Orlen,56,Břeclav,Breclav,Lidická 3121,69003,519322124,0:00 - 24:00,,,,,OK,
5045,49.191093,16.879162,Orlen,56,Rousínov,Rousinov,Slavkovská 941,68301,517371700,0:00 - 24:00,,,,,OK,
5046,49.753273,16.476944,Orlen,56,Svitavy,Svitavy,U Tří mostů,56802,420461532605,05:00 - 23:00,,,4ff809b164a40b36eb32aea8,,OK,
5049,49.050236,14.429867,Orlen,56,Hluboká Nad Vltavou,Hluboká nad Vltavou,Smetanova,37341,387967019,05:00 - 23:00,,,4ff84086e4b0956dd585b10c,,OK,
5050,48.935101,13.76554,Orlen,56,Nová Houžná,Horní Vltavice,silnice 4,38444,388438691,0:00 - 24:00,,,5a1ed8096bd36b048ef34b7a,0,OK,
5051,50.203152,15.840261,Orlen,56,"Hradec Králové, Brněnská",Hradec Králové,Brněnská 1264,50002,495512448,05:00 - 22:00,,,,,OK,
5052,50.121464,16.220304,Orlen,56,Kostelec Nad Orlicí Ps,Kostelec Nad Orlici,Rudé armády 1435,51741,494321079,05:00 - 23:00,,,,,OK,
5053,50.361893,15.624872,Orlen,56,Hořice V Podkrkonoší,Horice V Podkrk,Klicperova 126,50801,493621751,0:00 - 24:00,,,,,OK,
5054,50.164909,16.271881,Orlen,56,Rychnov Nad Kněžnou,Rychnov nad Kneznou,Jiráskova 322,51681,494533097,0:00 - 24:00,,,,,OK,
5055,49.408424,13.29361,Orlen,56,Klatovy,Klatovy,Plzeňská 918,33901,376313314,05:00 - 22:00,,,,0,OK,
5057,50.45219,13.425806,Orlen,56,Chomutov,Chomutov,Pražská 5369,43000,474652231,0:00 - 24:00,,,,,OK,
5059,50.913696,14.566839,Orlen,56,Studánka,Varnsdorf,Studánka 529,40752,412372980,06:00 - 22:00,,,,,OK,
5060,48.831432,16.613375,Orlen,56,"Mikulov, Bavory",Mikulov,"E461, Bavory",69202,519515636,0:00 - 24:00,,,4e6c5b6b7d8b2c711b3f74c6,,OK,
5061,49.138943,13.228018,Orlen,56,Železná Ruda,Zelezná Ruda,Javorská 388,34004,420376397882,0:00 - 24:00,,,511e1b82e4b0dd94c19fa13a,,OK,
5062,50.103416,14.484961,Orlen,56,"Praha, Balabenka",Praha-9,Balabenka,19000,266035872,06:00 - 23:00,,,,,OK,
5063,50.076958,14.335144,Orlen,56,"Praha, Bělohorská",Praha,Bělohorská,169 00,220513209,0:00 - 24:00,,,4bf9dd47bc869521b9cd7a6b,0,OK,
5064,50.620136,15.59865,Orlen,56,Vrchlabí,Vrchlabi,Valteřická 1457,54301,499421902,0:00 - 24:00,,,,,OK,
5065,50.433907,15.40795,Orlen,56,"Jičín, Robousy",Jicin,Robousy,50601,493523247,0:00 - 24:00,,,,,OK,
5066,50.244217,12.899145,Orlen,56,Karlovy Vary,Karlovy Vary,č.p. 115,36263,353220827,05:00 - 23:00,,,4c9c903054c8a1cd0b007b4b,,OK,
5070,50.571194,14.644717,Orlen,56,Doksy,Doksy,Valdštejnská,47201,487872285,0:00 - 24:00,,,5436613c498e905e909d5d92,,OK,
5071,50.188797,16.006922,Orlen,56,Třebechovice Pod Orebem,Trebechovice,Týnišťská 1397,50346,495592041,0:00 - 24:00,,,,,OK,
5072,50.342674,15.904367,Orlen,56,Jaroměř,Jaromer,"Hradecká LS, č.p. 761",55101,491816275,0:00 - 24:00,,,,,OK,
5073,50.557171,13.601577,Orlen,56,"Litvínov, Záluží",Litvinov,"silnice č. 27, Záluží",43670,476411376,0:00 - 24:00,,,,,OK,
5074,49.712372,14.097938,Orlen,56,Dlouhá Lhota,Pribram,"R4 - 40.km, Dlouhá Lhota",26102,318690347,0:00 - 24:00,,,,,OK,
5075,50.662552,14.071483,Orlen,56,"Ústí Nad Labem, Přístavní",Usti Nad Labem,Přístavní 808/6,40007,475500680,0:00 - 24:00,,,,,OK,
5076,49.703167,12.987169,Orlen,56,Kladruby,Kladruby,"D5-111.km,odpoč.Kladruby čp.51",34961,374631950,0:00 - 24:00,,,,,OK,
5077,50.105743,14.070736,Orlen,56,Velká Dobrá Ps,Velka Dobra,dálnice PS,27361,312691988,0:00 - 24:00,,,,,OK,
5078,49.38121,15.592236,Orlen,56,"Jihlava, Znojemská",Jihlava,Znojemská 4715/90,58600,567307521,05:00 - 22:00,,,,,OK,
5079,49.392097,13.029155,Orlen,56,Kdyně,Domazlice,Na Kobyle 656,34506,379731392,05:00 - 23:00,,,503b2817e4b01850ca66d534,,OK,
5080,50.338432,14.49373,Orlen,56,"Mělník, Pražská",Melník,Pražská,27601,315627789,05:00 - 23:00,,,,,OK,
5081,49.794571,14.678819,Orlen,56,Benešov,Benesov,Červené Vršky 992,25601,317721017,05:00 - 22:00,,,,,OK,
5082,48.820686,14.458889,Orlen,56,Velešín,Velesin,Kaplická 469,38232,380331028,0:00 - 24:00,,,,,OK,
5083,50.511009,13.25002,OMV,58,Station,Hora Sv. Sebestiana,Prechod 68,43182,474695200,0:00 - 24:00,,,,,OK,
5084,49.349445,12.854515,Orlen,56,Folmava,Ceská Kubice,Česká Kubice,34532,379793452,05:00 - 23:00,,,63f08b03cb7dc20c9d524e6d,,OK,
5087,50.100037,14.442644,Orlen,56,"Praha, Argentinská",Praha,Argentinská,17000,266712637,0:00 - 24:00,,,,,OK,
5088,50.031021,14.38046,OMV,58,"Praha 5, K Barrandovu 1136/6",Praha 5,K Barrandovy 1136/6,15000,251810754,0:00 - 24:00,,,,,OK,
5090,49.790268,18.410997,Orlen,56,"Havířov, Železničářů",Havirov,Železničářů 1487/2A,73601,596811100,0:00 - 24:00,,,,,OK,
5091,49.927235,17.898716,Orlen,56,"Opava, Hradecká",Opava,Hradecká 2437/53,74601,553711862,0:00 - 24:00,,,,,OK,
5092,49.797871,18.239128,Orlen,56,"Ostrava, Rudná",Ostrava-Zabreh,Rudná 3187,70400,595781107,0:00 - 24:00,,,,,OK,
5096,50.003399,14.660071,Orlen,56,Říčany,Rícany,Černokostelecká 1903/1,25121,323602686,0:00 - 24:00,,,,,OK,
5097,50.517738,14.137481,Orlen,56,Litoměřice,Litomerice,Želetická 2097/25,41201,416739020,05:00 - 23:59,,,,,OK,
5100,49.066849,13.781983,Orlen,56,Vimperk,Vimperk,1. máje 658,38501,388411672,06:00 - 22:00,,,,,OK,
5101,49.481472,13.586374,Orlen,56,Nepomuk,Nepomuk,Kozlovická 537,335 01,371591796,0:00 - 24:00,,,4cc9608b7151721e163c6637,0,OK,
5104,50.481064,14.081197,Orlen,56,Siřejovice,Sirejovice,"D8 - 44km, č.p. 131",41121,416531395,0:00 - 24:00,,,,,OK,
5108,49.041489,17.592152,Orlen,56,Drslavice,Drslavice,č.p. 41,68733,572671101,0:00 - 24:00,,,,,OK,
5109,50.09325,12.840599,Orlen,56,Bečov Nad Teplou,Becov Nad Teplou,Karlovarská 470,36464,353999231,05:00 - 22:00,,,,,OK,
5111,49.4659,18.162189,Orlen,56,"Rožnov Pod Radhoštěm, Horní Paseky",Roznov Pod Radhostem,Radhošťská 2270,75601,571648294,0:00 - 24:00,,,,,OK,
5112,49.391258,15.548404,Orlen,56,"Jihlava, Pelhřimovská",Jihlava,Pelhřimovská 35,58600,+420 567 309 598,0:00 - 24:00,,,4c110751753a9c74347da420,,OK,
5117,49.522007,15.347628,Orlen,56,"Humpolec, Vystrkov",Humpolec,E 551 Vystrkov,39601,565536022,0:00 - 24:00,,,4c0c8b402b899c741865f158,,OK,
5118,50.404167,14.448333,Orlen,56,Liběchov,Libechov,Pražská,27721,315697187,05:00 - 22:00,,,,,OK,
5120,49.552021,17.183786,Orlen,56,"Olomouc, Žerůvky",Olomouc-Zeruvky,Žerůvky R 46,78341,601531986,0:00 - 24:00,,,,,OK,
5123,50.15086,13.51184,Orlen,56,Kolešov,Kolešov,E48 Hlavní tah směr Praha,27036,313594200,05:00 - 23:00,,,,,OK,
5126,49.012058,14.788143,Orlen,56,Třeboň,Trebon,Na Kopečku 995/II,37901,384724824,05:00 - 23:00,,,,,OK,
5127,50.91592,15.061625,Orlen,56,Frýdlant V Čechách,Frydlant v Cechach,"Větrov, Liberecká",46401,482312074,05:00 - 22:00,,,,,OK,
5129,49.898865,14.320517,Orlen,56,Líšnice,Líšnice,R4 - 13.km,25203,318591557,0:00 - 24:00,,,4d529d4ac5ff6ea8b209b007,0,OK,
5130,50.813477,14.962733,Orlen,56,Chrastava,Liberec,Nádražní,46331,485143726,05:00 - 22:00,,,,,OK,
5131,49.698891,13.423333,Orlen,56,"Plzeň, Nepomucká",Plzen,Nepomucká 791,30100,377243400,0:00 - 24:00,,,,,OK,
5132,49.012672,14.004786,Orlen,56,"Prachatice, Nebahovská",Prachatice,Nebahovská 1282,38301,388310218,0:00 - 24:00,,,,,OK,
5133,49.715134,16.486057,Orlen,56,Hradec Nad Svitavou,Hradec Nad Svitavou,"E461, č.p. 498",56901,461548135,05:00 - 21:00,,,,,OK,
5134,50.177219,15.046384,Orlen,56,Nymburk,Nymburk,Kolínská,28802,325512455,0:00 - 24:00,,,,,OK,
5135,49.678333,13.330556,Orlen,56,"Plzeň, Šlovice Ps",Slovice,"D5 - 85.km, obchvat Plzně PS č",32100,373735320,0:00 - 24:00,,,,,OK,
5136,49.676388,13.324722,Orlen,56,"Plzeň, Šlovice Ls",Slovice,"D5 - 85.km, obchvat Plzně LS, ",32100,373735332,0:00 - 24:00,,,,,OK,
5137,49.2276,14.720889,Orlen,56,"Veselí Nad Lužnicí, Řípec",Soběslav,Řípec 124,39182,381521888,05:00 - 23:00,,,5b5b619125fb7b003939527a,,OK,
5147,49.843067,18.150213,Orlen,56,"Ostrava, Pustkovec",Ostrava,Opavská 407,70500,596955596,05:00 - 22:00,,,,,OK,
5149,49.198448,14.211432,Orlen,56,Protivín,Protivin,Ve školce 913,39811,382252095,0:00 - 24:00,,,,,OK,
5150,50.10207,13.739551,Orlen,56,"Rakovník, Pražská",Rakovnik,Pražská 2496,26901,313512661,0:00 - 24:00,,,,,OK,
5151,49.081966,15.419752,Orlen,56,"Dačice, Hradecká",Dacice,Hradecká 91,38001,384420023,05:00 - 23:00,,,,,OK,
5153,49.220646,17.70789,Orlen,56,"Zlín, Příluky",Zlin,"Příluky, Vizovická 375",76001,577210292,0:00 - 24:00,,,4ecf85472c5bc35055da538e,,OK,
5156,50.356388,14.485833,Orlen,56,"Mělník, Nádražní",Melnik,Nádražní,27601,315622056,0:00 - 24:00,,,,,OK,
5162,50.092316,12.463511,Orlen,56,"Cheb, Obilná",Cheb,"Odrava - Obilná, č.p. 22",35001,354595849,0:00 - 24:00,,,4eac1ce75c5cf8848af6118c,,OK,
5163,48.906326,16.78355,Orlen,56,Starovičky,Starovicky,D2 - 31.5 km,69002,519323016,0:00 - 24:00,,,,,OK,
5165,50.121922,16.217966,Orlen,56,Kostelec Nad Orlicí Ls,Kostelec Nad Orlici,Rudé armády 1437,51741,494323219,06:00 - 22:00,,,,,OK,
5166,50.008465,15.773047,Orlen,56,"Pardubice, Dražkovice",Pardubice,"Dražkovice, č.p. 184",53333,466303152,05:00 - 21:00,,,,,OK,
5169,50.787441,14.809401,Orlen,56,Rynoltice,Rynoltice,Rynoltice 151,46353,485172169,0:00 - 24:00,,,,,OK,
5173,49.554115,15.946449,Orlen,56,"Žďár Nad Sázavou, Jihlavská",Zdár nad Sázavou,Jihlavská 1145/24,59148,566621684,0:00 - 24:00,,,,,OK,
5177,49.464886,14.555733,Shell,59,Cerpaci Stanice  Vsechlapy,Vsechlapy,Dalnice D1 Smer Brno,25726,317855760,0:00 - 24:00,,,,,OK,
5181,48.81004,16.89406,Shell,59,8048 Ladna L,Ladna U Breclavi,"Dalnice D2 44.Km, Smer Brno",691 46,+420 519 355 008,0:00 - 24:00,,,,,OK,
5182,48.81007,16.892321,Shell,59,8010 Ladna P,Ladna U Breclavi,"Dalnice D2 44.Km, Smer Bratislava",691 46,+420 519 355 105,0:00 - 24:00,,,,,OK,
5183,49.377869,15.945884,Shell,59,8011 Měřín,Měřín,"Dálnice D1 139.Km, Smer Brno",594 01,+420 566 544 377,0:00 - 24:00,,,,,OK,
5184,49.984051,14.603142,Shell,59,8050 Nupaky L,Nupaky,"Dálnice D1 8,5.Km, Smer Praha",251 01,+420 321 718 333,0:00 - 24:00,,,,,OK,
5185,49.183041,16.479067,Shell,59,8015 Popůvky,Popůvky,"Dálnice D1 185.Km, Smer Praha",664 41,+420 702 047 681,0:00 - 24:00,,,,,OK,
5189,50.100662,12.385797,Orlen,56,"Cheb, Obchvat",Cheb Obchvat,"obchvat (D6 - vpravo), Jindřic",35002,737204886,0:00 - 24:00,,,59f9ecb316fa04177360a0f0,,OK,
5190,50.756329,15.05192,OMV,58,"Liberec, Nákladní",Liberec,Nákladní ul.,46007,485113642,0:00 - 24:00,,,,,OK,
5211,50.143562,16.088966,Orlen,56,Týniště Nad Orlicí,Rychnov nad Kneznou,"Voklik, č.p. 1049",51701,494371954,05:00 - 22:00,,,,,OK,
5212,50.519512,14.047972,Orlen,56,Lovosice,Lovosice,Žabák č.p. 1233,41002,416535814,0:00 - 24:00,,,,,OK,
5213,49.823448,16.405071,Orlen,56,Gajer,Gajer,E442,57001,4616219175,0:00 - 24:00,,,,,OK,
5216,50.410629,14.243213,Orlen,56,"Roudnice Nad Labem, Žižkova",Roudnice nad Labem,Žižkova 2496,41301,416831203,0:00 - 24:00,,,,,OK,
5217,50.250278,14.320278,Orlen,56,Kralupy Nad Vltavou,Melnik,"Lobeček, Mostní",27801,315724633,0:00 - 24:00,,,,,OK,
5218,49.789688,12.651352,Orlen,56,Tachov,Tachov,Plzeňská 2064,34701,374722305,05:00 - 23:00,,,502e3617e4b0c518250a38da,0,OK,
5221,50.432812,14.925389,Orlen,56,Kosmonosy,Mlada Boleslav,Boleslavská,29306,326320244,05:00 - 23:00,,,,,OK,
5222,50.097027,14.479619,Orlen,56,"Praha, Krejcárek Ps",Praha,"Krejcárek PS, č.p. 107",13000,266311308,0:00 - 24:00,,,,,OK,
5223,50.10891,14.542857,Orlen,56,"Praha, Kolbenova",Praha,Kolbenova 809/31,19800,281868719,0:00 - 24:00,,,,,OK,
5224,50.1134,14.60215,Orlen,56,"Praha, Náchodská",Praha,Náchodská,19800,420281925909,0:00 - 24:00,,,4cd3db51ecc3a0934d789c93,,OK,
5227,48.988689,14.478333,Orlen,56,"České Budějovice, Nádražní",Ceske Budejovice,Nádražní 2768,37001,387423758,0:00 - 24:00,,,,,OK,
5228,50.133057,14.973611,Orlen,56,Sadská,Nymburk,Poděbradská,28912,325594315,05:00 - 22:00,,,,,OK,
5230,49.331081,15.577775,Бензиностанция,20,Orlen Vílanec,Vílanec,Cerekvička 43,59935,609778751,05:00 - 23:00,,,,,OK,
5232,50.058613,14.489167,Orlen,56,"Praha, Jižní Spojka Ps",Praha 10 - Zabehlice,"Jižní spojka PS, č.p. 3183",10600,272760239,0:00 - 24:00,,,,,OK,
5315,50.025379,15.824894,Бензиностанция,20,Cerpaci Stanice EuroOil,Cerna Za Bory,Cerna Za Bory,50777,466670755,,,,,,OK,
5356,50.740002,15.1,Бензиностанция,20,Cerpaci Stanice EuroOil,Vratislavice n.N.,Tanvaldska 1496,46311,485160253,,,,,,OK,
5367,50.889999,14.62,Бензиностанция,20,Cerpaci Stanice EuroOil,Varnsdorf,Plzenska,40747,412372155,,,,,,OK,
5382,49.959999,16.98,Бензиностанция,20,Cerpaci Stanice EuroOil,Sumperk,Jesenicka 2965,78701,583212839,,,,,,OK,
5409,49.860001,12.74,Бензиностанция,20,Cerpaci Stanice EuroOil,Plana u Mar.Lazni,Plana U M.L.855,34815,374798466,,,,,,OK,
5410,50.189999,12.64,Бензиностанция,20,Cerpaci Stanice EuroOil,Sokolov,Kraslicka,35601,352622362,,,,,,OK,
5414,49.900002,13.5,Бензиностанция,20,Cerpaci Stanice EuroOil,Kozojedy,Kozojedy 152,33142,373398214,,,,,,OK,
5438,49.870632,14.270522,Orlen,56,Mníšek Pod Brdy,Mníšek pod Brdy,Řevnická,25210,318591428,0:00 - 24:00,,,4f9d5d22e4b008dde26cd9f0,0,OK,
5439,49.998589,14.486528,Orlen,56,"Praha, Kunratická Spojka",Praha 4,Kunratická spojka 1169/1,14000,244910366,0:00 - 24:00,,,,,OK,
5440,49.764812,18.272736,Orlen,56,"Ostrava, Místecká",Ostrava,Místecká 733,70200,596735924,05:00 - 22:00,,,,,OK,
5441,49.696266,15.803372,Orlen,56,Ždírec Nad Doubravou,Zdirec nad Doubravou,Průmyslová 508,58236,569694132,0:00 - 24:00,,,,,OK,
5442,50.027275,15.754752,Orlen,56,"Pardubice, Dukla",Pardubice,Pražská 2828,53002,466303705,05:00 - 23:00,,,,,OK,
5444,50.773582,15.046206,Orlen,56,Liberec,Liberec,Chrastavská,46011,485103712,0:00 - 24:00,,,,,OK,
5449,49.969971,15.30935,Shell,59,8147 Kutná Hora,Kutná Hora,Nové Dvory 291,284 01,+420 327 524 016,0:00 - 24:00,,,,,OK,
5450,49.303829,17.480383,Shell,59,8146 Hulín,Hulín,Záhlinická 1280,768 24,+420 573 333 209,06:00 - 22:00,,,,,OK,
5451,50.156948,13.969003,Shell,59,8145 Stochov,Stochov,"Rých. Kom. R6, Smer Praha",273 03,+420 312 655 500,0:00 - 24:00,,,,,OK,
5452,50.376431,15.53933,Shell,59,8144 Ostroměř,Ostroměř,Ostromer 220,507 52,+420 493 523 016,06:00 - 22:00,,,,,OK,
5453,50.112144,14.282244,Shell,59,8140 Praha-Ruzyně,Praha - Ruzyně,Aviatická,160 00,+420 220 873 737,0:00 - 24:00,,,,,OK,
5454,49.536457,15.334026,Shell,59,8137 Humpolec,Humpolec,Dálnice D1,396 01,+420 565 533 710,0:00 - 24:00,,,4be3b2d2f07b0f47abc8f843,16765886,OK,
5455,49.528427,12.94864,Shell,59,8136 Horšovský Týn,Horšovský Týn,Na Preložce 289,346 01,+420 379 494 949,0:00 - 24:00,,,,,OK,
5456,49.942181,16.165791,Shell,59,8557 Vysoké Mýto,Vysoké Mýto,Husova Ul. 736/Iv,566 01,+420 465 393 888,05:00 - 22:00,,,,,OK,
5458,49.788631,18.406851,Shell,59,8128 Havířov-Ostravská,Havířov,Ostravská 2,736 01,+420 596 820 018,0:00 - 24:00,,,,,OK,
5459,50.038929,14.466848,Shell,59,8127 Praha-Jižní Spojka (Kačerov),Praha 4,Jižní Spojka,141 00,+420 272 760 506,0:00 - 24:00,,,,,OK,
5460,50.771721,14.20676,Shell,59,8125 Děčín,Děčín 5,Predmostí 4,405 02,+420 412 530 205,06:00 - 22:00,,,,,OK,
5463,49.59164,15.57918,Shell,59,8122 Havlíčkův Brod,Havlíčkův Brod,Lidická 3547,580 01,+420 569 427 264,0:00 - 24:00,,,,,OK,
5464,50.080448,14.537692,Shell,59,8111 Praha-Průmyslová,Praha 10,Prumyslová 42,108 00,+420 773 304 511,0:00 - 24:00,,,4ca4aa78d7c33704e147ab62,0,OK,
5465,49.747726,13.364827,Shell,59,8109 Plzeň-Přemyslova,Plzeň,Přemyslova 2729/41,301 00,+420 377 221 866,0:00 - 24:00,,,,,OK,
5466,49.31842,17.03845,Shell,59,8106 Pustiměř,Pustiměř,"Rychlostní Kom. R46, Směr Brno",683 21,+420 739 472 745,0:00 - 24:00,,,,,OK,
5467,49.874741,16.891666,Shell,59,8104 Zábřeh,Zábřeh,Olomoucká 6,789 01,+420 583 455 961,05:30 - 22:00,,,,,OK,
5468,49.270302,16.988604,Shell,59,8102 Vyškov,Vyškov,Brněnská 25,682 11,+420 517 330 440,0:00 - 24:00,,,,,OK,
5469,49.797668,14.19578,Shell,59,8100 Dobříš,Dobříš,Kodetka 1601,263 01,+420 318 523 967,0:00 - 24:00,,,,,OK,
5470,50.193378,15.810963,Shell,59,8099 Hradec Králové-Rašínova L,Hradec Králové,Rašínova Trída 1649/2,500 02,+420 491 435 555,06:00 - 22:00,,,,,OK,
5471,50.194305,15.811083,Shell,59,8098 Hradec Králové-Rašínova P,Hradec Králové,Rašínova Trída 1649/1,500 02,+420 495 534 504,0:00 - 24:00,,,,,OK,
5472,49.654991,14.63255,Shell,59,8097 Votice,Votice,Pražská 795,259 01,+420 317 814 271,0:00 - 24:00,,,,,OK,
5473,50.508564,13.252867,Shell,59,8094 Hora Sv. Šebestiána,Hora Svatého Šebestiána,Hora Sv. Šebestiána 101,431 82,+420 474 623 579,0:00 - 24:00,,,,,OK,
5474,49.944241,17.928556,Shell,59,8092 Opava-Hlučínská,Opava 5,Hlucínská 45,747 05,+420 553 623 658,0:00 - 24:00,,,,,OK,
5475,50.12019,14.502845,Shell,59,8088 Praha-Prosecká,Praha 9,Prosecká,190 00,+420 283 883 128,0:00 - 24:00,,,4b7ad517f964a5207f3f2fe3,,OK,
5476,49.582722,17.264229,Shell,59,Cerpaci Stanice,Olomouc,Velkomoravska 319/20,77900,585241097,0:00 - 24:00,,,,,OK,
5477,50.410683,14.930934,Shell,59,8081 Mladá Boleslav,Mladá Boleslav,Jicínská,293 01,+420 326 331 600,0:00 - 24:00,,,,,OK,
5478,48.805801,16.625622,Shell,59,8080 Mikulov Pravá,Mikulov,K Vápence 69,692 01,+420 519 327 777,0:00 - 24:00,,,4d466c36befe236ada7c08e3,,OK,
5479,49.9561,15.79928,Shell,59,8077 Chrudim,Chrudim,Dašická Ul. 1228,537 01,+420 469 620 509,0:00 - 24:00,,,,,OK,
5481,48.850151,16.05423,Shell,59,8071 Znojmo,Znojmo,Vídenská 20,669 02,+420 515 261 680,0:00 - 24:00,,,,,OK,
5482,49.712521,15.065963,Shell,59,8066 Kalná,Kalna,"Dálnice D1 58.Km, Smer Praha.",257 71,+420 317 851 074,0:00 - 24:00,,,,,OK,
5483,50.768169,15.04094,Shell,59,8065 Liberec-Žitavská,Liberec 10,Žitavská,460 01,+420 485 106 890,06:00 - 22:00,,,,,OK,
5485,50.356121,13.78005,Shell,59,8060 Louny,Louny,Postoloprtská 828,440 01,+420 415 672 165,0:00 - 24:00,,,,,OK,
5486,50.036049,14.38666,Shell,59,8056 Praha-Geologická,Praha 5,K Barrandovu 1085/1,155 00,+420 251 812 964,0:00 - 24:00,,,,,OK,
5488,49.22657,16.579,Shell,59,8046 Brno-Hradecká,Brno,Hradecká 32,612 00,+420 541 247 571,06:00 - 22:00,,,,,OK,
5489,50.579121,15.07079,Shell,59,8043 Príšovice L,Příšovice,Rych. Kom. R10 Smer Praha,463 46,+420 485 177 011,0:00 - 24:00,,,,,OK,
5490,50.57814,15.07101,Shell,59,8042 Príšovice P,Příšovice,Rých. Kom. R10 Smer Liberec,463 46,+420 485 177 101,0:00 - 24:00,,,,,OK,
5491,50.425121,16.16238,Shell,59,8035 Nachod,Nachod,Kostelecka 1225,547 01,+420 491 421 988,0:00 - 24:00,,,,,OK,
5492,49.375523,14.694976,Shell,59,8031 Sezimovo Ústí,Sezimovo Ústí,Pod Kovosvitem 1108,391 02,+420 381 263 771,06:00 - 22:00,,,,,OK,
5493,50.093418,14.33206,Shell,59,8029 Praha-Evropská,Praha 6,Evropská 787/20,160 00,+420 235 352 201,0:00 - 24:00,,,,,OK,
5495,50.21682,15.83216,Shell,59,8019 Hradec Králové-Gočárův Okruh,Hradec Králové,Pilnáčkova 381/2,500 03,+420 495 212 272,0:00 - 24:00,,,,,OK,
5496,49.796261,18.27133,Shell,59,8016 Ostrava-Místecká,Ostrava - Hrabůvka,Místecká 1626,730 00,+420 596 769 858,0:00 - 24:00,,,,,OK,
5497,50.10955,14.63966,Shell,59,8012 Praha-H. Počernice,Horní Počernice,"Dálnice D11 3.Km, Smer Praha",193 00,+420 773 303 508,0:00 - 24:00,,,,,OK,
5498,50.347988,14.49213,Shell,59,8009 Mělník,Mělník,Mladoboleslavská 3561,276 01,+420 315 626 427,0:00 - 24:00,,,,,OK,
5499,50.67947,14.0249,Shell,59,8008 Ústí N/Labem,Ústí Nad Labem,Sociální Péce 6A,400 11,+420 472 771 483,0:00 - 24:00,,,,,OK,
5500,49.727058,13.41302,Shell,59,8007 Plzeň-Koterovská,Plzeň,Koterovská 156,326 00,+420 377 248 520,0:00 - 24:00,,,,,OK,
5501,50.653439,13.84899,Shell,59,8006 Teplice-Masarykova,Teplice,Masarykova 1208,415 01,+420 417 562 123,0:00 - 24:00,,,,,OK,
5502,50.058308,14.312233,Shell,59,8005 Praha-Jeremiašová,Praha 5,Hájčí 2645/2,155 43,+420 251 616 603,0:00 - 24:00,,,,,OK,
5503,50.04158,15.8006,Shell,59,8004 Pardubice-Na Drážce,Pardubice,Na Drážce,530 03,+420 466 052 222,0:00 - 24:00,,,,,OK,
5504,49.176689,16.602461,Shell,59,8003 Brno-Heršpická,Brno,Heršpická 8,639 00,+420 543 234 894,0:00 - 24:00,,,,,OK,
5508,49.236111,17.666668,Orlen,56,"Zlín, Jižní Svahy",Zlín,Okružní 5296,76005,577242959,05:00 - 23:00,,,,,OK,
5510,49.14772,18.022078,Orlen,56,Valašské Klobouky,Valasské Klobouky,Cyrilometodějská 947,76601,577321103,05:00 - 22:00,,,4d5d509bb9b2a143e1b8808c,0,OK,
5512,49.751312,12.985548,Orlen,56,Stříbro,Stribro,Na Vinici 1333,34901,374699154,05:00 - 23:00,,,,,OK,
5513,49.745937,12.841631,Shell,59,8151 Malkovice P,Bor U Tachova,"Dalnice D5 125.Km, Smer Nemecko",348 02,+420 374 783 507,0:00 - 24:00,,,,,OK,
5514,49.441296,14.358622,Orlen,56,Milevsko,Milevsko,Československých legií 5,39901,382523207,05:00 - 22:00,,,,,OK,
5516,49.796757,12.63321,Shell,59,Cerpaci Stanice  Málkovice L,Bor u Tachova,D5 125Km Smer Praha,34802,374783485,0:00 - 24:00,,,,,OK,
5519,49.631802,17.843201,Shell,59,8155 Vrazne L,Vrazne,Dalnice D1 319 Km,742 35,+420 734 315 988,0:00 - 24:00,,,,,OK,
5520,49.627201,17.832399,Shell,59,8154 Vrazne P,Vrazne,"Dálnice D1, 319 Km Směr Ostrava",742 35,+420 734 315 990,0:00 - 24:00,,,,,OK,
5521,50.068989,14.730956,Orlen,56,Úvaly,Uvaly,R12,25082,281980894,0:00 - 24:00,,,,,OK,
5522,49.598331,18.746349,Shell,59,8545 Návsí - Jablunkov,Návsí,Návsí 964,739 92,+420 603 202 246,0:00 - 24:00,,,57b971ad498e30ab6f9665a4,,OK,
5525,49.775555,18.095278,Orlen,56,"Station Klimovice LS, Bravantice",Bravantice,D1-345 km,74281,605004262,0:00 - 24:00,,,,,OK,
5527,50.063271,14.848728,Orlen,56,Český Brod,Cesky Brod,"Chouranice, st.silnice",28201,321623382,05:00 - 22:00,,,,,OK,
5528,49.287621,16.221817,Orlen,56,Velká Bíteš,Velka Bites,Za loukama 257,59501,566532829,05:00 - 22:00,,,,,OK,
5529,50.23547,14.069772,Orlen,56,Slaný,Slany,Dukelských hrdinů,27401,312526137,0:00 - 24:00,,,,,OK,
5533,50.081676,16.761368,Orlen,56,Králíky,Kraliky,Moravská 998,56169,465631416,05:00 - 22:00,,,,,OK,
5559,50.026947,17.037153,Orlen,56,Velké Losiny,Velke Losiny,Třída Rudé armády 623,78815,,05:00 - 21:00,,,,,OK,
5565,48.881351,16.06134,Shell,59,8504 Kuchařovice,Kuchařovice,Kucharovice 45/2,669 02,+420 515 221 798,06:00 - 19:00,,,,,OK,
5569,49.209778,16.143593,Orlen,56,Náměšť Nad Oslavou,Namest nad Oslavou,Třebíčská,67571,568620488,0:00 - 24:00,,,,,OK,
5572,49.363052,17.958899,TaM,224,Autohof Vsetín,Vsetín,Bobrky 457,755 01,+420 734 867 067,0:00 - 24:00,,,4f9e883de4b0e5be4138a59f,,OK,
5608,50.144798,14.745816,Mol,57,Station Záluzí sever (D5),Zaluzi,"Dalnice D5, Praha - Plzen",33701,603838561,0:00 - 24:00,,,,,OK,
5610,50.085381,12.284592,Mol,57,Station Pomezi - Sever,Pomezi Nad Ohri,Grenzuebergang,35002,354434955,0:00 - 24:00,,,,,OK,
5611,49.34938,12.853114,Mol,57,Folmava I,Ceska Kubice,Hranicní prechod Folmava  I-26,34532,420721006717,0:00 - 24:00,,,59fa42abb1538e30370327d6,,OK,
5785,50.003868,14.48095,Mol,57,Station,Praha 4 - Kunratice,Videnska Ul.,14000,244912643,0:00 - 24:00,,,4bd333c9046076b0ea6e7571,0,OK,
5842,49.858852,18.269558,Orlen,56,"Ostrava, Hlučínská",Ostrava,Hlučínská 1111,70200,596136232,05:00 - 21:00,,,,,OK,
12566,49.001553,12.197353,Shell,94,"Barbing, Neutraublinger Str",Barbing,Neutraublinger Str. 12,93092,+49 9401 1872,06:00 - 22:00,,,,,OK,
12685,48.574333,13.416851,Shell,94,"Passau, Regensburger Str",Passau,Regensburger Str. 68,94036,+49 851 7561800,0:00 - 24:00,,,57a7433b498e6c0508b44d15,,OK,
12816,48.684528,12.206131,Aral,84,Eduard Paßreiter,Ergoldsbach,Landshuter Straße 20,84061,87711345,0:00 - 24:00,,,,,OK,
13085,50.858273,12.869941,Aral,84,Frank Pfeifer,Chemnitz,Leipziger Straße 257,9114,3713301680,0:00 - 24:00,,,,,OK,
13100,48.995132,12.150837,Shell,94,"Regensburg, Junkersstr",Regensburg,Junkersstr. 3,93055,+49 941 788990,0:00 - 24:00,,,591e4e73947c0523b6d763ac,,OK,
13161,50.7188,12.51566,Aral,84,Thomas Bieräugel,Zwickau,Äußere Dresdner Straße,8066,375477462,0:00 - 24:00,,,,,OK,
13188,50.894039,14.801874,Aral,84,Vewag Verwaltungsgesellschaft Mbh,Zittau,Theodor-Koerner-Allee 2,2763,3583510275,0:00 - 24:00,,,,,OK,
13200,50.993053,12.965524,Aral,84,André Müller,Mittweida,Sonnenstraße 1,9648,372790602,0:00 - 24:00,,,,,OK,
13217,50.819344,12.404243,Aral,84,Jens Paßler,Crimmitschau,Glauchauer Landstraße 70,8451,37625374,0:00 - 24:00,,,,,OK,
13235,51.014713,13.645465,Shell,94,"Freital, Wilsdruffer Str",Freital,Wilsdruffer Str 54,1705,+49 351 6501204,06:00 - 21:00,,,4dec9938ae60e989238ec8df,,OK,
13274,50.814091,12.912795,Aral,84,Jeannette Pfeifer,Chemnitz,Annaberger Straße 94,9120,371530780,0:00 - 24:00,,,,,OK,
13324,51.013947,13.774745,HEM,90,Dietmar Voss,Dresden,Dohnaer Straße 103,1219,+49 351 2842533,0:00 - 24:00,,,6411f8d09e3a1d1781f6ff18,,OK,
13336,50.814236,12.95497,Aral,84,Volkmar Kraus,Chemnitz,Zschopauer Straße 234,9126,37154468,0:00 - 24:00,,,,,OK,
13393,50.816711,12.882975,Aral,84,Thomas Irmscher,Chemnitz,Neefestraße 145,9116,3712806239,0:00 - 24:00,,,,,OK,
13411,50.85659,12.875176,Aral,84,Mirko Heidrich,Chemnitz,Leipziger Straße 206,9114,371372415,0:00 - 24:00,,,,,OK,
13472,50.995148,14.61607,Aral,84,Ebersbach,Ebersbach,Rumburger Str. 42,2730,3586300091,0:00 - 24:00,,,,,OK,
13474,50.631111,12.73706,Aral,84,Vewag Verwaltungsgesellschaft Mbh,Lößnitz,Chemnitzer Straße 8,8294,377135357,0:00 - 24:00,,,,,OK,
13484,50.887344,13.670929,Aral,84,Mike Bellmann,Dippoldiswalde,Alte Altenberger Str. 40,1744,3504612652,0:00 - 24:00,,,,,OK,
13519,51.051785,13.714924,Shell,94,"Dresden, Loebtauer Str",Dresden,Loebtauer Str. 28/30,1159,+49 351 4940310,06:00 - 22:00,,,,,OK,
13543,50.426365,12.176662,Aral,84,Matthias Gotte,Oelsnitz,Plauensche Straße 65,8606,3742122180,0:00 - 24:00,,,,,OK,
13559,50.720562,12.474003,Aral,84,Ralf Schaller,Zwickau,Marienthaler Straße 2,8060,375523928,0:00 - 24:00,,,,,OK,
13563,50.474182,12.354389,Aral,84,Christiane Gotte,Falkenstein,Plauensche Straße 70,8223,374571566,0:00 - 24:00,,,,,OK,
13568,50.921398,12.716094,Shell,94,"Penig, B 95",Penig,B 95,9322,+49 37381 82052,05:00 - 21:00,,,,,OK,
13588,48.625912,12.319763,Shell,94,"Woerth/Isar, Luitpoldpark",Woerth An Der Isar,Luitpoldpark 2,84109,+49 8702 941111,0:00 - 24:00,,,59d6198de1f0aa679c8cc4e8,,OK,
13633,50.712246,12.761389,Shell,94,"Stollberg, Auer Str",Stollberg,Auer Str. 2,9366,+49 37296 15968,0:00 - 24:00,,,5e02fe2e9ad0bf0007154bb1,,OK,
13910,49.388439,12.145668,Shell,94,"Schwarzenfeld, Hammer",Schwarzenfeld,Hammer. 30,92521,+49 9435 2201,0:00 - 24:00,,,,,OK,
13979,50.783447,12.870125,Shell,94,"Neukirchen, Chemnitzer Str",Neukirchen,Chemnitzer Str. 36,9221,+49 371 217162,0:00 - 24:00,,,,,OK,
13983,51.034821,13.584515,Shell,94,"Kesselsdorf, Sachsenallee",Kesselsdorf,Sachsenallee 1,1723,+49 35204 47152,0:00 - 24:00,,,,,OK,
13987,50.881184,12.119916,Shell,94,"Gera, Ronneburger Str",Gera,Ronneburger Str. 59,7546,+49 365 8321393,0:00 - 24:00,,,4df0eaad227193bb466d6a88,0,OK,
14030,49.937317,12.2281,Aral,84,Thomas Neugebauer,Mitterteich,Gottlieb-Daimler-Straße 4,95666,96339232557,0:00 - 24:00,,,,,OK,
14155,50.953114,13.938728,Aral,84,Christa Gaebel,Pirna,Zehistaer Straße 1,1796,3501769123,06.00.00 - 22.00.00,,,,,OK,
14156,50.928902,13.328494,Aral,84,André Müller,Freiberg,Leipziger  Straße 43,9599,373133699,0:00 - 24:00,,,,,OK,
14193,49.199493,12.52371,Aral,84,Carmen Gregori,Roding,Chamer Straße 52,93426,94612109,0:00 - 24:00,,,,,OK,
14195,48.636211,12.495536,Aral,84,Markus Fraundorfner,Dingolfing,Bahnhofstraße 18,84130,873173537,0:00 - 24:00,,,,,OK,
14270,49.167454,12.869042,Aral,84,Station,Bad Kötzting,Arnbrucker Str. 1 a,93444,9941904901,0:00 - 24:00,,,,,OK,
14297,49.001217,13.219852,Aral,84,Martin Biebl,Zwiesel,Bärnzeller Straße 5,94227,9922802644,0:00 - 24:00,,,,,OK,
14489,50.856503,12.929509,Aral,84,Mirko Heidrich,Chemnitz,Blankenauer Straße 70,9113,371449293,0:00 - 24:00,,,,,OK,
14532,50.074238,12.098674,Shell,94,"Thiersheim, Wampenerstr. 1",Thiersheim,Wampenerstr. 1,95707,+49 9235 98100,0:00 - 24:00,,,,,OK,
14732,51.037048,13.2966,Shell,94,Autohof Nossen,Nossen,Augustusberg 72,1683,+49 35242 67238,0:00 - 24:00,,,,,OK,
14768,48.999924,12.149016,Aral,84,Kurt Gernert,Regensburg,Max-Planck-Straße 8,93055,9417995752,0:00 - 24:00,,,,,OK,
14851,49.533005,12.135991,Shell,94,"Wernberg, Keplerstraße",Wernberg,Keplerstr. 1,92533,+49 9604 914780,0:00 - 24:00,,,,,OK,
14859,50.49963,12.147604,Aral,84,Matthias Gotte,Plauen,Hammerstraße 65,8523,3741223173,0:00 - 24:00,,,,,OK,
14860,50.49033,12.131041,Aral,84,Vewag Verwaltungsgesellschaft Mbh,Plauen,Trockentalstraße 64,8527,3741137066,0:00 - 24:00,,,,,OK,
14896,50.710281,12.866449,Aral,84,Vewag Verwaltungsgesellschaft Mbh,Thalheim,Chemnitzer Straße 47 d,9380,372138992,0:00 - 24:00,,,,,OK,
14939,48.947273,12.545591,Aral,84,Josef Aumer,Kirchroth,Bernauer Straße 20,94356,9428226,06.00.00 - 22.00.00,,,,,OK,
14971,51.002003,13.652169,Aral,84,Karsten Mathys,Freital,Dresdner Straße 164-166,1705,3514601502,0:00 - 24:00,,,,,OK,
14994,51.020905,13.729999,Aral,84,Jens Scholtyssek,Dresden,Bergstr. 121 / Ecke Südhö,1217,3514016150,0:00 - 24:00,,,,,OK,
15054,51.006603,13.819403,Aral,84,Dietmar Voss,Dresden,Straße des 17. Juni - Num,1257,3512015155,0:00 - 24:00,,,,,OK,
15065,50.636719,12.324356,Aral,84,Jens Paßler,Reichenbach,Zwickauer Straße 240,8468,376512016,0:00 - 24:00,,,,,OK,
15110,50.724491,12.778809,Aral,84,Eckehard König,Niederdorf,Neue Schichtstraße 16,9366,3729692441,0:00 - 24:00,,,4c0fc3f0cd8eb713dadfef94,0,OK,
15131,50.704899,12.493811,Aral,84,Ralf Schaller,Zwickau,Planitzer Straße 3-5,8056,375282580,0:00 - 24:00,,,,,OK,
15132,50.742886,12.488129,Aral,84,Thomas Bieräugel,Zwickau,Leipziger Straße 208,8058,375282684,0:00 - 24:00,,,,,OK,
15344,50.59119,13.010769,Aral,84,Michael Weber,Annaberg-Buchholz,Chemnitzer Straße 34,9456,373351015,0:00 - 24:00,,,,,OK,
15345,50.531078,12.812905,Aral,84,Michael Weber,Schwarzenberg,Schwarzenberger Straße 4,8340,377486350,0:00 - 24:00,,,,,OK,
15610,48.587494,13.365823,Aral,84,Bat Donautal Ostbavaria Petrol Gmbh&co. Kg,Passau,Reichsgrafenstraße 35/A3,94036,85175688830,0:00 - 24:00,,,,,OK,
15801,48.620358,13.416046,Aral,84,Martin Biebl,Tiefenbach,Am Jackinger Berg,94113,8509937774,0:00 - 24:00,,,,,OK,
16270,50.983246,12.456715,Aral,84,Anja Siegel,Altenburg,Münsaer Straße 65  /B 180,4600,3447311258,0:00 - 24:00,,,,,OK,
16501,50.9981,12.407759,Shell,94,"Oberloedla/, Loedlaer Chauss",Oberlödla/ Altenburg,Loedlaer Chaussee 4,4617,+49 3447 82070,05:00 - 22:00,,,,,OK,
16502,50.772163,12.622837,Shell,94,"St.egigien, Platanenstr. 2",St. Egigien,Platanenstr. 2,9356,+49 37204 83320,0:00 - 24:00,,,,,OK,
16507,50.657841,12.969007,Shell,94,"Ehrenfriedersdorf, Chemnitzstr. 79",Ehrenfriedersdorf,Chemnitzstr. 79,9427,+49 37341 2056,05:00 - 21:00,,,,,OK,
16810,48.966366,13.117891,Aral,84,Guenter Koestlmeier,Regen,Ruselstraße 37,94209,99212431,06.00.00 - 22.00.00,,,,,OK,
16812,49.205914,12.486226,Aral,84,Maria Gabler,Roding,Schwandorfer Straße 10,93426,94611233,06.00.00 - 21.30.00,,,,,OK,
16860,50.957668,13.9493,Aral,84,Annette Ertelt,Pirna,Krietzschwitzer Straße,1796,3501761642,0:00 - 24:00,,,,,OK,
16903,49.197334,13.006358,Aral,84,Willi Weber,Arrach,Regentalstraße 10,93474,99433657,07.00.00 - 21.00.00,,,,,OK,
16950,50.650639,13.365611,Shell,94,"Olbernhau, Gruenthaler Str.1",Olbernhau,Grünthaler Str. 109,9526,+49 37360 72378,05:00 - 21:00,,,,,OK,
17055,48.607929,12.71482,OMV,92,Station,Simbach,Hauptstraße 4,94436,9956323,,,,,,OK,
17194,48.988071,12.189597,Aral,84,Wolfgang Großmann,Neutraubling,Gleiwitzer Straße 8,93073,940179060,0:00 - 24:00,,,,,OK,
17436,50.842178,12.44537,Shell,94,Meerane Äussere Crimmitschauer Str,Meerane,Äußere Crimmitschauer Str. 125,8393,+49 3764 4610,05:00 - 22:00,,,,,OK,
17538,50.812813,12.841511,Shell,94,"Chemnitz, Jagdschänkenstr. 17",Chemnitz,Jagdschänkenstr. 17,9117,+49 371 8577946,05:00 - 21:30,,,,,OK,
17711,48.652836,13.618753,Aral,84,"Ewald Kinateder Jun.hauzeberg, Josef - Gr",Hauzenberg,Josef-Greschniok-Straße 1,94051,85861342,06.00.00 - 23.59.00,,,,,OK,
17790,49.456669,12.417084,Shell,94,"Oberviechtach, Zum Bahnhof",Oberviechtach,Zum Bahnhof 11 B,92526,+49 9671 923112,06:00 - 22:00,,,,,OK,
17946,48.556683,12.153446,Esso,88,Landshut-Industriegebiet,Landshut,Siemensstr. 19,84030,+49 871 140007,0:00 - 24:00,,,,,OK,
17983,50.672359,12.463456,Shell,94,"Zwickau, Lengenfelder Strass",Zwickau,Lengenfelder Strasse 130,8064,+49 375 789826,0:00 - 24:00,,,,,OK,
18126,50.871876,12.909255,Shell,94,"Chemnitz, Chemnitztalstr. 170",Chemnitz,Chemnitztalstr. 170,9114,+49 371 411525,05:00 - 20:00,,,,,OK,
18130,50.85487,13.321194,Shell,94,"Brand-Erbisdorf, Gewerbegeb.s",Brand-Erbisdorf,Gewerbegebiet Süd 2,9618,+49 37322 33214,0:00 - 24:00,,,,,OK,
18136,50.862881,13.008434,Shell,94,"Niederwiesa, Chemnitzer Str. 23",Niederwiesa,Chemnitzer Str. 23,9577,+49 3726 6469,06:00 - 20:00,,,,,OK,
18137,50.885273,12.349403,Shell,94,"Schmölln, Am Kemnitzgrund 1",Schmölln,Am Kemnitzgrund 1,4626,+49 34491 83167,0:00 - 24:00,,,,,OK,
18150,50.548801,12.772236,Shell,94,"Schwarzenberg, Str. Der Einh",Schwarzenberg,Strasse Der Einheit 59,8340,+49 3774 25423,05:00 - 21:00,,,,,OK,
18151,48.842453,12.96164,Shell,94,"Deggendorf, Ruselstr.8",Deggendorf,Ruselstr. 8,94469,+49 991 5472,05:00 - 20:00,,,,,OK,
18205,49.062897,13.104891,Shell,94,"Bodenmais, Regener Str. 10",Bodenmais,Regener Str. 10,94249,+49 9924 1844,07:00 - 19:00,,,,,OK,
18298,50.893734,12.942377,Shell,94,"Lichtenau, Bat A4 Auerswalde N",Lichtenau,An Der Autobahn 99B,9244,+49 37208 83815,0:00 - 24:00,,,,,OK,
18341,49.106625,13.006161,Shell,94,"Drachselsried, Pointwiese",Drachselsried,Pointwiese 1,94256,+49 9945 905171,07:00 - 19:30,,,,,OK,
18344,48.630375,13.19285,Shell,94,"Vilshofen, Passauer Str",Vilshofen,Passauer Str. 27,94474,+49 8541 911582,05:00 - 22:00,,,,,OK,
18345,48.912125,13.350651,Shell,94,"Spiegelau, Palmberger Str",Spiegelau,Palmberger Str. 40,94518,+49 8553 91150,06:00 - 20:00,,,,,OK,
18347,48.582382,13.40893,Shell,94,"Passau, Kachletstr",Passau,Kachletstr. 28,94034,+49 851 53745,05:00 - 22:00,,,,,OK,
18370,48.716194,13.329356,Shell,94,"Fürstenstein, Vilshofener Str",Fürstenstein,Vilshofener Str. 6,94538,+49 8504 916060,06:00 - 20:00,,,,,OK,
18392,50.980202,12.425417,Shell,94,"Altenburg, Schmöllnsche Land",Altenburg,Schmöllnsche Land 7,4600,+49 3447 505984,05:00 - 21:00,,,,,OK,
18406,48.813694,13.545455,Shell,94,"Freyung, Grafenauer Str",Freyung,Grafenauer Str. 45,94078,+49 8551 576816,06:00 - 20:00,,,,,OK,
18462,48.835915,12.959143,Aral,84,Reinhard Graf Gmbh,Deggendorf,Angermuehle 8,94469,9917510,06.00.00 - 22.00.00,,,,,OK,
18624,50.701797,12.506179,Aral,84,Jens Paßler,Zwickau,Wildenfelser Straße 15,8056,375287020,0:00 - 24:00,,,,,OK,
18659,48.626858,13.217684,Shell,94,"Windorf, Vilshofener Str",Windorf,Vilshofener Str. 2,94575,+49 8541 8349,07:00 - 18:00,,,,,OK,
19996,48.586586,12.189345,Shell,94,"Essenbach/Altheim,Daimlerstr.2",Essenbach/Altheim,Daimlerstr. 2,84051,+49 8703 907766,0:00 - 24:00,,,,,OK,
20037,50.898987,12.774436,Aral,84,Präg Mineralöl Gmbh,Mühlau,Lindenstraße 2,9241,37226157,0:00 - 24:00,,,,,OK,
20043,50.673134,12.527349,Aral,84,Präg Mineralöl Gmbh,Wilkau-Haßlau,Schneeberger Straße 83 a,8112,375661660,05.00.00 - 22.00.00,,,,,OK,
20044,50.722969,12.374348,Aral,84,Präg Mineralöl Gmbh,Werdau,Greizer Straße 1,8412,37615209,0:00 - 24:00,,,,,OK,
20051,50.501617,12.603107,Aral,84,Präg Mineralöl Gmbh,Eibenstock,Schneeberger Straße 30,8309,377523145,05.00.00 - 22.00.00,,,,,OK,
20066,51.020645,13.840796,Aral,84,Präg Mineralöl Gmbh,Dresden,Österreicher Straße 64,1279,3512514937,06.00.00 - 22.00.00,,,,,OK,
20226,51.055008,12.110562,Shell,94,"Zeitz, Am Herrmannschacht",Zeitz,Am Herrmannschacht 3,6712,+49 3441 216768,0:00 - 24:00,,,,0,OK,
20420,50.579479,12.691724,Aral,84,Vewag Verwaltungsgesellschaft Mbh,Aue,Bockauer Talstraße 20,8280,377120368,0:00 - 24:00,,,,,OK,
20618,50.859749,12.760014,Shell,94,"Limbach-Oberfrohna, Strasse",Limbach-Oberfrohna,Straße Des Friedens 4,9212,+49 3722 6170,0:00 - 24:00,,,,,OK,
20686,48.894241,12.800612,Aral,84,Diermeier Top Tank Gmbh&cie. Kg,Niederwinkling,Industriestraße 2,94559,9962912020,0:00 - 24:00,,,,,OK,
20692,48.625008,12.322615,Aral,84,Diermeier Top Tank Gmbh&cie. Kg,Wörth a. d. Isar,Siemensstraße 2,84109,8702949351,0:00 - 24:00,,,,,OK,
20715,48.560539,13.378269,Shell,94,"Passau, Sperrwies 1",Passau,Sperrwies 1,94036,+49 851 37931196,0:00 - 24:00,,,,,OK,
20759,50.806026,12.694445,Бензиностанция,20,SB Tankstelle,Hohenstein-Ernstthal,Hinrich-Wichern-Str. 31,9337,+49 3723 42630,05:00 - 21:00,,,,,OK,
21376,48.848408,13.231324,Shell,94,"Schoefweg, Freundorf",Schoefweg,Freundorf 2,94572,+49 9908 89023,06:30 - 19:00,,,,,OK,
21929,50.867725,12.2131,Aral,84,Station,Ronneburg,Hauptstr. 12 b,7580,3660293973,0:00 - 24:00,,,,,OK,
22183,48.555901,13.63169,Shell,94,"Obernzell, Passauer Str",Obernzell,Passauer Str. 5,94130,+49 8591 9398050,06:00 - 19:45,,,,,OK,
22409,48.837986,12.123027,Aral,84,Iris Kolbinger-Kaluza,Schierling,Dieselstraße 16,84069,,0:00 - 24:00,,,,,OK,
22426,48.931881,12.70494,Shell,94,"Hunderdorf, A3 Bayerischer W",Hunderdorf,A3 Bayerischer Wald Süd,94336,+49 9422 1826,0:00 - 24:00,,,5f356676b6f5c30685ce2235,,OK,
22442,50.467144,12.185291,Бензиностанция,20,Tankstelle Plauen-Stoeckigt Vogtl Nord,Plauen,Vogtland Nord A72,8527,+49 3741 4067990,0:00 - 24:00,,,,,OK,
22445,50.433926,12.129141,Aral,84,Taltitz Vogtland Sued A72,Taltitz,Vogtland Sued A72,8606,493742125420,0:00 - 24:00,,,5b2cebe7dff815002c67205c,,OK,
22627,49.000801,12.364554,Aral,84,Christian Kreitner,Wörth an der Donau,Gewerbepark B 3,93086,,0:00 - 24:00,,,,,OK,
22739,48.670219,12.470427,Shell,94,Moosthenning Ammerfeld 2,Moosthenning,Ammerfeld 2,84164,+49 8731 3274791,04:30 - 23:00,,,,,OK,
22894,50.903324,13.33793,Aral,84,Ftb Freie Tankstellenbetriebegmbh&co. Kg,Freiberg,Brander Straße 55,9599,3731767710,0:00 - 24:00,,,,,OK,
23035,49.837128,12.173151,Aral,84,Station Waldnaabtal Ost,Windischeschenbach,A 93,92670,,0:00 - 24:00,,,,,OK,
23615,48.730354,13.136212,Shell,94,"Iggensbach, Schwanenkirchener Str",Iggensbach,Schwanenkirchener Str. 27,94547,+49 9903 8579,0:00 - 24:00,,,,,OK,
23924,48.653111,13.409976,Shell,94,"Ruderting, Passauer Str",Ruderting,Passauer Str. 23,94161,+49 8509 1217,06:00 - 19:00,,,,,OK,
23927,48.613937,12.21921,Shell,94,"Essenbach, Regensburger Str. 4",Essenbach,Regensburger Str. 4,84051,+49 8703 91447,05:00 - 21:00,,,,,OK,
32039,50.669804,17.969341,Shell,119,5211 Ozimska Opole,Opole,Ozimska 195,45-286,+48 511 843 547,0:00 - 24:00,,,,,OK,
32043,50.467999,17.341619,BP,115,Station Jagiellonka,Nysa,ul. Jagiellonska 10A,48-300,774330420,0:00 - 24:00,,,,,OK,
32044,50.774029,16.273798,Shell,119,5506 Kolejowa Walbr,Walbrzych,Kolejowa 2,58-300,+48 511 807 238,0:00 - 24:00,,,,,OK,
32048,50.920399,15.759252,Shell,119,5505 Jelenia Gora,Jelenia Gora,Aleja Jana Pawla Ii 47,58-506,+48 511 807 142,0:00 - 24:00,,,50d83cd5e4b06651e0a974f2,,OK,
32057,50.883327,18.406466,Shell,119,2204 Olesno,Olesno,Kluczborska 41,46-300,+48 511 842 673,0:00 - 24:00,,,,,OK,
32058,50.030624,18.703602,Shell,119,3044 Kosciuszki Zory,Zory,Kosciuszki 90,44-240,+48 571 303 081,0:00 - 24:00,,,,,OK,
32064,50.739136,16.636059,Shell,119,5503 Dzierzoniow,Dzierzoniow,Swidnicka 69,58-200,+48 511 803 497,0:00 - 24:00,,,,,OK,
32084,50.3269,17.592699,Orlen,118,Prudnik,Prudnik,Powstańców Śl. 15,48-200,+48 24 256 0133,0:00 - 24:00,,,,,OK,
32085,50.670158,17.976027,Orlen,118,Opole,Opole,Ozimska 206,45-310,+48 24 256 0174,0:00 - 24:00,,,,,OK,
32086,50.506306,18.314852,Orlen,118,Strzelce Opolskie,Strzelce Opolskie,Toszecka,47-100,+48 24 256 0451,0:00 - 24:00,,,4f0220a6f9abd5b392ae7352,0,OK,
32087,50.481346,17.310398,Orlen,118,Nysa,Nysa,Otmuchowska 2,48-300,+48 24 256 0514,0:00 - 24:00,,,,,OK,
32088,50.350506,18.228859,Orlen,118,Koźle,Kędzierzyn-Koźle,Aleja Jana Pawła II,47-232,+48 24 256 0754,0:00 - 24:00,,,,,OK,
32089,50.680096,17.875891,Orlen,118,Opole,Opole,Wrocławska 135,45-837,+48 24 256 1323,0:00 - 24:00,,,5877e4bb7ff1e421e3bf88c3,0,OK,
32090,49.756142,18.638828,Orlen,118,Cieszyn,Cieszyn,Filasiewicza 2,43-400,+48 24 256 0013,0:00 - 24:00,,,4ec37f0429c2f92bf5d913e2,,OK,
32127,50.892494,15.707147,Orlen,118,Jelenia Góra,Jelenia Góra,Spółdzielcza 40,58-500,+48 24 256 0377,0:00 - 24:00,,,,,OK,
32128,51.050201,16.9697,Orlen,118,Bielany Wrocławsk,Bielany Wrocławskie,Autostrada A-4,55-075,+48 24 256 0876,0:00 - 24:00,,,,,OK,
32129,50.431587,16.198174,Orlen,118,Kudowa Słone,Kudowa-Zdrój,Słone 133,57-350,+48 24 256 0734,0:00 - 24:00,,,4ee1ec67722e9d45c5721385,,OK,
32130,50.438099,16.6108,Orlen,118,Szalejów Dolny,Szalejów Dolny,121,57-300,+48 24 256 0752,0:00 - 24:00,,,,,OK,
32160,50.479553,17.972204,Shell,119,5209 Krapkowice,Krapkowice,Ks. Koziolka 10A,47-300,+48 511 843 528,0:00 - 24:00,,,,,OK,
32167,50.080952,18.200653,Shell,119,3041 Opawska Racibor,Raciborz,Opawska 119,47-400,+48 511 793 659,0:00 - 24:00,,,,,OK,
32170,50.041634,18.69813,Orlen,118,Żory,Żory,Kościuszki 35,44-240,+48 24 256 0247,0:00 - 24:00,,,,,OK,
32180,50.309917,18.786325,Shell,119,3043 Zabrze,Zabrze,Plac Teatralny 6,41-800,+48 511 819 508,0:00 - 24:00,,,,,OK,
32187,50.949638,17.283415,Shell,119,5210 Kutrowskiego,Olawa,Kutrowskiego 29H,55-200,+48 511 840 479,0:00 - 24:00,,,,,OK,
32208,49.95425,18.574129,BP,115,Station Jastrzab,Jastrzebie Zdroj,ul. Wodzislawska 1,44-335,324764642,0:00 - 24:00,,,,,OK,
32250,49.951359,18.600071,BP,115,Station Legion,Jastrzebie Zdroj,ul. Pilsudskiego 33,44-335,324738200,0:00 - 24:00,,,,,OK,
32259,50.43478,16.237246,Shell,119,6005 Kudowa Zdroj,Kudowa Zdroj,Glowna 42A,57-350,+48 511 807 382,0:00 - 24:00,,,,,OK,
32316,50.134155,18.551023,Orlen,118,Rybnik,Rybnik,Gliwicka 196,44-207,+48 24 256 0025,0:00 - 24:00,,,,,OK,
32326,51.036968,16.584126,Orlen,118,Kostomłoty,Kostomłoty,,55-311,+48 24 256 0081,0:00 - 24:00,,,4becbb83bbe62d7f1e577f2b,0,OK,
32337,50.4711,16.696301,Orlen,118,Boguszyn,Kłodzko,Boguszyn 79,57-300,+48 24 256 0112,0:00 - 24:00,,,,,OK,
32342,50.405956,16.386251,Orlen,118,Zdrój,Duszniki-Zdrój,Sudecka 14A,57-340,+48 24 256 0124,0:00 - 24:00,,,4e71f5ca1495e4ca14157f6a,,OK,
32354,50.208496,17.822399,Orlen,118,Głubczyce,Głubczyce,Wrocławska 22,48-100,+48 24 256 0175,0:00 - 24:00,,,5305063f498e261b6127d113,,OK,
32369,50.100498,18.5585,Orlen,118,Rybnik,Rybnik,Wyzwolenia 44,44-200,+48 24 256 0248,0:00 - 24:00,,,,,OK,
32370,50.841728,17.473675,Orlen,118,Brzeg,Brzeg,Karola Szymanowskiego 15,49-300,+48 24 256 0250,0:00 - 24:00,,,,,OK,
32372,50.088085,18.230015,Orlen,118,Racibórz,Racibórz,1-go Maja 2,47-400,+48 24 256 0255,0:00 - 24:00,,,,,OK,
32379,50.961575,16.34701,Orlen,118,Strzegom,Strzegom,Wojska Polskiego 12,58-150,+48 24 256 0289,0:00 - 24:00,,,,,OK,
32385,50.466099,17.200001,Orlen,118,Wójcice,Otmuchów,Nyska  40,48-385,+48 24 256 0308,0:00 - 24:00,,,,,OK,
32386,50.540001,18.3608,Orlen,118,Jemielnica,Jemielnica,Strzelecka,47-133,+48 24 256 0312,0:00 - 24:00,,,,,OK,
32390,50.651901,17.9088,Orlen,118,Opole,Opole,Krapkowicka 18C,45-772,+48 24 256 0320,0:00 - 24:00,,,,,OK,
32403,50.986099,18.210199,Orlen,118,Kluczbork,Kluczbork,Byczyńska 87,46-203,+48 24 256 0376,0:00 - 24:00,,,,,OK,
32422,50.855255,16.509672,Orlen,118,Świdnica,Świdnica,Szarych Szeregów 4,58-100,+48 24 256 0731,0:00 - 24:00,,,,0,OK,
32424,50.913864,14.955193,Orlen,118,Bogatynia,Bogatynia,Daszyńskiego 24,59-920,+48 24 256 0735,0:00 - 24:00,,,61fd50dc0f9a7813ed61e1d2,,OK,
32425,50.793598,16.8437,Orlen,118,Łagiewniki,Łagiewniki,Wrocławska 25,58-210,+48 24 256 0736,0:00 - 24:00,,,,,OK,
32440,51.036098,15.418,Orlen,118,Gryfów Śląski,Gryfów Śląski,Jeleniogórska,59-620,+48 24 256 0880,0:00 - 24:00,,,,,OK,
32462,50.820175,16.281019,Orlen,118,Wałbrzych,Wałbrzych,Wieniawskiego 68,58-314,+48 24 256 0536,0:00 - 24:00,,,,,OK,
32463,50.607525,16.821362,Orlen,118,Ząbkowice Śląskie,Ząbkowice Śląskie,Wrocławska 31,57-200,+48 24 256 0539,0:00 - 24:00,,,,,OK,
32510,50.159046,16.669889,Orlen,118,Międzylesie,Międzylesie,Warszawska 17,57-530,+48 24 256 1522,0:00 - 24:00,,,4de79bf2c65b4e07db03df57,,OK,
32511,50.855301,16.3344,Orlen,118,Świebodzice,Świebodzice,Świdnicka 60,58-160,+48 24 256 1525,0:00 - 24:00,,,,,OK,
32515,50.907818,15.802621,Orlen,118,Jelenia Góra,Jelenia Góra,Wrocławska 7,58-514,+48 24 256 0979,0:00 - 24:00,,,,,OK,
32522,50.220715,18.827993,Orlen,118,Borowa,Mikołów,Gliwicka 254,43-197,+48 24 256 1005,0:00 - 24:00,,,4d62b324e4fe54814a5e999e,0,OK,
32528,50.830502,15.7766,Orlen,118,Mysłakowice,Mysłakowice,Woj. Polskiego 24A,58-533,+48 24 256 1092,0:00 - 24:00,,,,,OK,
32529,50.90134,15.773806,Orlen,118,Jelenia Góra,Jelenia Góra,Wincentego Pola 4,58-500,+48 24 256 1099,0:00 - 24:00,,,,,OK,
32531,50.736961,16.659786,Orlen,118,Dzierżoniów,Dzierżoniów,Wrocławska 57,58-200,+48 24 256 1110,0:00 - 24:00,,,,,OK,
32607,50.241699,18.83831,BP,115,Station Halemba,Ruda Slaska,ul. 1-go Maja 29,41-706,322422778,0:00 - 24:00,,,,,OK,
32617,50.678249,17.88896,BP,115,Station Strzelec,Opole,ul. Wroclawska 106,45-837,774570309,0:00 - 24:00,,,,,OK,
32620,50.43998,16.6481,BP,115,Station Zdroj,Klodzko,ul. Dusznicka 14,57-300,748659258,0:00 - 24:00,,,,,OK,
32660,50.668476,18.684858,BP,115,Station Klub,Lubliniec,ul. Plac Kosciuszki 1,42-700,343530396,0:00 - 24:00,,,4fb938afe4b0d0dd7eb3ff78,,OK,
32679,50.283192,18.66362,BP,115,Station Batman,Gliwice,ul. Rybnicka 31,44-122,322322359,0:00 - 24:00,,,,,OK,
32693,50.432903,16.199297,Shell,119,5018 Kudowa Granica,Kudowa Zdroj,Slone 133A,57-350,+48 511 806 547,0:00 - 24:00,,,,,OK,
32727,50.269218,18.70822,Orlen,118,Gliwice,Gliwice,Pszczyńska 318,44-100,+48 24 256 1393,0:00 - 24:00,,,,,OK,
32753,50.566902,16.533215,Orlen,118,Nowa Ruda,Nowa Ruda,Niepodległości 45a,57-400,+48 24 256 0240,0:00 - 24:00,,,,,OK,
32758,50.788303,16.027203,Orlen,118,Kamienna Góra,Kamienna Góra,Boh. Getta 48,58-400,+48 24 256 0335,0:00 - 24:00,,,,,OK,
32762,50.784489,17.071302,Orlen,118,Strzelin,Strzelin,Jana Pawła II 27,57-100,+48 24 256 4011,0:00 - 24:00,,,,,OK,
32774,50.672501,18.1833,Orlen,118,Ozimek,Schodnia,Warszawska 7,46-040,+48 24 256 0050,0:00 - 24:00,,,,,OK,
32796,50.6441,17.640499,Orlen,118,Niemodlin,Niemodlin,Opolska 33,49-100,+48 24 256 1322,0:00 - 24:00,,,,,OK,
32818,50.650127,17.972511,Orlen,118,Opole,Opole,ul. Jerzego i Ryszarda Kowalczyków 72,45-512,+48 24 256 0788,0:00 - 24:00,,,,0,OK,
32893,50.15815,18.847662,Shell,119,3013 Laziska,Laziska Gorne,Klonowa 1,43-170,+48 571 303 054,0:00 - 24:00,,,,,OK,
32918,51.023212,17.324314,Orlen,118,Laskowice,Jelcz-Laskowice,Oławska 194,55-220,603 603 134,0:00 - 24:00,,,4e287003a809ec0663ee3795,,OK,
32926,49.668648,18.846758,Orlen,118,Wisła,Wisła,Ustrońska 2,43-460,(033) 8577793,0:00 - 24:00,,,518c3024498ea990eca54bd2,0,OK,
32940,50.244801,18.615999,Orlen,118,Żernica,Żernica,Gliwicka 3,44-144,(032) 3362752,0:00 - 24:00,,,,,OK,
33014,50.297867,18.830942,Orlen,118,Zabrze,Zabrze,Wolności 508,41-800,+48 24 256 0098,0:00 - 24:00,,,,0,OK,
33015,50.726963,18.43491,Orlen,118,Dobrodzień,Dobrodzień,Opolska 45a,46-380,+48 24 256 0254,0:00 - 24:00,,,,,OK,
33030,50.909,15.3432,Orlen,118,Zdrój,Świeradów-Zdrój,11 go Listopada 10,59-850,+48 24 256 0318,0:00 - 24:00,,,,,OK,
33031,51.055,16.2108,Orlen,118,Jawor,Jawor,Kuziennicza 2,59-400,+48 24 256 0305,0:00 - 24:00,,,,,OK,
33033,50.342976,16.856953,Orlen,118,Lądek Zdrój,Lądek-Zdrój,Kłodzka 54,57-540,+48 24 256 0265,0:00 - 24:00,,,516c06fb498eb65b8d99454a,0,OK,
33049,50.150002,18.85,Orlen,118,Łaziska Górne,Łaziska Górne,Energetyków 5,43-170,323 210 093,0:00 - 24:00,,,,,OK,
33054,50.9426,16.495199,Orlen,118,Żarów,Żarów,Armii Krajowej 1,58-130,+48 24 256 0708,0:00 - 24:00,,,,,OK,
33056,50.9259,17.299,Orlen,118,Oława,Oława,Opolska 31,55-200,+48 24 256 0977,0:00 - 24:00,,,,,OK,
33093,50.7075,16.6462,Orlen,118,Dzierżoniów,Dzierżoniów,Bat. Chłopskich 108,58-200,+48 24 256 0636,0:00 - 24:00,,,,,OK,
33100,51.055367,18.435049,Orlen,118,Praszka,Praszka,Gorzowska 4a,46-320,+48 24 256 4149,0:00 - 24:00,,,5a2bc4d36cf01a75c8dc39d5,0,OK,
33114,50.944698,17.285801,Orlen,118,Oława,Oława,Wiejska 1,55-200,+48 24 256 4107,0:00 - 24:00,,,,,OK,
33164,50.7216,18.530701,Orlen,118,Gwoździany,Gwoździany,Topolowa 3,42-772,697 902 030,0:00 - 24:00,,,,,OK,
33193,50.34034,18.192715,Shell,119,5202 Koza,Kedzierzyn - Kozle,Kozielska 30,47-220,+48 511 843 358,0:00 - 24:00,,,,,OK,
33283,49.976372,18.717173,Shell,119,3060 Express,Warszowice,Cieszynska 9,43-254,+48 667 001 104,0:00 - 24:00,,,,,OK,
33348,51.031601,18.6245,Orlen,118,Jaworek,Jaworek,Jaworek 55/1,46-325,343 506 200,0:00 - 24:00,,,,,OK,
33362,50.006691,18.447353,Shell,119,3032 Max Wodz. Sl,Wodzislaw Slaski,Osiedle Dabrowki 1,44-300,+48 511 792 894,0:00 - 24:00,,,,,OK,
33365,50.016647,18.477329,Shell,119,3034 Rybnicka,Wodzislaw,Rybnicka 15,44-300,+48 511 793 278,0:00 - 24:00,,,,,OK,
33402,50.668598,18.0686,Orlen,118,Chrząstowice,Chrząstowice,Opolska 3 -,46-053,774 270 770,0:00 - 24:00,,,,,OK,
33435,49.939373,18.592955,Shell,119,3031 Market Jastrz,Jastrzebie Zdroj,Cieszynska 9,44-335,+48 571 303 079,0:00 - 24:00,,,,,OK,
33443,50.403801,16.5117,Orlen,118,Zdrój,Polanica-Zdrój,Kłodzka 5,57-320,+48 24 256 4160,0:00 - 24:00,,,,,OK,
33449,50.77882,16.254711,Orlen,118,Wałbrzych,Wałbrzych,ul. Wysockiego 43,58-304,+48 24 256 4272,0:00 - 24:00,,,,,OK,
33463,50.235531,18.66107,BP,115,Station Concordia,Knurow,ul. 1 Maja 55,44-194,323362428,0:00 - 24:00,,,,,OK,
33481,50.3041,18.673,Orlen,118,Gliwice,Gliwice,Toszecka 8,44-100,+48 24 256 0509,08.00.00 - 22.00.00,,,,,OK,
33501,50.342899,18.2029,Orlen,118,Koźle,Kędzierzyn-Koźle,Kozielska 8a,47-220,+48 24 256 0823,0:00 - 24:00,,,,,OK,
33524,50.4109,18.1171,Orlen,118,Zdzieszowice,Zdzieszowice,Kozielska 1,47-330,+48 24 256 4193,0:00 - 24:00,,,,,OK,
33535,50.973648,18.203037,Orlen,118,Kluczbork,Kluczbork,Wołczyńska 5,46-200,+48 24 256 0201,0:00 - 24:00,,,51872a75498e1d856ed86e3f,0,OK,
33560,50.2911,18.747801,Orlen,118,Gliwice,Gliwice,Sikorskiego 115,44-103,+48 24 256 0626,0:00 - 24:00,,,,,OK,
33569,50.4744,17.3393,Orlen,118,Nysa,Nysa,Kraszewskiego 7,48-300,+48 24 256 0825,06.00.00 - 22.00.00,,,,,OK,
33582,50.429317,18.1936,Orlen,118,Leśnica,Leśnica,Strzelecka,47-150,+48 24 256 1205,06.00.00 - 22.00.00,,,,,OK,
33609,50.342201,18.1441,Orlen,118,Koźle,Kędzierzyn-Koźle,Łukasiewicza 2,47-200,+48 24 256 4074,0:00 - 24:00,,,,,OK,
33611,50.286942,18.672779,Orlen,118,Gliwice,Gliwice,Pszczyńska 52,44-100,+48 24 256 4087,0:00 - 24:00,,,,0,OK,
33618,50.091599,18.544001,Orlen,118,Rybnik,Rybnik,Piłsudskiego 2a,44-200,+48 24 256 0011,0:00 - 24:00,,,,,OK,
33694,50.854115,16.495897,Orlen,118,Świdnica,Świdnica,Esperantystów 14,58-100,+48 24 256 0100,0:00 - 24:00,,,4fc26ff6e4b00dd50ec883a3,0,OK,
33698,50.311611,16.65843,Orlen,118,Stary Waliszów,Stary Waliszów,Kłodzka 46a,57-500,+48 24 256 0304,0:00 - 24:00,,,,0,OK,
33710,50.511551,18.295431,Orlen,118,Strzelce Opolski,Strzelce Opolskie,Opolska 9,47-100,+48 24 256 0608,,,,,0,OK,
33721,50.861198,15.6561,Orlen,118,Jelenia Góra,Jelenia Góra,Juliana Fałata 1b,58-560,+48 24 256 1108,0:00 - 24:00,,,,,OK,
33752,50.0928,18.2509,Orlen,118,Racibórz,Racibórz,Rybnicka 59,47-400,+48 24 256 1386,0:00 - 24:00,,,,,OK,
33759,50.972801,18.7024,Orlen,118,Krzepice,Krzepice,Kuźniczka 25,42-160,+48 24 256 0647,0:00 - 24:00,,,,,OK,
33772,50.710495,16.001308,Orlen,118,Lubawka,Lubawka,Kamiennogórska 29,58-420,+48 24 256 1109,0:00 - 24:00,,,,0,OK,
33788,50.873501,18.416,Orlen,118,Olesno,Olesno,Wielkie Przedmieście 1A,46-300,+48 24 256 0249,0:00 - 24:00,,,,,OK,
33795,51.0144,18.055599,Orlen,118,Wołczyn,Wołczyn,Kluczborska 54,46-250,+48 24 256 1203,0:00 - 24:00,,,,,OK,
33800,50.82238,17.739365,Orlen,118,Popielów,Popielów,Odrzańska 2,46-090,+48 24 256 1325,,,,,0,OK,
33814,50.349686,17.874954,Orlen,118,Głogówek,Głogówek,Dworcowa,48-250,+48 24 256 1206,0:00 - 24:00,,,591d883ff79faa375352cc5b,,OK,
33835,50.208523,18.306961,Orlen,118,Kuźnia Raciborsk,Kuźnia Raciborska,Tartaczna 1,47-420,+48 24 256 0199,,,,5d8a52b17cb8d9000771313f,,OK,
33836,50.671299,18.6689,Orlen,118,Lubliniec,Lubliniec,Lisowicka 23,42-700,+48 24 256 0200,0:00 - 24:00,,,,,OK,
33843,50.0116,18.4746,Orlen,118,Wodzisław Śląski,Wodzisław Śląski,Rybnicka 30,44-300,+48 24 256 0425,0:00 - 24:00,,,,,OK,
33849,50.903152,16.746874,Orlen,118,Sobótka,Sobótka,Wrocławska 21,55-050,+48 24 256 4389,06:00 - 22:00,,,,0,OK,
33864,50.6017,18.486401,Orlen,118,Zawadzkie,Zawadzkie,Opolska 59,47-120,+48 24 256 0755,0:00 - 24:00,,,,,OK,
33899,50.773102,15.7389,Orlen,118,Karpacz,Karpacz,Konstytucji 3-go Maja 86,58-540,+48 24 256 0037,00.00.00 - 00.00.00,,,,,OK,
33900,50.827057,15.523198,Orlen,118,Szklarska Poręba,Szklarska Poręba,1-go Maja 3A,58-580,+48 24 256 0130,0:00 - 24:00,,,51d829e1498ee73dc64cdedf,,OK,
33905,49.878021,18.600798,Orlen,118,Zebrzydowice Doln,Zebrzydowice,ul. Adama Asnyka 2,43-410,+48 24 256 0429,0:00 - 24:00,,,511f5c67e4b0a1ec77d71a31,,OK,
33971,49.795601,18.834101,Orlen,118,Pogórze,Pogórze,Czereśniowa 14,43-430,338 530 290,0:00 - 24:00,,,,,OK,
34048,50.869061,16.296705,Orlen,118,Świebodzice,Świebodzice,Jeleniogórska 52,58-160,+48 74 856 10 55,0:00 - 24:00,,,5d385e86f964870007df49a7,,OK,
34049,50.856701,17.4748,Orlen,118,Brzeg,Brzeg,Łokietka 4,49-300,+48 24 256 4266,0:00 - 24:00,,,,,OK,
34053,50.453602,17.3452,Orlen,118,Nysa,Nysa,Zwycięstwa 2,48-303,77 433 00 06,0:00 - 24:00,,,,,OK,
34063,49.722599,18.7946,Orlen,118,Ustroń,Ustroń,Katowicka 7,43-450,338 545 610,0:00 - 24:00,,,,,OK,
34084,50.391102,18.634199,Orlen,118,Pyskowice,Pyskowice,Gliwicka 3,44-120,+48 24 256 4168,0:00 - 24:00,,,,,OK,
34088,50.7663,16.320299,Orlen,118,Wałbrzych,Wałbrzych,Noworudzka-Świdnicka 58,58-302,(74) 8490005,0:00 - 24:00,,,,,OK,
34121,50.5812,16.809099,Orlen,118,Ząbkowice Śląskie,Ząbkowice Śląskie,Kłodzka 20,57-200,(074) 815 14 76,0:00 - 24:00,,,,,OK,
34153,50.776905,17.059464,Orlen,118,Strzelin,Strzelin,Ząbkowicka 32,57-100,48713920287,0:00 - 24:00,,,593bc03c0a464d2a5737f555,,OK,
34154,50.59185,16.827024,Orlen,118,Ząbkowice Śląskie,Ząbkowice Śląskie,Powstańców Warszawy 0,57-200,(74) 641 19 55,0:00 - 24:00,,,,0,OK,
34155,50.719501,16.5966,Orlen,118,Pieszyce,Pieszyce,Piskorzowska 3,58-250,(074) 6476399,0:00 - 24:00,,,,,OK,
34157,51.048302,16.1985,Orlen,118,Jawor,Jawor,Szpitalna 7,59-400,(076) 7234390,0:00 - 24:00,,,,,OK,
34195,50.43541,16.226789,BP,115,Station Kudowa,Kudowa-Zdroj,ul. Glowna 72,57-350,748664105,0:00 - 24:00,,,,,OK,
34269,50.633842,18.845486,Orlen,118,Koszęcin,Koszęcin,Ligonia 11i,42-286,343 524 361,,,,,0,OK,
34279,50.917271,16.10627,Orlen,118,Bolków,Bolków,Wysokogórska 12,59-420,+48 24 256 4275,0:00 - 24:00,,,,,OK,
34286,49.918098,18.7362,Orlen,118,Zbytków,Zbytków,1-go Maja 69,43-246,+48 24 256 0853,0:00 - 24:00,,,,,OK,
34297,49.954765,18.615269,Orlen,118,Zdrój,Jastrzębie-Zdrój,Al.Piłsudskiego 66,44-335,+48 24 256 4308,0:00 - 24:00,,,4d6b6e8d790d37040683e790,,OK,
34324,49.934204,18.548824,Orlen,118,Zdrój,Jastrzębie-Zdrój,prof. R. Ranoszka 103,44-338,324 736 301,0:00 - 24:00,,,,0,OK,
34384,51.019432,16.753912,BP,115,Katy Wroclawskie,Kąty Wrocławskie,ul. Ksiedza J. Popieluszki,55-080,717114511,0:00 - 24:00,,,4d901c6ad00a6ea8ded5dd4f,0,OK,
34391,50.273132,18.661688,Shell,119,3002 Rybnicka Gliwic,Gliwice,Rybnicka 159,44-100,+48 511 842 579,0:00 - 24:00,,,,,OK,
34394,50.033554,18.690029,Shell,119,3012 Zory,Zory,Zjednoczonej Europy 25,44-240,+48 571 303 076,06:00 - 22:00,,,,,OK,
34395,50.305164,18.743877,Shell,119,3017 Renault Zabrze,Zabrze,Wolnosci 57,41-804,+48 511 818 546,0:00 - 24:00,,,,,OK,
34405,50.850533,16.475328,Shell,119,5508 Tgg Swidnica,Swidnica,Sikorskiego,58-105,+48 511 805 269,0:00 - 24:00,,,,,OK,
34421,50.324276,18.661268,Shell,119,3001 Toszecka Gliwic,Gliwice,Toszecka 135,44-100,+48 511 842 457,0:00 - 24:00,,,,,OK,
34423,50.315609,18.693501,Shell,119,3056 Pegas Gliwice,Gliwice,Tarnogorska 163,44-100,+48 511 842 686,0:00 - 24:00,,,,,OK,
34430,50.842739,16.463617,Shell,119,5501 Young Swidnica,Swidnica,Zamenhoffa,58-105,+48 511 803 217,0:00 - 24:00,,,,,OK,
34436,50.101627,18.515598,Shell,119,3053 Budowlanych Ryb,Rybnik,Budowlanych 72,44-217,+48 511 795 621,0:00 - 24:00,,,,,OK,
34465,50.298454,18.800142,Shell,119,3018 Koncowa Zabrze,Zabrze,Wolnosci 384,41-800,+48 511 818 561,0:00 - 24:00,,,,,OK,
34467,50.086926,18.546034,Shell,119,3061 Rondo Rybnik,Rybnik,Chwalowicka 1,44-200,+48 511 796 192,0:00 - 24:00,,,,,OK,
34492,50.977386,16.366453,Shell,119,5511 Strzegom Granit,Strzegom,Aleja Wojska Polskiego 80G,58-150,+48 74 632 12 06,0:00 - 24:00,,,,,OK,
34495,50.677956,17.65049,Shell,119,5217 Rzedziwojowice,Niemodlin,Rzedziwojowice 62,49-100,+48 571 303 748,0:00 - 24:00,,,,,OK,
34496,50.721439,16.82531,BP,115,Niemcza,Niemcza,ul. Osiedle Podmiejskie BN,58-230,748376139,0:00 - 24:00,,,,,OK,
34505,50.676098,17.657539,Shell,119,5216 Mlynski Staw,Niemodlin,Rzedziwojowice 61,49-100,+48 571 303 746,0:00 - 24:00,,,,,OK,
34509,50.463146,18.160793,Orlen,118,Wysoka,Wysoka,Autostrada A4,47-154,+48 24 256 4380,0:00 - 24:00,,,4d8b0032d85f3704576a0adc,0,OK,
34560,51.012115,15.900082,Orlen,118,Świerzawa,Świerzawa,Jeleniogórska 41,59-540,75 71 34 711,,,,,0,OK,
34649,50.675659,18.215389,Orlen,118,Ozimek,Ozimek,ul. Kolejowa 5,46-040,774651229,0:00 - 24:00,,,5d87ad31d7896500084ae8af,,OK,
34653,50.71936,18.002581,Orlen,118,Zawada,Zawada,Turawska 1a,46-022,515-321-444,0:00 - 24:00,,,,,OK,
34682,50.791023,15.849043,Circle K,120,"Kowary, Rejtana",Kowary,ul. Rejtana 3A,58-530,48757123080,00.00-24.00,,,,,OK,
34700,50.754482,17.851288,Circle K,120,"Dobrzen Wielki, Opolska",Dobrzeń Wielki,ul. Opolska 49,46-081,48698709927,00.00-24.00,,,,,OK,
34768,50.804615,16.293644,Circle K,120,"Walbrzych, Wroclawska",Wałbrzych,ul. Wrocławska 28,58-309,48748466733,00.00-24.00,,,,,OK,
34777,49.949184,18.590672,Circle K,120,"Jastrzebie Zdroj, Pilsudskiego",Jastrzębie Zdrój,Al. Piłsudskiego 2,44-335,48324731752,00.00-24.00,,,,,OK,
34778,50.00388,18.472849,Circle K,120,"Wodzislaw Slaski, Witosa",Wodzisław Śląski,ul. Witosa 24,44-300,48324563912,00.00-24.00,,,,,OK,
34829,50.974983,18.217415,Circle K,120,"Kluczbork, Moniuszki",Kluczbork,ul. Moniuszki 1,46-200,48774142522,00.00-24.00,,,,,OK,
34844,50.897091,15.742318,Circle K,120,"Jelenia Gora, Sudecka",Jelenia Góra,ul. Sudecka 40-42,58-500,48757536045,00.00-24.00,,,,,OK,
34849,49.749069,18.640074,Circle K,120,"Cieszyn, Kolejowa",Cieszyn,ul. Kolejowa 8,43-400,48338582517,00.00-24.00,,,,,OK,
34949,51.024548,15.428653,Circle K,120,"Gryfow Slaski, Jeleniogorska",Gryfów Śląski,ul. Jeleniogórska 7E,59-820,48757811391,00.00-24.00,,,,,OK,
34953,50.963459,15.380164,Circle K,120,"Mirsk, Wojska Polskiego",Mirsk,Al. Wojska Polskiego 1A,59-630,48757834073,00.00-24.00,,,,,OK,
34961,51.029144,15.263518,Circle K,120,"Lesna, Baworowo",Leśna,ul. Baworowo 51A,59-820,48757242081,00.00-24.00,,,,,OK,
35289,50.68716,17.811626,Orlen,118,Opole Wrzoski,Opole,Wrocławska 326,45-960,77 435-13-70,0:00 - 24:00,,,,,OK,
35368,50.016094,18.330162,Orlen,118,Syrynia,Syrynia,Raciborska 2 F,44-361,324 532 035,0:00 - 24:00,,,5d8798763955b60008c6b42b,,OK,
35374,50.970833,16.932581,Orlen,118,Kobierzyce,Kobierzyce,Witosa 1,55-040,71 311 12 25,0:00 - 24:00,,,,,OK,
35561,50.372463,18.744165,Orlen,118,Wieszowa MOP II,Wieszowa,Autostrada A1,42-672,+48 24 256 4409,0:00 - 24:00,,,,,OK,
35566,50.370167,18.741385,Orlen,118,Wieszowa MOP I,Wieszowa,A1,42-672,+48 24 256 4408,0:00 - 24:00,,,52fd38b1498eee8ce4fc81ab,0,OK,
35612,50.129883,18.674772,Orlen,118,Stanowice,Stanowice,Żorska 2c,44-230,+48 24 256 4422,0:00 - 24:00,,,,,OK,
35653,49.960625,18.525965,BP,115,Station MOP A1 Mszana Polnoc,Mszana,Styry 21,44-325,727400445,0:00 - 24:00,,,53d3992b498e28598a723a54,,OK,
35662,49.764317,18.636761,Lotos,116,SP342 Cieszyn,Cieszyn,ul. Katowicka 45,43-400,48505001582,0:00 - 24:00,,,,,OK,
35780,50.677761,17.891209,Shell,119,5218 Opole Domanskiego,Opole,Wrocławska 103,45-837,+48 571 303 386,0:00 - 24:00,,,592e7205a423621b045fb196,,OK,
35805,49.985706,18.505432,Orlen,118,Mszana,Mszana,Wodzisławska 97,44-325,+48 24 256 4439,0:00 - 24:00,,,,,OK,
35809,50.83268,15.685031,Circle K,120,"Podgorzyn, Nowa",Podgórzyn,NOWA 7,58-562,48757621882,,,,,0,OK,
35962,48.614506,17.835085,Slovnaft,144,Piešťany - Letisko,Piešťany,Žilinská cesta 601/114,921 01,421337744864,06:00-21:00,,,,,OK,
35965,48.913521,18.059566,OMV,63,"Trenčín, Zamarovce - diaľnica",Zamarovce,Dialnica,91101,327442192,0:00 - 24:00,,,4d5562b3e7f1a1cdf7d3f9a4,0,OK,
36121,48.90023,18.02668,Shell,64,8203 Trenčín,Trenčín,Bratislavská 1/40,911 00,+421 911 030 433,0:00 - 24:00,,,4d930e67fa1ef04d862a63c7,,OK,
36132,49.10294,18.43812,Shell,64,8250 Považská Bystrica,Považská Bystrica,Sládkovičova 127,017 01,+421 42/426 06 06,0:00 - 24:00,,,4d7b5c7ecf3f3704d0f03940,,OK,
36135,49.227295,18.716747,Shell,64,8276 Zilina Hricovska,Žilina,Pri Rieke 1110/4,010 01,+421 41/500 70 36,0:00 - 24:00,,,4ddea0741f6e0369474839b6,,OK,
36140,48.627056,18.362656,Shell,64,8286 Partizanske,Partizánske,Nitrianska 1533,958 01,+421 38/749 23 39,0:00 - 24:00,,,4e073941315117c55a20a5c1,,OK,
36148,48.777271,18.601332,Shell,64,8201 Prievidza,Prievidza,Bojnická Cesta 36,971 01,+421 46/543 80 20,0:00 - 24:00,,,4e19dd27483b5cfa49d8273a,,OK,
36152,48.587769,17.819613,Shell,64,8216 Piešťany-Krajinská (Ii),Piešťany,Krajinská 5267,921 01,+421 33/771 81 34,0:00 - 24:00,,,4d9fbb0b31a6b60cb4cb6418,,OK,
36155,49.210503,18.751436,TaM,223,Autohof Žilina,Zilina,Vysokoškolákov 8069/52,010 08,041/5004335,0:00 - 24:00,,,,,OK,
36189,49.239849,18.646259,Бензиностанция,20,DALIOIL DOLNÝ HRIČOV,Dolný Hričov,Bratislavská 411/34,013 41,+421 905 271 973,0:00 - 24:00,,,,,OK,
38938,50.405567,14.9313,Orlen,56,Mladá Boleslav Ls,Mladá Boleslav,Na obchvatu LS,29301,326723502,0:00 - 24:00,,,,,OK,
38940,50.504272,13.673356,Orlen,56,"Most, Chánov Ls",Most,"Chánov LS, Teplická 1415",43401,476103462,05:00 - 22:00,,,,,OK,
38942,49.408596,13.294207,Orlen,56,Klatovy Plzeňská,Klatovy,Plzeňská 835,33901,376312047,0:00 - 24:00,,,4c616a6dde6920a1703a9864,,OK,
38944,49.75787,13.61744,Shell,59,8107 Rokycany P,Rokycany,"Dálnice D5, Smer Plzen",337 01,+420 371 720 824,0:00 - 24:00,,,,,OK,
38945,50.058842,14.48334,Shell,59,8089 Praha-Jižní Spojka (Záběhlice),Praha 10,Jižní Spojka,106 54,+420 272 760 370,0:00 - 24:00,,,,,OK,
38946,49.687389,18.30929,Shell,59,8148 Staříč,Staříč,Staříč 540,739 43,+420 558 326 655,0:00 - 24:00,,,,,OK,
38947,49.676273,12.60104,Shell,59,8057 Sv. Kateřina-Osobní,Svatá Kateřina - Rozvadov,"Dálnice D5 142.Km, Smer Praha",348 07,+420 374 695 347,0:00 - 24:00,,,,,OK,
38953,50.71294,13.969855,Mol,57,Station Varvazov západ (D8),Telnice,"D8, 85,3 Km Obec Varvazov Smer Prag",40338,,0:00 - 24:00,,,509a7057e4b03a271c725c27,34255343,OK,
38956,50.08559,12.28363,Mol,57,Station Pomezi - Jih,Pomezi Nad Ohri,Grenzuebergang,35001,354434958,0:00 - 24:00,,,,,OK,
39104,48.567852,12.736297,Shell,94,"Simbach, Landauer Str",Simbach,Landauer Str. 12,94436,+49 9954 90104,06:00 - 19:30,,,,,OK,
39105,48.6758,13.1199,Shell,94,"Hofkirchen, Vilshofener Str",Hofkirchen,Vilshofener Str. 22,94544,+49 8545 236,0:00 - 24:00,,,,,OK,
39107,48.572899,13.4585,Shell,94,"Passau, Nikolastr",Passau,Nikolastr. 4,94032,+49 851 956510,0:00 - 24:00,,,,,OK,
39108,48.669201,13.4841,Shell,94,"Hutthurm, Am Kreisel",Hutthurm,Am Kreisel 4,94116,+49 8505 939800,05:00 - 22:00,,,,,OK,
39109,48.668362,13.519728,Shell,94,"Buechlberg, Hauptstr",Buechlberg,Hauptstr. 33,94124,+49 8505 922041,06:30 - 19:00,,,,,OK,
39150,49.010078,12.111692,Shell,94,"Regensburg, Landshuter Str",Regensburg,Landshuter Str. 42,93053,+49 941 7852465,0:00 - 24:00,,,,,OK,
39151,48.998875,12.639485,Shell,94,"Ascha, Chamer Str",Ascha,Chamer Str. 20,94347,+49 9961 362,06:15 - 20:00,,,,,OK,
39360,50.515099,12.1206,Shell,94,"Plauen, Pausaer Str.138",Plauen,Pausaer Str. 138,8525,+49 3741 522508,06:00 - 22:00,,,,,OK,
39361,50.666134,12.218159,Shell,94,"Greiz, Gerhard-Hauptmann29",Greiz,Gerhard-Hauptmann 29,7973,+49 3661 430202,06:00 - 22:00,,,,,OK,
39393,50.816898,12.9486,Shell,94,"Chemnitz, Zschopauer Str",Chemnitz,Zschopauer Str. 198,9126,+49 371 55630,06:00 - 21:00,,,,,OK,
42021,49.304062,12.82984,Aral,84,Peter Und Siegfried Mühlbauer Ohg,Furth,Chamer Straße 6,93437,(0 99 73) 8 42 40,06.30.00 - 21.00.00,,,,,OK,
42022,49.171059,12.86321,Aral,84,Angelika Wanninger,Bad Kötzting,Arnbrucker Straße 1 a,93444,(0 99 41) 90 49 01,0:00 - 24:00,,,,,OK,
42192,50.86832,12.21707,Aral,84,Mhb Mineralölhandel Gmbh,Ronneburg,An der B 7,7580,(03 66 02) 26 88 3,0:00 - 24:00,,,,,OK,
42476,49.17358,16.511606,Mol,57,Brno - D1,Troubsko,Troubsko 78,66441,+420 547 223 161,0:00-24:00,,,5776980b498e47abfdbb78b1,,OK,
49014,51.049999,16.9694,Orlen,118,Bielany Wrocławsk,Bielany Wrocławskie,Autostrada A-4,55-075,+48 24 256 0644,0:00 - 24:00,,,,,OK,
49227,50.489918,17.970913,Orlen,118,Krapkowice,Krapkowice,3-go Maja 34,47-303,+48 24 256 4264,0:00 - 24:00,,,,0,OK,
49238,50.674198,17.934299,Orlen,118,Opole,Opole,Batalionów Chłopskich 2,45-037,+48 24 256 0627,0:00 - 24:00,,,,,OK,
49242,50.096893,14.478111,Orlen,56,"Praha, Krejcárek Ls",Praha,Krejcárek LS,130 00,266311308,06:00 - 22:00,,,,,OK,
49421,50.644642,17.640619,Shell,119,8523 Nowa Niemodlin,Niemodlin,Ul. Opolska 48A,49-100,+48 606 271 178,0:00 - 24:00,,,,,OK,
50964,50.34037,18.176531,BP,115,Kedzierzyn-Kozle,Kedzierzyn-Kozle,Stanislawa Wyspianskiego 51,47-200,(06 95) 2 01 72,0:00 - 24:00,,,,,OK,
50974,50.84193,16.434036,Orlen,118,Słotwina,Słotwina,Słotwina 62 X,58-100,+48 24 256 4445,0:00 - 24:00,,,,,OK,
51674,50.137238,15.698684,Orlen,56,Osice Ps,Lhota pod Libcany,"odpočívka Osice D11 - PS, 80km",503 27,604403062,0:00 - 24:00,,,,,OK,
52613,50.049515,14.354671,OMV,58,"Praha 5, Radlická 629",Praha 5,Radlická 629,150 00,+420-251622451,00:00 - 24:00,,,4be2ff57f07b0f47c0caf643,,OK,
52657,49.297153,14.16105,Orlen,231,"Písek, U hřebčince",Písek,U hřebčince,397 01,+420-382210440,05:00 - 23:00,,,63446656b613172bb059a7fd,,OK,
52668,49.384758,13.296586,Orlen,56,Klatovy 5.Května,Klatovy,5. května 685,339 01,+420-376317759,0:00 - 24:00,,,59fe3862bd4009409d20aa91,,OK,
52674,48.989517,14.459316,Orlen,56,"České Budějovice, Vltavské Nábřeží",České Budějovice,Vltavské nábřeží,370 11,+420-776275625,05:00 - 23:00,,,5b1452aca5a315002c15c55d,,OK,
52676,50.18499,12.69407,Orlen,56,Staré Sedlo U Sokolova,Sokolov,Staré Sedlo,356 61,+420-352625289,0:00 - 24:00,,,5a5e8c95bb8d362004add6eb,,OK,
52679,49.392731,13.02444,Orlen,56,"Kdyně, Na Kobyle",Kdyně,Na Kobyle 648,345 06,+420-379732250,0:00 - 24:00,,,,,OK,
52684,50.084091,12.37243,Orlen,56,Cheb Ašská,Cheb,Ašská 2354/4,350 02,+420-354424400,05:00 - 23:59,,,4be57ef7d4f7c9b6a8702520,,OK,
52717,49.830559,18.18541,Orlen,56,Ostrava Opavská,Ostrava,Opavská 6140,708 00,+420-605 268 726,05:00 - 22:00,,,5addad4c037be15e3f0cc939,0,OK,
52721,49.7817,18.2533,Orlen,56,Ostrava Horní,Ostrava,Horní,709 00,+420-596715380,0:00 - 24:00,,,589d9ef7fc73d453c25f5654,,OK,
52722,49.82756,18.281691,Orlen,56,Ostrava Karolína,Ostrava,Místecká 3173,702 00,596113371,0:00 - 24:00,,,58e414cc2321c644aca5e129,0,OK,
52724,49.813393,18.33539,Orlen,56,"Ostrava, Těšínská",Ostrava,Těšínská 1306/322,716 00,+420-596232424,05:00 - 23:00,,,5aee45ae135b39002cc777ab,0,OK,
54101,48.872902,12.631514,Aral,84,Elisabeth Ott,Straubing,Aiterhofener Straße 215,94315,94211862815,0:00 - 24:00,,,4f140832e4b019e993b91188,,OK,
54137,50.997967,14.61652,Aral,84,Ingolf Baatz,Ebersbach,Rumburger Straße 42,2730,,,,,,,OK,
57299,50.523705,13.2371,Orlen,56,Hora Svatého Šebestiána,Hora Svateho Sebestiana,Hora Svatého Šebestiána 86,431 82,4 74 69 52 00,0:00 - 24:00,,,59dd159b1c0b342a3b68ad30,,OK,
57300,49.578201,13.32675,Orlen,56,Přeštice,Prestice,Dukelská 1142,334 01,3 77 98 23 58,05:00 - 23:00,,,,,OK,
57301,49.723152,13.354299,Orlen,56,"Plzeň, Bory",Plzen,Univerzitní 2955,301 00,3 77 42 31 10,05:00 - 23:00,,,4c6aaa84897b1b8d9952b217,0,OK,
57302,49.811852,13.39254,Orlen,56,Třemošná,Tremosná,Plzeňská 1177,334 01,3 77 95 32 44,05:00 - 23:00,,,,,OK,
57303,49.990452,13.48838,Orlen,56,Kralovice,Kralovice,Žatecká 863,334 41,3 73 39 72 62,05:00 - 22:00,,,,,OK,
57304,49.744061,13.60888,Orlen,56,Rokycany,Rokycany,Pražská 1200,337 01,3 71 72 22 25,0:00 - 24:00,,,,,OK,
57309,50.208981,14.08536,Shell,59,8159 Slaný,Slaný,"22 Km Rych. Kom. I/7, Směr Louny",274 01,+420 777 483 295,0:00 - 24:00,,,,,OK,
57315,50.572842,15.17292,Orlen,56,Turnov,Turnov,"Valdštejnsko, Na Kamenci",511 01,4 81 32 52 78,0:00 - 24:00,,,,,OK,
57316,50.647861,15.25501,Orlen,56,Železný Brod,Zelezny Brod,Štefánikova,468 22,4 83 39 07 45,06:00 - 20:00,,,,,OK,
57317,49.53854,15.36727,Orlen,56,"Humpolec, 5. Května",Humpolec,5. května 1540,396 01,5 65 53 72 87,05:00 - 23:00,,,,,OK,
57323,49.183414,16.671741,Orlen,56,"Brno, Slatina",Brno,"Slatina, Hviezdoslavova 1474/1",627 00,+420 548 532 092,0:00 - 24:00,,,,,OK,
57326,49.21048,17.51726,Orlen,56,Otrokovice,Otrokovice,Tř. T. Bati 1601,765 02,5 77 92 61 68,0:00 - 24:00,,,,,OK,
57329,49.667831,18.346451,Orlen,56,"Frýdek Místek, Beskydská",Frydek Mistek,Beskydská,738 01,+420 558 645 551,0:00 - 24:00,,,,,OK,
59406,50.869049,15.696942,Orlen,118,Jelenia Góra,Jelenia Góra,Wolności 233,58-560,+48 24 256 4318,0:00 - 24:00,,,,0,OK,
59421,50.764961,16.26993,Orlen,118,Wałbrzych,Wałbrzych,1 Maja 60,58-300,+48 24 256 1207,0:00 - 24:00,,,,,OK,
59434,50.681309,16.629137,Orlen,118,Bielawa,Bielawa,Sikorskiego 21,58-260,+48 24 256 4135,0:00 - 24:00,,,4cdbee132db58eecff1e13a9,0,OK,
59443,51.028393,16.77272,Orlen,118,Kąty Wrocławskie,Kąty Wrocławskie,K. Norwida 10,55-080,+48 24 256 0984,0:00 - 24:00,,,4f01f484e5e8171959383bda,0,OK,
59452,51.041939,16.94762,Shell,119,5520 Wrocław Amazon Nti,Bielany Wroclawskie,Amazon 5,55-040,+48 507 219 678,0:00 - 24:00,,,,,OK,
59458,50.458656,17.028942,Orlen,118,Paczków,Paczków,Wojska Polskiego 49,48-370,+48 24 256 4324,0:00 - 24:00,,,519c64ea498e711c3876654c,0,OK,
59463,51.04187,17.127495,Orlen,118,Siechnice,Siechnice,Opolska 1C,55-011,+48 24 256 1117,0:00 - 24:00,,,50bd3b5ae4b0df55fc60d29f,0,OK,
59467,50.783829,17.347151,Orlen,118,Młodoszowice,Młodoszowice,Węzeł Przylesie 150,49-200,"774040511, 7740405",0:00 - 24:00,,,,,OK,
59483,50.91497,17.833784,Orlen,118,Zieleniec,Pokój,brak 64,46-034,77 402 12 81,0:00 - 24:00,,,,0,OK,
59487,50.70295,17.90724,Orlen,118,Opole,Opole,Powstańców Warszawskich 10,45-424,+48 24 256 4090,06:00 - 22:00,,,4f7ee1c1e4b079381b99ace2,0,OK,
59491,50.46941,17.95454,Orlen,118,Krapkowice,Krapkowice,Prudnicka,47-300,+48 24 256 1324,0:00 - 24:00,,,5145e36ae4b0c11f7ec4f5fd,0,OK,
59499,50.57629,18.131269,Orlen,118,Grabów,Grabów,Przy drodze krajowej nr 94,47-180,774 631 513,0:00 - 24:00,,,,0,OK,
59509,50.073112,18.372446,Orlen,118,Rzuchów,Rzuchów,Pstrąska 1,44-285,+48 24 256 0278,0:00 - 24:00,,,,0,OK,
59513,50.073792,18.415483,Orlen,118,Rydułtowy,Rydułtowy,Raciborska 186,44-280,+48 24 256 4085,08:00 - 22:00,,,4f2ff19be4b0a2ac59486b7c,0,OK,
59516,50.744312,18.443035,Orlen,118,Dobrodzień,Dobrodzień,Oleska 6,46-380,723 411 399,06:00 - 22:00,,,,0,OK,
59545,50.224499,18.670149,Orlen,118,Knurów,Knurów,1-go Maja 9,44-190,+48 24 256 0966,0:00 - 24:00,,,52f91b0d498ee78da6417c03,0,OK,
59549,49.958912,18.69434,Orlen,118,Pawłowice,Pawłowice,Wodzisławska 74,43-250,+48 24 256 4306,0:00 - 24:00,,,,0,OK,
59552,50.528957,18.717407,Orlen,118,Tworóg,Tworóg,Tarnogórska 3,42-690,322 857 403,0:00 - 24:00,,,5292dfc311d281f6861614ff,0,OK,
59556,50.374088,18.781321,Orlen,118,Wieszowa,Wieszowa,Bytomska 2,42-672,+48 24 256 4093,0:00 - 24:00,,,,0,OK,
59557,49.805229,18.78977,Orlen,118,Skoczów,Skoczów,Katowicka 2a,43-430,+48 24 256 0408,0:00 - 24:00,,,,0,OK,
59819,51.027283,16.182999,Orlen,118,Paszowice,Paszowice,49,59-411,076-8701712,0:00 - 24:00,,,,0,OK,
59847,50.320686,17.387815,Orlen,118,Głuchołazy,Głuchołazy,Grunwaldzka 7a,48-340,+48 24 256 4021,0:00 - 24:00,,,59c7b38947f8762d3d81647d,0,OK,
59851,50.461559,18.15996,Orlen,118,Góra Św Anny,Góra Świętej Anny,Autostrada A4,47-154,+48 24 256 4379,0:00 - 24:00,,,55848642498ea911ab1e5cb0,,OK,
59852,49.92281,18.320955,Orlen,118,Chałupki,Chałupki,Bogumińska 7A,47-460,+48 24 256 1006,0:00 - 24:00,,,4e337526e4cdf7a42ca7809e,,OK,
59977,49.950424,18.715536,Orlen,118,Pawłowice,Pawłowice,Zjednoczenia  9,43-250,+48 795 154  716,0:00 - 24:00,,,,0,OK,
59983,49.704819,14.900957,Orlen,56,Vlašim,Vlašim,Vlasákova 1898,258 01,,0:00 - 24:00,,,4c2c393657a9c9b68830f767,0,OK,
59990,50.691193,17.791615,Orlen,118,Opole,Opole,Wrocławska  400,45-960,+48 24 256 4369,0:00 - 24:00,,,585d426b8f0be461c0a8da24,0,OK,
62516,48.965599,18.1791,Бензиностанция,20,DALIOIL DUBNICA NAD VÁHOM,Dubnica nad Váhom,Centrum I. 1715/140,018 41,+421 915 853 119,00:00-24:00,,,,,OK,
62517,48.971882,18.117996,Бензиностанция,20,DALIOIL NEMŠOVÁ,Nemšová,Slovenskej armády 9,914 41,+421 905 633 001,5:00 - 23:00,,,5db7137c8b135300089c9ca2,,OK,
62518,49.135983,18.473795,Бензиностанция,20,DALIOIL POVAŽSKÁ TEPLÁ,Považská Bystrica,Považská Teplá 585,017 05,+421 907 857 846,5:00 - 23:00,,,,,OK,
62519,48.648926,17.158047,Бензиностанция,20,DALIOIL Šaštín - Stráže,Šaštín - Stráže,M. R. Štefánika 487,90841,+421 918 437 344,00:00-24:00,,,5aeb77ec029a550039be6fc3,,OK,
62520,48.869587,18.858921,Бензиностанция,20,DALIOIL TURČIANSKE TEPLICE,Turčianske Teplice,Robotnícka 823,039 01,+421 945 454 006,5:00 - 23:00,,,5dbd6d2c406dff0008b09b2b,,OK,
65306,49.2379,18.699699,Shell,64,8220 Žilina-Strážov (Iii),Žilina - Strážov,Hričovská,010 01,+421 41/700 30 21,0:00 - 24:00,,,51be909b498ecc5715f1c16c,,OK,
65324,49.2388,17.879101,Shell,59,8508 Lutonina,Vizovice,Lutonina,763 12,+420 577 456 206,05:00 - 22:00,,,4d28673febacb1f7cbb0f04f,,OK,
81232,49.216171,17.626497,Shell,59,8014 Zlín-Tomáše Bati,Zlín,Třída Tomáše Bati 258,764 20,+420 577 105 007,0:00 - 24:00,,,4f6712efe4b045fbd610d8bc,,OK,
81233,49.193394,17.531605,Shell,59,8561 Napajedla,Napajedla,Kvítkovická 1568,763 61,+420 577 101 519,06:00 - 22:00,,,4f718631e4b022ab217e2eb5,,OK,
82418,51.017544,16.754129,Shell,119,8621 Port Kąty Wroclawskie,Kąty Wrocławskie,Ks. Jerzego Popiełuszki 21,55-080,+48 693 370 370,0:00 - 24:00,,,,,OK,
82723,50.130939,18.68948,Shell,119,8304 Rybnik-Belk,Belk,Ul. Glowna 1D,44-237,+48 663 445 566,0:00 - 24:00,,,,,OK,
82738,50.403751,18.80991,Shell,119,3086 Piast Śląski,Bytom,Żołnierska 121,41-936,+48 690 060 956,0:00 - 24:00,,,,,OK,
82739,50.402302,18.8095,Shell,119,3087 Gwarek,Bytom,Zolnierska 124,41-936,+48 690 060 957,0:00 - 24:00,,,,,OK,
82905,50.31731,17.388617,Lotos,116,Optima SP753 Głuchołazy,Głuchołazy,Ul. Grunwaldzka 2E,48-340,48519076400,0:00 - 24:00,,,,,OK,
82913,50.329868,17.60231,Shell,119,5219 Lubrza,Lubrza,Opolska 12.,48-231,+48 512 596 163,0:00 - 24:00,,,,,OK,
82920,50.893047,14.849757,BP,115,Sieniawka,Sieniawka,ul. Biedrzychowicka 11,59-921,48756190036,0:00 - 24:00,,,6309ede814d07962e42731fe,,OK,
83222,49.352901,16.649401,OMV,58,"Blansko, Nádražní",Blansko,Nádražní 2320/6,67820,420725701400,5:00-23:00,,,,,OK,
83224,49.31546,14.163784,OMV,58,"Písek, Táborská",Písek,Táborská 2470,39701,,,,,51cd843d498e19068564a8ea,,OK,
83225,49.578587,14.074264,OMV,58,Chraštice,Chraštice,Chraštice 64,26272,420318695251,5:30-22:00,,,4be536382457a5934a3eab15,,OK,
83227,48.958885,17.883141,OMV,58,Starý Hrozenkov,Starý Hrozenkov,Starý Hrozenkov 1,68774,420572696134,0:00 - 24:00,,,4d88cbc6d85f3704a41ed9db,,OK,
83263,48.575466,14.051631,OMV,55,FastLine,Haslach an der Mühl,Sternwaldstraße 45,4170,43728971327,6:00–21:00,,,,,OK,
84504,48.595654,15.662189,Shell,54,Gars Am Kamp Kremser Str,Gars Am Kamp,Kremser Str,3571,+43 2985 2255,06:00 - 21:00,,,5f3561cfae562379c5d21f6b,,OK,
84507,48.667301,15.0684,Shell,54,Schweiggers,Schweiggers,Sportplatzstrasse 2,3931,+43 2829 8214,07:30 - 16:30,,,,,OK,
84509,48.594398,15.5519,Shell,54,Wolfshoferamt,Wolfshoferamt,Wolfshoferamt 148,3572,+43 2987 2242,0:00 - 24:00,,,,,OK,
84741,50.4562,18.834499,Shell,119,3064 Tarnowskie G,Tarnowskie Gory,Zagorska 185,42-600,+48 884 844 474,0:00 - 24:00,,,,,OK,
84774,48.561699,16.5769,Shell,54,Mistelbach Mitschastrasse,Mistelbach,Mitschastrasse 29,2130,+43 2572 2622,05:00 - 22:00,,,53862711498e73b8917740dd,,OK,
84776,48.6605,16.628799,Shell,54,Poysdorf Bahnstrasse,Poysdorf,Wienerstrasse 56,2170,+43 2552 2663,0:00 - 24:00,,,,,OK,
84777,48.6021,15.169,Shell,54,Zwettl Syrnauerplatz,Zwettl,Syrnauerplatz 3,3910,+43 2822 50661,0:00 - 24:00,,,,,OK,
84787,48.565079,13.985173,BP,52,Rohrbach Umfahrung Sued,Rohrbach,Umfahrung Sued 1,4150,+43 7289 8939,05:00 - 22:00,,,64cca3cf917820700aab9cdd,,OK,
84858,50.658298,13.1535,Shell,94,"Marienberg, Am Lautengrund",Marienberg,Am Lautengrund 1,9496,+49 3735 65821,06:00 - 20:00,,,591e67461ffe970199bd7fb4,,OK,
84878,50.917999,12.8322,Shell,94,"Taura, Mittweidaer Str. 55",Taura,Mittweidaer Str. 55,9249,+49 3724 14608,05:30 - 21:30,,,575b1468498ebf2f6b5d790f,,OK,
84879,50.750313,12.483762,Shell,94,"Zwickau, Schubertstr.1",Zwickau,Schubertstr. 1,8058,+49 375 292811,05:00 - 22:00,,,4e986a3677c8d1cccbb6458b,,OK,
84892,48.877281,13.394759,Shell,94,"Grafenau, Wilhelm Sedlbauer Str. 1",Grafenau,Wilhelm Sedlbauer Str. 1,94481,+49 8552 5382,05:30 - 21:00,,,5f35523eb6f5c306859c1381,,OK,
84895,50.987202,13.2747,Shell,94,"Grossschirma, Leipziger Str",Grossschirma,Leipziger Str. 5B,9603,+49 37328 16580,05:30 - 22:00,,,,,OK,
84898,48.55014,12.544964,Shell,94,"Frontenhausen, Am Kreisverkehr",Frontenhausen,Am Kreisverkehr 1,84160,+49 8732 938892,0:00 - 24:00,,,56461b1e498e1b84698c7647,,OK,
84905,48.621399,13.4778,Shell,94,Salzweg Jaegerroed 2,Salzweg,Jaegerroed 2,94121,+49 851 96689915,05:00 - 21:00,,,59202fa2bfc6d007422a5185,,OK,
84913,48.555698,12.1376,Shell,94,"Landshut, Altdorfer",Landshut,Altdorfer Str 34,84030,+49 871 9753550,06:00 - 22:00,,,,,OK,
85149,48.5592,18.167601,Shell,64,8217 Topoľčany,Topoľčany,Martina Rázusa Ul. 50,955 01,+421 38/532 12 76,0:00 - 24:00,,,,,OK,
85157,49.2155,18.745001,Shell,64,8269 Žilina-Vysokoškolákov (I),Žilina,Vysokoškolákov 26,010 01,+421 41/500 38 73,0:00 - 24:00,,,,,OK,
85162,48.7463,17.3405,Shell,64,8608 Castkov Do,Častkov,Castkov 230,906 01,+421 908 414 832,05:00 - 22:00,,,,,OK,
85170,48.9515,18.1506,Shell,64,8221 Dubnica Nad Váhom (I),Dubnica Nad Váhom,Priemyselná 4605/5,018 41,+421 903 416 177,0:00 - 24:00,,,,,OK,
85172,49.114601,18.4328,Shell,64,8227 Povazska Bystrica (Ii),Považská Bystrica,Dialnica D1 Km 168,017 01,+421 42/444 36 55,0:00 - 24:00,,,,,OK,
85174,49.117699,18.3148,Shell,64,8230 Puchov,Púchov,Púchov,020 01,+421 42/463 30 15,0:00 - 24:00,,,,,OK,
85176,48.869099,18.022301,Shell,64,8264 Trencin 2,Trencin,Belá 7789,911 01,+421 32/640 25 02,0:00 - 24:00,,,,,OK,
85178,48.7477,18.7637,Shell,64,8247 Handlová,Handlova,Prievidzská 2001/61,972 51,+421 46/545 34 12,0:00 - 24:00,,,,,OK,
85213,48.620567,13.885327,BP,52,"Peilstein, Hanriederstr. 43",Peilstein,Hanriederstr. 43,4153,+43 7287 752848,,,,,,OK,
85387,50.319447,12.519175,Orlen,56,Kraslice,Kraslice,Československé armády 1883,,,05:00 - 22:00,,,4db44eeff7b121c29f48d8d5,,OK,
85422,50.316471,12.752101,Orlen,56,Nejdek,Pozorka,č.p. 119,362 21,420353925957,05:00 - 22:00,,,4c9fa3d8e9a7ef3bcc4b4a16,,OK,
85423,50.316647,12.945468,Orlen,56,Ostrov Nad Ohří,Ostrov,Jáchymovská 1478,363 01,420353843363,05:00 - 22:00,,,4c73fb51ff1fb60c8032f2a7,,OK,
85426,50.072918,12.361326,Orlen,56,"Cheb, Klášterní",Cheb,"Skalka, Klášterní 2363/8",350 02,420354433771,05:00 - 22:00,,,522c3f6211d20dc0c039a6eb,,OK,
85440,49.7505,13.404155,Orlen,56,"Plzeň, Letná",Plzeň,Jateční 2471/6a,301 00,420377220354,0:00 - 24:00,,,4cefe32db80da093b2e82e00,,OK,
85447,49.807053,12.643319,Orlen,56,Tachov Sokolovská,Tachov,Sokolovská 1986,,,06:00 - 20:00,,,,,OK,
85450,48.619114,14.324707,Orlen,56,Vyšší Brod,Vyšší Brod,Těchoraz č.p. 44,,,05:00 - 22:00,,,,,OK,
85451,49.32478,13.68737,Orlen,56,Horažďovice,Horažďovice,Komenského 1134,,,05:00 - 23:00,,,,,OK,
85453,49.438919,12.828981,Orlen,56,Klenčí Pod Čerchovem,Klenčí pod Čerchovem,"č.silnice 189, č.p. 341",,,06:00 - 20:00,,,,,OK,
85454,49.274807,13.068622,Orlen,56,Svatá Kateřina,Svatá Kateřina,"č.ev. 4, p. Nýrsko",,,06:00 - 21:00,,,,,OK,
85455,49.645393,13.509299,Orlen,56,Nezvěstice,Nezvěstice,č.p. 344,,,05:00 - 20:00,,,,,OK,
85457,48.996254,14.490061,Orlen,56,Expres Budějovice,České Budějovice,"Retail park Okružní, Za Otýlií",,,0:00 - 24:00,,,,,OK,
85458,49.052643,14.189672,Orlen,56,Netolice,Netolice,,,,0:00 - 24:00,,,,,OK,
85459,48.951702,14.465997,Orlen,56,"České Budějovice, Rožnov",České Budějovice,Lidická tř. 2177,,,05:00 - 23:00,,,,,OK,
85460,49.001358,14.011693,Orlen,56,"Prachatice, Krumlovská",Prachatice,Krumlovská 1125,,,06:00 - 22:00,,,,,OK,
85461,48.770504,14.958014,Orlen,56,České Velenice,České Velenice,Revoluční 207,,,05:00 - 22:00,,,,,OK,
85462,49.316124,14.136162,Orlen,56,Písek,Písek,Pražská 441,,,05:00 - 22:00,,,,,OK,
85464,50.021488,14.404355,Orlen,56,"Praha, Modřany","Praha, Hodkovičky",V Mokřinách 283/8,,,05:00 - 23:00,,,,,OK,
85465,49.668404,13.994986,Orlen,56,"Příbram, Brodská",Příbram,Brodská 653,,,05:00 - 23:00,,,,,OK,
85467,49.926453,14.269283,Orlen,56,Dobřichovice,Dobřichovice,Pražská,,,05:00 - 23:00,,,,,OK,
85469,50.086987,14.141702,Orlen,56,Unhošť,Unhošť,Pražská 1544,,,0:00 - 24:00,,,,,OK,
85471,50.064091,14.504086,Orlen,56,"Praha, Průběžná",Praha 10 - Strašnice,Průběžná 1545,,,0:00 - 24:00,,,,,OK,
85472,50.138069,14.366595,Orlen,56,"Praha, Suchdol",Praha 6,"Suchdol, Kamýcká",,,05:00 - 22:00,,,,,OK,
85473,50.087376,14.350153,Orlen,56,"Praha, Ankarská",Praha 6,Ankarská 2380/20,,,0:00 - 24:00,,,,,OK,
85477,49.947258,15.255083,Orlen,56,Kutná Hora,Kutná Hora,Kouřimská 939,,,05:00 - 22:00,,,,,OK,
85478,50.19088,14.646694,Orlen,56,Brandýs Nad Labem,Brandýs nad Labem,Kostelecká,250 01,+420 326 723 502,05:00 - 23:00,,,4c39a2931e06d13a3cea793e,,OK,
85480,49.992626,14.844058,Orlen,56,Kostelec Nad Černými Lesy,Kostelec nad Černými Lesy,Pražská 857,,,05:00 - 22:00,,,,,OK,
85481,50.022423,15.184159,Orlen,56,Kolín,Kolín,Benešova 1073,,,05:00 - 22:00,,,,,OK,
85484,50.076767,14.305774,Orlen,56,"Praha, Karlovarská",Praha 17 - Řepy,Karlovarská,,,0:00 - 24:00,,,,,OK,
85485,50.049191,14.40992,Orlen,56,"Praha, Strakonická","Praha, Hlubočepy",Strakonická,,,0:00 - 24:00,,,,,OK,
85487,50.498611,13.444444,Orlen,56,Jirkov,Jirkov,Dvořákova 1777,,,0:00 - 24:00,,,,,OK,
85489,50.484692,13.632699,Orlen,56,"Most, Velebudice",Most,Velebudice 38,,,06:00 - 21:00,,,,,OK,
85490,50.333206,13.538986,Orlen,56,Žatec,Žatec,Plzeňská,,,0:00 - 24:00,,,,,OK,
85491,50.350166,13.816236,Orlen,56,Louny,Louny,Václava Majera 2672,,,05:00 - 22:00,,,,,OK,
85493,50.665798,14.0657,Orlen,56,"Ústí N.l., Neštěmická",Ústí nad Labem,Neštěmická 813/65,,,0:00 - 24:00,,,,,OK,
85497,50.670341,13.794271,Orlen,56,"Dubí, Ruská",Dubí,Ruská 303,,,0:00 - 24:00,,,,,OK,
85498,50.515759,14.97225,Orlen,56,Mnichovo Hradiště,Mnichovo Hradiště,Víta Nejedlého,,,05:00 - 22:00,,,,,OK,
85499,50.733788,15.183687,Orlen,56,Jablonec Nad Nisou,Jablonec nad Nisou,Březová 4525/33,,,0:00 - 24:00,,,,,OK,
85500,50.709068,15.315789,Orlen,56,Plavy,Plavy,"E65, č.p. 2",,,05:00 - 21:00,,,,,OK,
85501,50.668152,14.7265,Orlen,56,Mimoň,Mimoň,Žitavská,,,05:00 - 22:00,,,,,OK,
85502,50.698879,14.541458,Orlen,56,Česká Lípa Ls,Česká Lípa,Pražská 4,,,0:00 - 24:00,,,,,OK,
85506,50.483311,15.505815,Orlen,56,Nová Paka Ps,Nová Paka,Pražská,,,05:00 - 23:00,,,,,OK,
85510,50.240849,15.500558,Orlen,56,Nový Bydžov,Nový Bydžov,Dukelská tř. 979,,,05:00 - 23:00,,,,,OK,
85511,50.571774,15.894138,Orlen,56,"Trutnov, Krkonošská",Trutnov,Krkonošská 567,,,05:00 - 22:00,,,,,OK,
85512,49.905376,15.922778,Orlen,56,Chrast U Chrudimě,Chrast u Chrudimě,Tyršova 778,,,05:00 - 22:00,,,,,OK,
85513,50.037449,15.564653,Orlen,56,Přelouč,Přelouč,Pardubická 1523,,,05:00 - 23:00,,,,,OK,
85517,50.3606,16.148031,Orlen,56,Nové Město Nad Metují,Nové Město nad Metují,T.G.Masaryka 1425,,,05:00 - 22:00,,,,,OK,
85518,50.295856,16.168362,Orlen,56,Dobruška,Dobruška,Provozská,,,05:00 - 23:59,,,,,OK,
85519,50.41531,16.168453,Orlen,56,Náchod,Náchod,Pražská 603,,,0:00 - 24:00,,,,,OK,
85520,49.558525,16.074453,Orlen,56,Nové Město Na Moravě,Nové Město na Moravě,Brněnská 255,,,05:00 - 23:00,,,,,OK,
85523,49.966015,16.405008,Orlen,56,"Ústí Nad Orlicí, Moravská",Ústí nad Orlicí,Moravská 1401,,,05:00 - 22:00,,,,,OK,
85524,49.548653,15.9562,Orlen,56,"Žďár Nad Sázavou, Brněnská",Žďár nad Sázavou,Brněnská 2207/46,,,05:00 - 22:00,,,,,OK,
85525,49.981438,16.394579,Orlen,56,"Ústí Nad Orlicí, Královéhradecká",Ústí nad Orlicí,Královéhradecká 1395,,,0:00 - 24:00,,,,,OK,
85527,49.359085,15.995266,Orlen,56,Velké Meziříčí,Velké Meziříčí,Fr.Stránecké 1701/4,,,05:00 - 22:00,,,,,OK,
85529,49.056908,15.803924,Orlen,56,Moravské Budějovice,Moravské Budějovice,Pražská 1039,,,05:00 - 23:00,,,,,OK,
85530,48.906532,15.974285,Orlen,56,Mramotice,Znojmo,Mramotice 145,,,0:00 - 24:00,,,,,OK,
85532,49.187363,15.449041,Orlen,56,"Telč, Slavatovská",Telč,Slavatovská 451,,,05:00 - 22:00,,,,,OK,
85534,49.491005,16.649864,Orlen,56,Boskovice,Boskovice,Chrudichromská 2445/1,,,0:00 - 24:00,,,,,OK,
85535,49.327286,16.553938,Orlen,56,Lipůvka,Lipůvka,Lipůvka 364,,,0:00 - 24:00,,,,,OK,
85536,49.342049,16.418131,Orlen,56,Tišnov,Tišnov,Za Mlýnem,,,0:00 - 24:00,,,,,OK,
85537,49.312168,16.486418,Orlen,56,Čebín,Čebín,Čebín,,,05:00 - 22:00,,,,,OK,
85538,49.184799,16.403118,Orlen,56,Rosice,Rosice,Brněnská,,,0:00 - 24:00,,,,,OK,
85539,49.20525,16.44376,Orlen,56,"Brno, Automotodrom",Brno,automotodrom,,,0:00 - 24:00,,,,,OK,
85540,49.223114,16.537371,Orlen,56,"Brno, Bystrcká",Brno,Bystrcká 1276/36b,,,0:00 - 24:00,,,,,OK,
85541,49.218929,16.575445,Orlen,56,"Brno, Královopolská",Brno,Královopolská 3197/90,,,0:00 - 24:00,,,,,OK,
85542,48.825863,16.399008,Orlen,56,Hrušovany Nad Jevišovkou,Hrušovany nad Jevišovkou,Nádražní 159,,,05:00 - 22:00,,,,,OK,
85543,49.359428,16.642414,Orlen,56,Blansko,Blansko,Svitavská 2482/14a,,,0:00 - 24:00,,,,,OK,
85544,49.135162,16.632351,Orlen,56,"Brno, Olympia",Modřice,U Dálnice 744,,,0:00 - 24:00,,,,,OK,
85548,49.093582,17.743513,Orlen,56,Luhačovice,Luhačovice,Uherskobrodská 981,,,05:00 - 22:00,,,,,OK,
85550,49.32542,17.552139,Orlen,56,"Holešov, Palackého",Holešov,Palackého 226,,,05:00 - 22:00,,,,,OK,
85551,49.277721,17.401258,Orlen,56,Kroměříž,Kroměříž,Kotojedy 58,,,05:00 - 22:00,,,,,OK,
85552,49.07428,17.421635,Orlen,56,Staré Město,Staré Město,Nádražní 1944,,,0:00 - 24:00,,,,,OK,
85554,49.475368,17.131098,Orlen,56,Prostějov,Prostějov,Vrahovická 4482,,,05:00 - 22:00,,,,,OK,
85555,49.338234,17.313629,Orlen,56,Kojetín,Kojetín,Padlých hrdinů 1416,,,06:00 - 21:00,,,,,OK,
85556,49.454857,17.1117,Orlen,56,Prostějov Brněnská,Prostějov-Žešov,silnice E462,,,05:00 - 21:00,,,,,OK,
85559,49.876316,16.885597,Orlen,56,Zábřeh Na Moravě,Zábřeh,Československé armády 883/43,,,05:00 - 22:00,,,,,OK,
85560,49.722389,17.285797,Orlen,56,Šternberk,Šternberk,Nádražní 2156/56,,,05:00 - 22:00,,,,,OK,
85561,50.113777,17.391958,Orlen,56,Vrbno Pod Pradědem,Vrbno pod Pradědem,Nádražní 150,,,05:00 - 21:00,,,,,OK,
85562,50.246532,17.213833,Orlen,56,Česká Ves U Jeseníku,Česká Ves,Jesenická,,,05:00 - 22:00,,,,,OK,
85563,50.220078,17.191086,Orlen,56,Jeseník,Bukovice u Jeseníku,Bukovice u Jeseníku,,,05:00 - 22:00,,,,,OK,
85564,49.776127,16.931896,Orlen,56,"Mohelnice, 1. Máje",Mohelnice,1. máje 180/16,,,06:00 - 20:00,,,,,OK,
85566,49.585213,17.226625,Orlen,56,"Olomouc, Hněvotínská",Olomouc,Hněvotínská 701/54,,,0:00 - 24:00,,,,,OK,
85568,49.947212,17.884212,Orlen,56,Opava Krnovská,Opava,Krnovská,,,0:00 - 24:00,,,,,OK,
85572,50.087772,17.693811,Orlen,56,"Krnov, Čsl. Armády",Krnov,Čsl. armády 2243/5,,,0:00 - 24:00,,,,,OK,
85573,49.479156,17.818344,Orlen,56,Kelč,Kelč,č.p.271,,,05:00 - 21:00,,,,,OK,
85574,49.112228,16.376652,Orlen,56,Ivančice,Ivančice,Na Brněnce 1380,,,05:00 - 22:00,,,,,OK,
85575,49.647465,17.989206,Orlen,56,Kunín,Kunín,Kunín 472,,,05:00 - 22:00,,,,,OK,
85576,49.707615,18.048412,Orlen,56,Studénka,Studénka,Butovická 840,,,06:00 - 21:00,,,,,OK,
85577,49.46228,18.128578,Orlen,56,"Rožnov Pod Radhoštěm, 1. Máje",Rožnov pod Radhoštěm,1. máje 2637,,,05:00 - 21:00,,,,,OK,
85580,49.781254,18.270441,Orlen,56,"Ostrava, Krmelínská",Ostrava,Krmelínská 971/2A,,,05:00 - 21:00,,,,,OK,
85582,49.856377,18.288462,Orlen,56,"Ostrava, Muglinovská",Ostrava,Muglinovská 901/69,,,05:00 - 22:00,,,,,OK,
85583,49.579681,18.352688,Orlen,56,Frýdlant Nad Ostravicí Ps,Frýdlant nad Ostravicí,"R56, č.p. 36",,,05:00 - 22:00,,,,,OK,
85585,49.829746,18.385326,Orlen,56,"Petřvald, Ostravská Ls",Petřvald,Ostravská 547,,,05:00 - 22:00,,,,,OK,
85586,49.845592,18.554556,Orlen,56,"Karviná, 17. Listopadu",Karviná,tř. 17. listopadu,,,0:00 - 24:00,,,,,OK,
85589,49.185566,18.848038,Orlen,231,Strečno,Strečno,E50,,,0:00 - 24:00,,,,,OK,
85597,49.19141,18.733982,Orlen,231,Žilina - Bytčica,Žilina,Dlhá 563,,,05:00 - 23:00,,,,,OK,
85599,48.592319,17.747841,Orlen,231,Trebatice,Trebatice,Trebatice,,,05:00 - 23:00,,,,,OK,
85601,49.306694,18.785515,Orlen,231,Kysucké Nové Mesto ,Kysucké Nové Mesto,ul. SNP,,,05:00 - 23:00,,,,,OK,
85632,50.519844,13.609661,Orlen,56,Autodrom Most,Most,Tvrzova 5,,,0:00 - 24:00,,,,,OK,
85633,48.942715,16.986105,Orlen,56,Hovorany,Hovorany,č.p. 791,,,06:00 - 21:00,,,,,OK,
85635,49.076324,17.48304,Orlen,56,Uherské Hradiště,Uherské Hradiště,Sokolovská 1395,,,0:00 - 24:00,,,,,OK,
85636,49.315254,15.668473,Orlen,56,Brtnice,Brtnice,Jihlavská 800,,,06:00 - 20:00,,,,,OK,
85639,48.866428,16.178938,Orlen,56,Bantice,Bantice,Bantice,,,0:00 - 24:00,,,,,OK,
85640,49.218201,17.847164,Orlen,56,Vizovice,Vizovice,Zlínská 1363,763 12,,05:30 - 22:30,,,50178f8be4b0781bc12b4962,,OK,
85642,49.693394,15.28803,Orlen,56,Ledeč Nad Sázavou,Ledeč nad Sázavou,Slunečná 590,,,0:00 - 24:00,,,,,OK,
85643,48.842419,16.902836,Orlen,56,Velké Bílovice,Velké Bílovice,Žižkovská 1344,691 02,+420 725 518 269,0:00 - 24:00,,,,,OK,
85644,48.890022,17.293661,Orlen,56,Strážnice,Strážnice,Skalická 730,,,0:00 - 24:00,,,,,OK,
85645,50.402283,14.308715,Orlen,56,Krabčice,Krabčice,Rovné 144,,,06:00 - 20:00,,,,,OK,
85648,50.19714,14.496938,Orlen,56,Líbeznice,Líbeznice,Mělnická 433,,,0:00 - 24:00,,,,,OK,
86604,48.727901,18.250401,Shell,64,8243 Banovce Nad Bebravou,Banovce Nad Bebravou,Svätoplukova 7,957 04,+421 903 379 362,0:00 - 24:00,,,,,OK,
86608,49.096802,18.6446,Shell,64,8242 Rajec,Rajec,Hollého 54,015 01,+421 918 983 584,0:00 - 24:00,,,,,OK,
86750,49.660965,18.661379,Shell,59,8501 Oldřichovice,Třínec 9,Oldrichovice 254,739 58,+420 730 871 664,0:00 - 24:00,,,4f5f6744e4b0a76b7114711e,,OK,
86751,49.204601,15.8913,Shell,59,8001 Třebíč,Třebíč,Spojovací 1329,674 01,+420 568 843 254,06:00 - 22:00,,,,,OK,
86752,50.1409,14.0805,Shell,59,8002 Kladno-Vítězná,Kladno,Vítezná,272 04,+420 312 267 800,0:00 - 24:00,,,,,OK,
86753,50.0513,14.4109,Shell,59,8013 Praha-Strakonická,Praha 5,Strakonická 1032,150 00,+420 257 320 518,06:00 - 22:00,,,,,OK,
86754,50.471001,13.4148,Shell,59,8112 Chomutov-Březenecká,Chomutov,Brezenecká 5366,430 04,+420 474 655 241,0:00 - 24:00,,,,,OK,
86755,50.516399,13.6398,Shell,59,8018 Most-Chomutovská,Most,Chomutovská 1197,434 01,+420 476 704 097,0:00 - 24:00,,,,,OK,
86756,49.1735,16.582199,Shell,59,8120 Brno-Jihlavska P,Brno,Jihlavska Ul. Ii Prava,625 00,+420 547 211 261,0:00 - 24:00,,,,,OK,
86757,50.7197,15.1626,Shell,59,8021 Jablonec Nad Nisou-Nákladní,Jablonec Nad Nisou,Nákladní 11,466 01,+420 483 322 322,06:00 - 22:00,,,,,OK,
86758,50.034599,14.4553,Shell,59,8022 Praha-Vídeňská,Praha 4,U Krčského Nádraží 46,140 00,+420 244 470 004,0:00 - 24:00,,,,,OK,
86759,49.743698,18.6215,Shell,59,8025 Český Těšín,Cesky Tesin,Jablunkovská 10,737 01,+420 558 731 091,0:00 - 24:00,,,,,OK,
86760,49.410801,14.6835,Shell,59,8026 Tábor,Tábor,Chýnovská 2953,390 02,+420 381 282 098,0:00 - 24:00,,,,,OK,
86761,50.069401,14.3814,Shell,59,8027 Praha-Vrchlického,Praha 5,Vrchlického 19,150 00,+420 257 216 163,0:00 - 24:00,,,,,OK,
86762,49.866199,18.422701,Shell,59,8028 Orlová,Orlová - Lutyně,Na Stuchlíkovci 1347,735 53,+420 596 512 603,06:00 - 22:00,,,,,OK,
86763,50.7593,15.0532,Shell,59,8030 Liberec-Košická,Liberec 1,Košická 13,460 01,+420 485 146 315,0:00 - 24:00,,,,,OK,
86764,49.185299,16.612101,Shell,59,8032 Brno-Opuštěná,Brno,Opuštená Sever 6,602 00,+420 543 212 140,06:00 - 18:00,,,,,OK,
86765,49.899101,18.2057,Shell,59,8033 Hlučín,Hlučín,Markvartovická 7,748 01,+420 595 046 747,0:00 - 24:00,,,,,OK,
86766,49.601002,17.2729,Shell,59,8034 Olomouc-Pasteurova,Olomouc,Pasteurova 16,772 00,+420 737 172 442,05:30 - 22:00,,,,,OK,
86767,50.060398,14.4702,Shell,59,8036 Praha-Bohdalecka,Praha 10,Bohdalecka 14,101 00,+420 272 774 137,0:00 - 24:00,,,,,OK,
86768,49.303699,14.1381,Shell,59,8037 Písek,Písek,Hradištská 2479,397 01,+420 382 214 620,0:00 - 24:00,,,,,OK,
86769,50.499001,13.6616,Shell,59,8038 Most-Pod Lajsníkem,Most,Pod Lajsníkem 1270,434 01,+420 476 121 260,07:00 - 19:00,,,,,OK,
86770,49.222,16.6269,Shell,59,8040 Brno-Okružní,Brno,Okružní 3B,602 00,+420 545 213 344,0:00 - 24:00,,,,,OK,
86771,49.9342,17.9161,Shell,59,8041 Opava-Těšínská,Opava,Tešínská 35,747 05,+420 553 627 668,06:00 - 22:00,,,,,OK,
86772,49.005901,14.7474,Shell,59,8044 Třeboň,Třeboň,Budejovická 15,397 01,+420 384 724 911,0:00 - 24:00,,,,,OK,
86773,50.103699,14.5034,Shell,59,8047 Praha-Freyova,Praha 9,Freyova 4,190 00,+420 284 685 065,06:00 - 22:00,,,,,OK,
86774,49.2188,14.4198,Shell,59,8051 Týn Nad Vltavou,Týn Nad Vltavou,Budejovická 9,375 01,+420 385 724 189,0:00 - 24:00,,,,,OK,
86775,48.997501,14.481,Shell,59,8052 České Budějovice-Pražská,České Budějovice,Pražská,370 01,+420 387 314 250,0:00 - 24:00,,,,,OK,
86776,49.580502,17.461,Shell,59,8053 Velký Újezd,Daskabát,Daskabát 183,772 00,+420 737 258 466,0:00 - 24:00,,,,,OK,
86777,49.9599,16.975901,Shell,59,8054 Šumperk,Šumperk,Jesenická 1C,787 01,+420 730 895 431,0:00 - 24:00,,,,,OK,
86778,50.0839,12.3703,Shell,59,8055 Cheb-Ašská,Cheb,Ašská 9,350 02,+420 354 424 307,0:00 - 24:00,,,,,OK,
86779,49.7724,18.298,Shell,59,8059 Ostrava-Frýdecká,Ostrava - Vratimov,Frýdecká 724/.,720 00,+420 596 732 109,05:00 - 22:00,,,,,OK,
86780,49.075699,17.453899,Shell,59,8062 Staré Město,Staré Město,Hradištská 1947,686 03,+420 571 422 777,0:00 - 24:00,,,,,OK,
86781,49.562901,16.5728,Shell,59,8063 Letovice,Letovice,Pražská 1050,679 61,+420 727 816 907,0:00 - 24:00,,,,,OK,
86782,49.727798,13.378,Shell,59,8064 Plzeň-E. Beneše,Plzeň,E. Beneše,301 00,+420 377 421 426,06:00 - 22:00,,,,,OK,
86783,49.167999,16.7145,Shell,59,8067 Šlapanice,Šlapanice,Brnenská 1659,664 51,+420 544 228 702,06:00 - 22:00,,,,,OK,
86784,50.046902,14.5525,Shell,59,8068 Praha-Hornoměcholupská,Praha 10,Hornomecholupská 487,109 00,+420 773 647 510,0:00 - 24:00,,,,,OK,
86785,50.0345,14.5362,Shell,59,8070 Praha-Výstavní,Praha 4,Výstavní 2,149 00,+420 773 303 507,0:00 - 24:00,,,,,OK,
86786,49.208698,16.664,Shell,59,8073 Brno-Žarošická,Brno - Vinohrady,Žarošická,628 00,+420 544 217 953,0:00 - 24:00,,,,,OK,
86787,49.353802,16.0331,Shell,59,8074 Velké Meziříčí,Velké Meziříčí,"Dálnice D1,145 Km, Smer",594 01,+420 566 524 153,0:00 - 24:00,,,,,OK,
86788,49.679199,18.3685,Shell,59,8075 Frýdek-Místek,Frýdek - Místek,Hlavní 3246,738 01,+420 558 621 357,0:00 - 24:00,,,,,OK,
86789,50.385601,13.26,Shell,59,8078 Kadaň,Kadaň,Klášterecká 1688,432 01,+420 474 343 377,0:00 - 24:00,,,,,OK,
86790,49.483898,17.966801,Shell,59,8083 Valašské Meziříčí,Valašské Meziříčí,Hulince,757 01,+420 571 611 343,0:00 - 24:00,,,,,OK,
86791,49.835201,18.2621,Shell,59,8084 Ostrava-Novinářská,Ostrava 1,Novinárská 533,702 00,+420 596 619 872,0:00 - 24:00,,,,,OK,
86792,49.8354,18.301201,Shell,59,8085 Ostrava-Tešínská,Ostrava - Slezská,Tešínská 1999/58,710 00,+420 596 245 410,0:00 - 24:00,,,,,OK,
86793,50.027199,15.7624,Shell,59,8086 Pardubice-Teplého,Pardubice,Teplého,530 02,+420 466 310 538,0:00 - 24:00,,,,,OK,
86794,49.7579,13.3727,Shell,59,8087 Plzeň-Karlovarská,Plzeň,Karlovarská 26,301 00,+420 377 259 396,0:00 - 24:00,,,,,OK,
86795,50.056999,14.5138,Shell,59,8090 Praha-Švehlova L,Praha 10,Švehlova 2078,100 00,+420 271 750 011,0:00 - 24:00,,,,,OK,
86796,49.239201,13.5208,Shell,59,8091 Sušice,Sušice,Hradecká 379,342 01,+420 376 528 019,05:00 - 23:00,,,,,OK,
86797,50.086899,14.4836,Shell,59,8093 Praha-Malešická,Praha 3,U Staré Cihelny 2808/8,130 00,+420 284 860 133,0:00 - 24:00,,,,,OK,
86798,50.0256,14.4981,Shell,59,8095 Praha-Roztylská,Praha 4,Roztylská,148 00,+420 220 873 873,06:00 - 22:00,,,,,OK,
86799,50.1064,14.5448,Shell,59,8096 Praha-Poděbradská,Praha 14,Podebradská,198 00,+420 266 610 311,0:00 - 24:00,,,,,OK,
86800,50.240101,14.2936,Shell,59,8103 Kralupy Nad Vltavou,Kralupy Nad Vltavou,Premyslova 537,278 01,+420 315 722 499,06:00 - 22:00,,,,,OK,
86801,50.645901,13.8215,Shell,59,8105 Teplice-Nákladní,Teplice,Nákladní,415 02,+420 417 579 826,06:00 - 19:00,,,,,OK,
86802,49.7533,13.5884,Shell,59,8108 Rokycany L,Rokycany,"Dalnice D5, Smer Praha",337 01,+420 371 722 255,0:00 - 24:00,,,,,OK,
86803,50.138901,14.1004,Shell,59,8110 Kladno - Cyrila Boudy,Kladno,Cyrila Boudy 2783,272 01,+420 312 248 746,06:00 - 22:00,,,,,OK,
86804,50.692699,14.542,Shell,59,8113 Česká Lípa,Česká Lípa,Žitavská,470 01,+420 487 523 186,0:00 - 24:00,,,,,OK,
86805,49.583,17.2444,Shell,59,8114 Olomouc-Velkomoravská Ii,Olomouc,Velkomoravská 487/17,779 00,+420 585 420 888,0:00 - 24:00,,,,,OK,
86806,50.104698,14.481,Shell,59,8115 Praha-Čuprova (Balabenka),Praha 9,Cuprova,190 00,+420 284 810 381,0:00 - 24:00,,,,,OK,
86807,49.469799,17.1187,Shell,59,8116 Prostějov,Prostějov,Petrské Náměstí 209,796 01,+420 582 333 901,06:00 - 22:00,,,,,OK,
86808,50.0812,14.5086,Shell,59,8119 Praha-Limuzská,Praha 10,Limuzská,100 00,+420 274 776 955,06:00 - 22:00,,,,,OK,
86809,50.211399,15.8495,Shell,59,8121 Hradec Králové-Nejedlého,Hradec Králové,V. Nejedlého 1004,500 89,+420 491 435 600,06:00 - 22:00,,,,,OK,
86810,49.5924,18.0137,Shell,59,8126 Nový Jičín,Nový Jičín,Karla Kryla 2089/.,741 01,+420 556 704 932,05:00 - 22:00,,,,,OK,
86811,50.734001,15.158,Shell,59,8129 Jablonec Nad Nisou-Želivského,Jablonec Nad Nisou,Želivského 1C,466 02,+420 483 705 858,0:00 - 24:00,,,,,OK,
86812,48.966499,14.488,Shell,59,8132 Česke Budejovice-Novohradska,České Budějovice,Novohradská,370 01,+420 386 353 504,0:00 - 24:00,,,,,OK,
86813,49.334702,17.987301,Shell,59,8133 Vsetín,Vsetín,Mostecká,755 01,+420 571 420 698,0:00 - 24:00,,,,,OK,
86814,49.780499,14.9324,Shell,59,8141 Všechlapy,Všechlapy,"Dálnice D1, Smer Brno.",257 26,+420 317 855 760,0:00 - 24:00,,,,,OK,
86815,49.189701,16.6343,Shell,59,8143 Brno-Olomoucká,Brno,Olomoucká 38,618 00,+420 548 226 435,06:00 - 22:00,,,,,OK,
86816,50.022499,15.2079,Shell,59,8139 Kolín,Kolín,Jaselská 880,280 02,+420 321 671 551,0:00 - 24:00,,,,,OK,
86817,49.5583,18.346201,Shell,59,8530 Čeladná,Čeladná,Celadná 807,739 12,+420 731 756 633,05:30 - 21:30,,,,,OK,
86818,49.248199,17.689699,Shell,59,8515 Zlín - Vršava,Zlín,Vršava 470,760 01,+420 577 211 778,05:30 - 21:30,,,,,OK,
86820,49.998299,14.6555,Shell,59,8502 Říčany,Říčany,Rícanská 1818,251 01,+420 323 666 127,05:00 - 23:00,,,,,OK,
86821,48.867298,17.1141,Shell,59,8520 Hodonin - Brnenska,Hodonin,Brnenska 3540,695 01,+420 518 346 945,0:00 - 24:00,,,,,OK,
86822,49.715401,16.255699,Shell,59,8525 Polička,Polička,Starohradská 316,572 01,+420 461 755 252,05:30 - 21:00,,,,,OK,
86823,50.033001,15.2254,Shell,59,8505 Kolin-Tridvorska,Kolin,Tridvorska 1415,280 02,+420 321 742 095,06:00 - 19:00,,,,,OK,
86824,48.907501,16.843599,Shell,59,8509 Bořetice,Bořetice,Boretice,691 08,+420 519 430 278,06:00 - 20:00,,,,,OK,
86825,50.543598,15.5623,Shell,59,8524 Studenec,Studenec U Horek,Studenec U Horek 391,512 33,+420 481 595 304,06:00 - 20:00,,,,,OK,
86826,50.5541,15.9038,Shell,59,8534 Trutnov,Trutnov,Kralovédvorská 505,541 01,+420 721 957 763,05:00 - 23:00,,,,,OK,
86827,48.991199,17.417801,Shell,59,8532 Ostrožská Nová Ves,Ostrožská Nová Ves,Osvobození 268,687 22,+420 572 591 517,0:00 - 24:00,,,,,OK,
86828,49.217201,16.5201,Shell,59,8156 Brno Štouračova,Brno,Štouracova 1A,635 00,+420 777 794 672,0:00 - 24:00,,,,,OK,
86829,49.514702,17.347799,Shell,59,8538 Krčmaň,Krčmaň,Krčmaň,772 00,+420 585 393 098,06:00 - 21:00,,,,,OK,
86830,50.121201,15.2815,Shell,59,8157 Dobšice,Dobšice,1,289 05,+420 325 546 645,0:00 - 24:00,,,,,OK,
86831,49.7896,16.4828,Shell,59,8158 Svitavy,Svitavy - Lačnov,Hlavní 393/139,568 02,+420 734 571 817,0:00 - 24:00,,,,,OK,
86832,49.3922,13.2765,Shell,59,8546 Klatovy,Klatovy,Domažlická 846,339 01,+420 774 454 148,0:00 - 24:00,,,,,OK,
86833,49.7164,17.076799,Shell,59,8548 Litovel,Litovel,Uničovská 371,784 01,+420 585 343 529,06:00 - 20:00,,,,,OK,
86834,48.932301,16.748501,Shell,59,8547 Hustopeče,Hustopeče,Bratislavská 15,693 01,+420 519 411 278,0:00 - 24:00,,,,,OK,
86835,48.922501,14.442,Shell,59,8549 Boršov Nad Vltavou,Boršov Nad Vltavou,Na Planýrce 602/.,373 82,+420 725 035 903,06:00 - 20:00,,,,,OK,
86836,50.311501,12.9418,Shell,59,8160 Ostrov,Ostrov,Obchodní,363 01,+420 352 609 509,0:00 - 24:00,,,,,OK,
86837,50.241199,12.8721,Shell,59,8161 Karlovy Vary,Karlovy Vary,Jachymovská,360 01,+420 352 609 444,06:00 - 22:00,,,,,OK,
86838,49.407101,17.6796,Shell,59,8550 Bystřice Pod Hostýnem,Bystřice Pod Hostýnem,Meziříčská 1614,768 61,+420 573 381 533,0:00 - 24:00,,,,,OK,
86839,49.7579,18.0322,Shell,59,8552 Bílovec,Velké Albrechtice,Velké Albrechtice 260,742 91,+420 556 411 788,0:00 - 24:00,,,,,OK,
86840,49.992802,14.4896,Shell,59,8162 Vestec,Praha,Vídeňská 343,252 42,+420 777 179 919,0:00 - 24:00,,,,,OK,
86841,49.447102,15.2322,Shell,59,8163 Pelhřimov,Pelhřimov,Humpolecká 1995,393 01,+420 566 663 270,0:00 - 24:00,,,,,OK,
86843,50.607498,15.3231,Shell,59,8554 Semily,Semily,Brodská 517,513 01,+420 481 622 414,06:00 - 20:00,,,,,OK,
86844,49.150501,16.865299,Shell,59,8555 Slavkov U Brna,Slavkov,Špitálská Ulice 1540,684 01,+420 544 212 924,0:00 - 24:00,,,,,OK,
86845,49.8456,14.6748,Shell,59,8556 Poříčí Nad Sázavou,Poříčí Nad Sázavou,Pražská 376,257 21,+420 602 502 161,06:00 - 22:00,,,,,OK,
86846,50.131302,15.0819,Shell,59,8558 Poděbrady,Písková Lhota,Poděbradská 4,290 01,+420 325 610 949,06:00 - 21:00,,,,,OK,
86847,49.124199,16.6143,Shell,59,8559 Modřice,Modřice,Hřbitovní 670,664 42,+420 602 542 530,05:30 - 21:00,,,,,OK,
86848,50.4338,15.3749,Shell,59,8166 Jičín,Jičín,Hradecká 805,506 01,+420 495 542 277,06:00 - 22:00,,,,,OK,
86849,49.290298,17.0966,Shell,59,8165 Ivanovice Na Hané,Ivanovice Na Hané,"D1, Sjezd 236",683 23,+420 737 243 029,0:00 - 24:00,,,,,OK,
86850,50.017899,15.9751,Shell,59,8167 Dolní Roveň P,Dolní Roveň,Mw D35 352,533 71,+420 602 250 468,0:00 - 24:00,,,,,OK,
86851,49.9758,16.3895,Shell,59,8560 Ústí Nad Orlicí,Ústí Nad Orlicí,Královéhradecká 1404,562 01,+420 731 390 393,06:00 - 22:00,,,,,OK,
